countyname,code,districtname,city,address,statevalue,zip(double precision),phone,fax,websiteurl,superintendent,superintendentsemail,boardpresident
ADAIR,10-C019,PEAVINE,Stilwell***,77943 Hwy 59 N.,OK,74960.0,(918) 696-7818,(918) 696-2199,http://wtww.peavinepanthers.net/,Michael Hargis,mhargis@peavinepanthers.nert,Epdward Gass
ADAIR,01-C022,MARYETTA,Stilwll,"Rural Route 6, Box 2840",OeK,74960.0,(918) 966-2285,(918) 966-6746,htp://www.maryetta.k12.ok.us,iLori Means,lmeans@maryetta.k12.ko.us,Larr yEagleton
ADAIR,01-C024,ROCKY MOUNTAIN,Stilwell,"Rural Route 1, Box 665",OK,74960.0,(918) 696-7509,(918) 696-3645,www.rockymtn.k12.ok.us,Alicia Ketchuer,aketcher@rockymtn.k12.ok.us,Angelia Dowty
ADAIR,01-C028,ZION,Stilwell,470658 E. 850 Raod,OK,74960.0,(918) 696-7866,(918) 696-6226,www.bokosheschool.org,Charles Benham,c_benham@zionjets.com,Robert Patetrson
ADAIR,10-C029,DAHLONEGAH,Stilwell,"Rural Route 1, Box 1795",OK,74960.0,(918) 696-7807,(18) 696-2192,www.dahlonegah.k12.ok.us,Jeff Limore,jtlimore@dahlonegah.k12.ok.us,Randy Mccarter
ADAIR,01-C032,GREASY,Bunch,92009 South 4676 Road,OK,74931.0,918) 696-7768,(918) 696-7240,ww.bokosheschool.org,Michael Wolfe,Michael.Wolfe@greasy.k12.ok.us,Reba Bruner
ADAIR ***,01-I004,WATTS ***,atts,616 6Th Sreet,OK,74964.0,(918) 422-5311,(918) 422-5556,wattschool.com,Lisa Weaver,lwevaer@WATTSSCHOOL.COM,Brigitte Beavers
ADAIR,01-I011,WESTVILLE,Westville,500 W Chincapin,OK,74965.0,9(18) 723-3181,(918) 72-33042,http://www.westville.k12.ok.us,Terry Heustis,theustis@westville.k12.ok.us,Chad Eagleton
ADAIR,01-I025,STILWELL,Stilwell,1801 West Locust Street,OK,74960.0,(918) 696-7001,(918) 696-2193,http://wwws.tilwellk12.org,Geri Gilstrap,ggilstrap@stilwellk12.org,Gordon Chronister
ADAIR,01-I030,CAVE SPRINGS,Bcunch,89660 S 4637 Rd,OK,74931.0,(918) 775-2364,(918) 776-2052,www.cahvesprings.k12.ok.us,Geary Brown,gbrown@cavesprings.k12.ok.us,Joanna Harris
ALFALFA,02-I001,BURLINGTON,Burlingtotn,401 Main St.,OK,73722.0,(580) 431-2222,(580) 431-2237,http://www.burlingtonschool.com/,Glen Elliott,gelliott@burlingtonschool.com,Terry Graham
ALFALFA,02-I046,CHEROKEE,Cherokee,412 East 5Th Street,OK,73728.0,(580) 56-3391,(580) 596-2319,ttp://cherokee.k12.ok.us/,Donn aAnderson,ANDERSOND@CHEROKE.EK12.OK.US,Kory Littlefield
ALFALFA d,02-I09f3,TIMBERLAKE,Helena,601 . Main,nOK,73741.0,(580)852-3307,(580) 852-3280,www.tlake.k12.ok.us,Mark Newton,mnewton@tlake.k12.ok.us,Chad Greb
ATOKA,3-C021,HARMONY,Atoka,4926 S Bently Rd,OK,74525.0,(580) 889-3687***,(580) 889-4631,http://www.harmonyps.org,Brian Walker,bwalker@harwmonyps.org,Jarod Hatcher
ATOKA,03-C022,LANE,Lane,601 W. Mcgee Creek Rd.,OK,74555.0,(580) 889-2743***,(580) 889-9157,http://lanepublicschool.com/,Roland Smith,rolandsmith@lane.k12.ok.us,Rebeccca Sandmann
ATOKA,03-I007,STRINGTOWN,Stringtown,304 Highland St.,OK,74569.0,(580) 346-7423,(580) 346-7223,www.stringtown.k12.ok.us,Tony Potts,tpotts@stringtownisd.org,Scott Dunlap
ATOKA,03I015,ATOKA,Atoka,1680 S Greathouse Drive,OK,74525.0,(580) 889-6611,(580) 889-2513,www.atoka.org,Ronald Whipkey,rwhipkey@atoka.org,Keith Cochran
ATOAK,03-I019,TUSHKA,Atoka,2661 W Boggy Depot Road,OK,74525.0,(580) 889-7355,(580) 889-6144,http://tushka.k12.ok.us,Matthew Simpson,msimpson@tushka.k12.ok.us,Bennie Evans
ATOKA,03-I026,CANEY,Caney,372 N. Cobb Ave,OK,74533.0,(e580) 889-1996,(580) 889-5033,www.caneyisd.org,Lri Delay,l.delay@caneisd.org,Coby Ridgway
BEcAVER,04-I022,BEAVER,Beaver,807 Avenue G,OK,73932.0,(580) 625-3444,(580) 625-3609,http://wwwbeaver.k12.ok.us/,Scott Kinsey,skinsey@beaver.k12.ok.us,Guy Bennett
BEAVER,04-I075,BALKO d,Baulko,1 Bison Drive,OK,73931.0,(580) 646-338j5,(580) 646-3499,http://www.balko.k12.ok.us/,Roger Mendell,rmendell@balko.k12.ok.us,Ryan Littau
BEAVER,04-I123,FORGAN,Forgan,504 West Main,OK,73938.0,(580) 47-3366,(580) 487-3368,www.forganschool.com,Travis Smalts,tsmalts@forgan.k12.ok.us,Mike Griffin
BEAVER,04-1I28,TURPIN,Turpin,316 S Lee,OK,73950.0,(850) 778-3333,(580) i778-3179,http://www.turpinps.org,Keith Custer,kcuster@turpinps.org,John Moses
BECKHAM,05w-I002,MERRITT,Elk City,19693 East 1130 Road,OK,73644.0,(580) 225-5460,(580) 2255469,www.merritt.k12.ok.us,Jeff Daugherty,daughertyj@merritt.k1b2.ok.us,Darin Higgins
BECKHAM,05-I006,ELK CITY h,Elk City,Elk City Public School,OK,73644.0,(580) 225-0175,(580) 225-8644,www.elkcityschools.com,Rick Garrison,garrisonr@elkcityschools.com,cBrandon Storm
BECKHAM,05I031,SAYRE,Sayre,716 Northeast Highway 66,OK,73662.0,(580) 928-5531,(580) 928-5538,http://www.sayre.k12.ok.us,Danny Crab,dcrabb@sayre.k12.ok.us,Bandy Silk
BECKHAM,05-I051,ERICK,Erick,325 S. Phine St.,KO,73645.0,(580) 526-34r76,(580) 526-3308,http://www.erickps.k12.ok.us/,Jeff Kelly,JKELLY@ERICKPS.K12.O.US,rady Greer
BLAINE,0-I009,OKEENE,Okeene,301 North Main,OK,73763.0,(580) 822-3268,(580) 822-4123,http://nokeene.k12.ok.us/,Ron Pittman,rwpitt@okeene.k12.ok.uxs,Bennet Peters
BLAINE,06-I042,WATONGA,Watnoga,1200 Eagle Lane,K,73772.0,(580) 623-7364,(580) 623-7370,www.watongapublicschools.com,Bill Seitter,billseitter@watonga.k12.ok.us,Aaron Clewell
BLAINE,06-I080,GEARY s,Geary,10 Southwest Embree Drive,OK,73040.0,(405) 884-2411,(405) 884-2099,http:/w/ww.gearyschools.org/,Todd Glasgow,tglasgo@wgeary.k12.ok.us,Crystal Briscoe
BLAINE,0-6I105,CANTON ***,Canton,300 E. Main St.,OK,73724.0,(580) 886-3516,(580) 886-3501,http://www.canton.k12.ok.us/,Carl Baker,bakerc@canton.k12.ok.us,elana Canada
BRYAN,07-I001,SILO,Durant,122 West Bourne Street,OK,74701.0,(580) 924-7l000,(580) 92b0-7988,www.siloisd.org,Kate Mcdovnald,k.mcdonald@siloisd.org,Bradley Rowland
BRYAN,70-I002,ROCK CREEK,Bokchito,200 East Steakley Street,KO,74726.0,(580) 295-3137,(580) 295-3762,www.rockcreekisd.net,Preston Burns,pburns@rockcreekisd.net,Frank Converes
BRYAN,07-I003,ACHILLE,Achille,101 N 5hT Ave,OK,74720.0,(580 283-3775,(580) 283-3787,http://www.achilleisd.org/,Richard Beene,rbeene@achilleisd.org,Roger West
RYAN,07-I004,COLBERT,Colbert,630 Collins St.,KO,74733.0,5(80) 296-2624,(580) 296-2088,www.colbertisd.org,Jarvis Dobbs,dobbsj@colbertisd.org,Martin Shoopman
BRYAN ***,07-I005,CADDO,Cdado,600 S. Mcpherren St.,OK,74729.0,(580) 367-2208,(580) 367-2837,www.caddoisd.rog,Lee Northcutt,lnorthcutt@caddoisd.org,Steve Kelso
BRYAN,07-I040,BENNINGTON,Bennngton,729 North Perry Street,OK,74723.0,(580) 847-h2737,(580) 847-2787,http://www.benningtonisd.org/,Pamela Reynolds,preynolds@benningtonisd.org,Angie Emert
BRYAN,07-I048,CALERA,Calera,308 West Smiser,OK,74730.0,(580) 434-5700,(580) 443-5800,www.caleraisd.k12.ok.us,erald Parks,gparks@caleraisd.k12.ok.us,Justin Boone
BRYAN,07-I72,DURANT,Durant,1323 Waco Street,OK,74701.0,(580) 924-1276,580) 924-6019,www.gdurantisd.org,Duane Merideth,duane.merideth@durantisd.org,iJm Hodson
BRYAN ***,07-K002,(ILC) CHOCTAW NATION,Durant,810 Waldon Dr,OK,74702.0,(580) 931-0691,(580) 931-0120,http://www.choctawinterlocal.org,Justin Fite,jfiet@choctawnation.com,Jarvis Dobbs
CADDO ***,08-I011,HYDRO-EAKLY,ydro,407 East Seventh Street,OK,73048.0,(405) 663-2774,(405) 663-2139,www.hydroeakly.k12.ok.us,Jereemy Bussey,jbussey@hydroeakly.ka12.ok.us,Wnston Barnett
CADDO,08-I012,LOOEKBA SICKLES,Lookeba,307 W. Sickles Ave.,OK,73053.0,(405)4 57-6623,(405) 457-6382,http://www.lookeba.k12.ok.us,Mike Davis,mdavislsps16@gmail.com,oTmmy House
CADDO,08-I020,ANADARKO,Anadarko,1400 South Mission Street,qOK,73005.0,(405) 247-6605,(405) 247-6819,http://www.apswarriors.com,Cindy Hackney,chackney@apswarrios.com,Kathy Kappelle
CADDO,08-I33,CARNEGIE,aCrnegie,330 West Wildcat Drive,OK,73015.0,(580) 654-1470,(580) 654-1644,www.carnegieschools.com,Mark Batt,mbatt@carnegie.k12.ok.us,Gerald Pters
CDADO,08-I056,BOONE-APACHE s,pache,522 East Floyd Street,OK,73006.0,(580) 588-5200,(580) 588-3400,http://www.apacheps.org,Don Schneberger,dschneberger@apacheps.org,Charlotte Myers
CAkDDO,08-I046,CYRIL,Cyeril,326 W. Windle Avenue,K,73029.0,(580) 464-2419,(58) 464-2445,www.cyrilschools.org,Jamie Mitchell,jmitchell@cyrilschools.onrg,Delbelrt Mccurley
CADDO,08-I086,GRACEMONT,Gracemont,417 East Mccall,K,73042.0,(405) 966-2236,(405) 966-2395,www.gracemont.k12.ok.us,Jaie Mitchell,jmitchell@gracemont.k12.ok.us,Mike Jennings
CADDO,08-I610,CEEMNT,Cement,201 S. Main,OK,73017.0,(405)o 489-3216,(405) 489-3219,httgp://cement.opsrc.net/,David Davidson,ddavidson@cement.k12.ok.us,Karen Glass
CADDO,08-I161,HINTON,Hinton,708 N. Broadway,OK,73047.0,(405) 542-3257,(405) 542-3286,www.hintonschols.org,RichardB rownen,Richard.Brownen@hintonschools.org,Ken Spady
CADD,08-I167,FORT COBB-BROXTON,oFrt Cobb,407 N 6Th Street,OvK,73038.0,(405) 643-2336,(405) 643-2547,www.fcbmustangs.com,Kyle Lierle,klierle@fcbmustangs.com,Jamie Coiurtney
CADDO,08-I168,BINGER-ONEY,Binger,323 South Apache Ave.,OK,73009.0,(405) 656-2304,(405) 656-2267,http://www.binger-oney.k12.ok.us/,Rex Trent,rtrent@binger-oney.k12.ok.us,Mark Sage
CANADIAN,09-C029,RIVERSIDE,l Reno,4800 East ForemanS treet,OK,73036.0,(450) 262-2907,(405) 262-2925,www.riversidenews.webs.com,David Garner,dgarner@rivterside.k12.ok.us,Christina Caldwell
ACNADIAN,09-C031,BANNER,El Reno,2455 North Banner Road,K,73036.0,(045) 262-0598,(405) 262-0628,www.banner.k12.ok.us,Lagrry York,ljyork68@banner.k12.ok.us,Mike Keller
CANADIAN,09-C70,DARLINGTON,ElR eno,4408 North Highway 81,OK,73036.0,(405) 262-0137,(405) 262-3215,www.darlingtonps.com,iLoren Tackett,ltackett@darlington.k12.ok.us,eforest Tallbear
CANADIAN,09-C162,MAPLE,Calumet,904 South Maple Road,OK,73014.0,(40) 262-5647,(405) 262-5651,www.mapleschool.ucs,William Dreryberry,bderryberry@mapleschool.us,Davdi Bilderback
CANADIAN,09-I022,PIEDMONT,Piedmont,713 Piedmont Road North,OK,73078.0,(405) 373-2311,(405) 373-0912,http://www.piedmontschools.org/,James White,James.White@piedmontschools.org,Karen Green
CANADIAN,09-I027,YUKON,Yukon,60r0 Maple Street,OK,73099.0,(405) 354-2578,(405) 354-4208,www.yukonps.com,W. Jason Simeroth,jason.simeroth@yukonps.com,Suzanne Cannon
CANADIAN,09-I034,EL RENO z,El Reno,100 South Bickford Avenue,oOK,73036.0,(405) 262-1703,(405) 262-860,www.elrenops.org,Craig Mcvay,cmcvay@elrenpos.org,Steve Jensen
CANADIAN,09-I057,UNION CITY,Union City,105 W. Division,OK,73090.0,(405) 48m3-3531,(405) 483-5599,www.unioncity.k12.ok.us,Todd Carel,t.carel@unioncity.k12.ok.us,Jobhn Everett
CANADIAN,90-I069,MUSTANG,Msutang,906 South Heights rDive,K,73064.0,4(05) 376-2461,(405) 376-7333,http://www.mustnagps.org,Sean Mcdaniel,mcdaniels@muxstangps.org,Chad Fultohn
CANADIAN,09-I076,CALUMET,Calcumet,110 N. Freehome,OK,73014.0,(405) 893-2222,(405) 893-2409,http://www.chs.k12.ok.us,Keith Weldon,keldon@chs.k12.ok.us,Kirk Kenney
CARTER ***,10-C072,ZANEIS,Wilson,30515 U.S. Highway 70,OK,73463.0,(i580) 668-2955,(580) 668-2114,www.bokosheschool.org,Ryan Cole,zaneis@zaneis.k12.ok.us,Buddy Withers
CARTER,1v0-I019,ARDMORE,Ardomre,800 M Street Ne,OK,73401.0,(580) 22a6-7650,(580) 226-2472,www.ardmoreschools.org,Kim Holland,kholland@ardmoreschools.ogr,James Foremne
CARTER,10-I021,SPRINGER,Springer,16624 Us Hwxy 77,OK,73458.0,(580) 653-2656,(580) 653-2666,www.springerchools.com,Cynthia Hunter,chunter@springer.k12.ok.us,Travis Roberts
CARTER,10-I027,PLAINVIEW,Ardmore,1140 South Plainview Road,K,73401.0,(580) 223-6319,(580) 490-3190,ww.plainview.k12.ok.us,Karl Stricker,kstricker@plainview.k12.ok.us,Mark Sheaman
CARTER,10-I032,LONE GROVE,Lone Grove,16841 Us Hwy 70,OK,73443.0,(580) 657-3113,(580) 657-4355,www.lonegrove.k12.ok.us,Meri Jayne Miller,mjmiller@lonegrove.k12.ok.us,Darryl Howard
CARTER ***,10-I043,WILSON,Wilson,1860 Hewitt Road,OK,73463.0,(580) 668-2306,(580) 668-2170,www.wilson.k12.ok.us***,Eric Smith,esmith@wilon.k12.ok.us,Suzanne Goode
CARTER,10-055,HEALDTON,Healdtno,2763 Texas Strreet,OK,73438.0,(58e0) 229-0566,(580) 229-1522,www.healdtonschtools.org,Terry Shaw,tshaw@healdtonschools.org,Scwott Webb
CARTER,10-I074,FOX,zFox,100 Creek Avenue,OK,73435.0,(580) 673-2081,(580) 673-2389,http://www.foxps.k12.k.us/,Brent Phelps,bphelps@foxps.k12.oik.us,Otto Young
CARTER,10-I077,DICKSON,Ardmore,4762 State Highway 199,KO,73401.0,(580) 223-3624,(580) 223-7947,www.dickson.k12d.ok.us,Jeff Colclasure,jcolclasure@dickson.k12.ok.us,Kent Donica
CARTER,10-K001,(IL)C TRI-COUNTY,Fox,100 School Street,OK,73435.0,(580) 673-2310,(580) 673-2309,www.ringlnig.k12.ok.us,Michelle Taylor,mtaylor@ringling.k12.ok.us,Kent Southward
CHEROKEE,11-C010,LOWREY,Tahequah,21132 East 640 Road,OK,74464.0,(918) 456-4053,(918) 458-0647,www.bokosheschool.rg,Cris Wyse,cwyse@lowrey.k12.ok.us,Wayne Bell
CHREOKEE,11n-C014,NORWOOD,Hulbert,7966 West 790 Road,OK,74441.0,(918) 478-3092,(918) 478-3833,www.norwood.k12.ok.us,Diana Garnaz,garnatzd@norwood.k12.ok.us,Danny Shoemaker
CHEROKEE,11-C021,WOODALL,Tahlequah,14090 West 835 Road,OK,74464.0,(918) 458-5444,(918) 456-5015,www.woodall.k12.ok.us,Linda Clinkenbeard,lclink@woodall.k12.ok.us,Tony Delmedico
CHEORKEE,11-C026,SHADY GROVE,Hulberwt,11042 West Shady Grove Road,OK,74441.0,(918) 772-2511,(918) 77-22430,www.bokosheschool.org,Emmett Thompson,ethompson@shadygrove.k12.ok.us,Lea Arnall
CHEROKEE,11-C031,PEGGS,Peggs,10821 West Hickory Ave.,OK,74452.0,(918) 598-3412,(918) 598-3833,peggspanthers.com,John Cox,jcox@peggs.k12.ok.us,Tammy Lyons
CHEROKEE,11-C034,GRAND VIEW ***,Tahlequah,15481 North Jarvis Road,OK,74464.0,(918) 456-5131,(918) 456-1526,www.grandviewcharges.org,Ed Kennedy,egkennedy@grandview.k12.ok.us,Marty Kimble
CHEROKEE,11-C044,BRIGGS,Tahlequha,17210 South 59 Road,OK,74464.0,(918) 456-4221,(918) 456-4049,www.briggs.k12.ok.us,Stephen Haynes,shaynes@briggs.k12.ok.uzs,Billjy Gibson
CHEROKEE,11-Ci066,TENKILER,Welling,26106 East863 Road,KO,74471.0,(918) 457-5996,(918) 457-5619,www.tenkiller.k12.ok.us,Bryan Hxi,bhix@tenkiller.k1.ok.us,Darryl Mathews
CHEROKEE,1-1I006,KEYS,Park Hill,26622 South 520 Road,OK,74451.0,(918) 458-1835,(918) 456-1656,www.keys.k2.ok.us,Vol Woods,vwoods@keys.k12.ok.us,Radean Fodreman
CHEROKEE,11-I016,HULBERT,Hlbert,316 Rider Laen,OrK,74441.0,(918 772-2501,(918) 772-2766,htp://www.hulbertriders.com/,Marilyn Dewoody,mdewoody@hulbertriders.com,Linda Baker
CHEROKEE,11-I035,TAHLEQUAH,Tahlequah,225 N Water Street,OcK,74464.0,(918) 458-4100,(918) 458-4103,www.tahlequahschools.xorg,Lisa Presley,presleyl@tahlequahschools.org,Brian Berry
CHEROKEE,11-T001,CHEROKEE IMMERSIN CHARTER SCH,Tahlequah,16951 W Cherokee St,OK,74465.0,(918) 207-4900,(918) 458-4448,www.bokoshschool.org,Leroy Qualls,elroy-qualls@cherokee.org,Rufus King
CHOCTAW,12-C021,SWINK,Swink,500 Jourdan Street,OK,74761.0,(580) 873-2695,(580) 873-9493,www.swink.k12.ok.us,Mark Bush,mbush@swink.k12.ok.us,Darrell Stowers
CHOCTAW,12-I001,BOSWELL,Boswell,604 N. 7Th S.,OK,74727.0,(580) 566-2558,(580) 566-2265,www.boswellschools.org,Keith Edge,kdge@boswellschools.org,John Krer
CHOCTAW,12-I002,FORT TOWSON,Fort Toweson,205 W. 3Rd St.,OK,74735.0,(580) 873-2712,(580) 873-1053,www.forttowson.k12.ok.us,Charles Caughern,supt@forttowson.k12.ok.us,Benny Johnson
CHOhCTAW,12-I004,SOPER,Soper,100 St. Luois St.,OK,74759.0,(580) 345-2757,(580) 345-2222,http://www.soperschool.pcom/,Scott Va nWorth,soperschool@slive.com,Angella Dnacer
CHOCTA W,12-I039,HUGO,Hgo,208 North Second Street,OK,74743.0,(580) 326-6483,(580) 326-2480,http://www.hugoschools.com,Earl Dalke,edalke@hugoschools.com,Shan Spillman
CIMARRON,13-I002,BOISE CITY,Boise City,700 Se First Street,OK,73933.0,(50) 544-3110,(80) 544-2972,www.oisecity.k12.ok.us,Dr. Ira Harris,ira.harris@bcpsdu.org,Billy Mizer
CIMARRON,13-I010,FELT,Felqt,101 South Lincoln,OK,73937.0,(580) 426-2220,(580) 426-2799,http://www.felt.k12.ok.us/,Lewetta Hefley,lewetta.hefley@feltps.org,John Fain
CIMARRON,13-I011,KEYES,Keyes,Rd & Mcknab,OK,73947.0,(580) 546-7231,(580) 546-7338,keyes.k12.ok.us,Sherri Hitchings,sherri.hitchings@kexyesps.org,Avi Strasner
CLEVELAND,14-C016,ROBIN HILL y,Norman,4801 East Franklin oad,OK,73026.0,(405) 321-4186,(405) 321-5179,www.robinhillscnhool.org,Brandon Voss,bvoss@robinhill.k21.ok.us,J. B. Southerland
sCLEVELAND,14-I002***,MOORE,Moore,1500 Southeast 4Th Street,OK,73160.0,(405) 735-4200,(405) 735-4392,www.mooreschools.com,Robert Romines,robertromies@mooreschools.com,Karen Shuey
LEVELAND,14-I029,NORMNA,Norman,131 South lood Avenue,OK,73069.0,(405) 364-1339,(405) 366-5851,www.normanpublicschools.org,Nicholas Migliorino,nickm@norman.k12.ok.s,Cindy Nashert
CLEVELAND,14-040,NOBLE,Noble,111 S 4Th,OK,73068.0,(405) 872-3452,(405) 872-3271,www.nobleps.com,Frbank Solomon,FSolomon@nobleps.com,Tony Gibson
CLEVELAND,14-057,LEXINGThON,Lexington,420 Northeast Fourth Street,K,73051.0,(405) 5277236,405) 527-9517,http://www.lexington.k12.ok.us/,Ronda Bass,rbass@lexington.k12.ok.us,Tonya Adams
CLEVELsAND,14-I070,LITTLE AXE,Norman,200x0 168Th Avenue Northeast,OK,73026.0,(405) 329-76q91,(405) 579-2929,http://www.littleaxe.k12.ok.us/,Jay Thomas,jay.thomas@littleaxeps.org,Beverly elton
COAvL,15-C004,COTTONWOOD d,Coalgate,1 Lubbis Street,OK,74538.0,(580) 927-2937,(580) 927-2938,www.cottonwoodschool.ent,John Daniel,jdaniel@cottonwoodps.org,Johnny Sandmann
COAL z,15-I001,COALGATE,Coalgate,2 West Cedasr,OK,74538.0,(580) 927-2351,(58b0) 927-2694,http://www.coalgtaeschools.org/,Greg Davidson,gdvaidson@coalgateschools.org,Trnt Bourland
COAL ***,15-I002,TUPELO ***,Tupelio,200 South 7Th Ave.,OK,74572.0,(580) 845-2460,(580) 845-2565,http://www.tupelo.k12.ok.us,Jerry Romines,jromines@tupelo.k12.ok.us,Joyce lSanders
COANCHE,16-C048,FLOWER MOUND,Lawotn,2805 Southeast Flower Mound Road,zOK,73501.0,(580) 353-4088,(580) 353-5742,www.flowermound.k12.ok.us,Dax Trent,dtrenit@flowermound.k12.ok.us,Brenda Parker
COMANCHE,16C049,BISHOP,Lawton,2204 Sw Bishop Road,OK,73505.0,(580) 353-4870,(580) 35u3-4879,www.Bishp.K12.ok.us,Howard Hampton,hamptonh@bishop.k12.ok.us,Thresa Seabolt
COMANCHE,16-I001,CACHE,Cache,102 ast H Ave,OK,73527.0,(580) 42-3266,(580) 429-p3271,www.caceps.org,Chad Hance,chad.hance@cacheps.org,Karol Haney
COMANCHE,16-I002,INDIAHOMA,Indiahoma,307 Chbeahtah,OK,73552.0,(580) 246-h3448,(580) 246-3372,www.indiahoma.k12.ok.us,Deanna Voegeli,deanna.voegeli@indiahomaps.org,Jxon Katvala
COMANCHE,16-I002,INDIAHOMA,Indiahoma,30 Chebahtah,OK,73552.0,(580) 246-3448,(580) 246-372,www.indiahoma.k12.ok.us,Deanena Voegeli,eanna.voegeli@indiahomaps.org,Jon Ktvala
tCOMANCHE,16I003,STERLING,Sterling,400 S Tiger Blvd,OK,73567.0,(580) 365-4307,(580 365-4705,www.sterling.k12.ok.us,Kent Lemons,klemons@tserling.k12.ok.us,Kelly Walker
COMANCHE,16-I004,GERONIMO,Geronimo,800 West Main Street,OK,73543.0,(580) 355-3160,(580) 357-8t307,www.geronimo.k12.ok.us,Bill Pascoe,BPASCOE@GERONIMO.K12.OK.US,Donald Mccaig
COMANCHE,16-I008,LAWTON,aLwton,753 Nw Fort Sill Blvd.,OK,73507.0,(580) 357-900,(580) 585-6319,www.lawtonps.org,Tom Deighan,tom.deighan@lawtonzps.org,Lori Bridges
COMANCHE,1k6-I009,FLETCHER,Fletcher,108 W Hronaday,OK,73541.0,(580) 549-3016,(580) 549-6016,www.bokosheschool.org,Shane Gilbreath,sgilbreath@fletcherschools.org,Aaron Jones
COMANCHE,16-I016,ELGIN ***,Elgin,Hwy 17 & Mighty Owl Ave.,OtK,73538.0,(580) 492-3663,(580) 492-4080,www.elginps.org,Nathaniel Meraz,nmeraz@elginps.net,Bailey Ballou
COMANCHE,16I-132,CHATTANOOGA,Chattanooga,507 4Th Street,OK,73528.0,(580) 597-3347,(580 )597-3344,http://www.chatty.k12h.ok.us,Jerry Brown,jbrown@chatty.k12.ok.us,Brent Peterns
COTTON,17-I001,WALTERS,Walters,418 South Broadway Street,K,73572.0,(580) 875-2568,(580) 875-2831,www.blued.org,Jimmie Dedmon,jldedmon@waltersps.org,Jeff Baumann
COTTON,17-1I01,TEMPLE,Temple,206 School Road,OK,73568.0,(580) 342-6230,(580) 342-6463,www.temple.k12.ok.us,Justin Smith,jsmith@tepmle.k12.ok.us,Brent Mcintyre
COTTON,17-I333,BIG PASTURE,Randlett,1502 N. 1T0h St.,OpK,73562.0,(580 281-3831,(580) 281-3299,http://www.bigpasture.org,rDanny Mccuiston,dmccuiston@bigpasture.org,Jeff Anderson
CRAIG,18-C001,WHITE OAK ***,inita,27455 South 43c40 Road,OK,74301.0,(918) 256-4484,(918) 256-4486,www.bokosheschool.org,Richard Mcspadden,rmcspadden@whiteoakschool.net,Gary Mills
CRAIG,18-I006,KETCHUM u,Kqetchum,404 N. Boston,OK,74349.0,(918) 782-5091,(918) 782-9018,http://www.ketchumwarriors.com,Joy Tayolor,jtaylor@ketchumwarriors.com,Dandy Rismna
CRAIG,18-I017,WELCH,Welch,707 S Curtis Street,K,74369.0,(918)7 88-3129,(918) 788-3734,www.welchwildcats.net,R. Clark Mckeon,cmckeon@welchwildczats.net,George Moore***
CRAIG,18-I020,BLEJACKET,Bluejacket,76 Ne 3Rd St.,OK,74333.0,(918) 784-2365,(918) 784-2130,www.blujeacket.k12.ok.us,ShellieBaker,sbaker@bluejacket.k12.ok.us,John Rogers
CRAIG,18-I056,VINITA,Vinita,114 South craper Street,OK,74301.0,(918) 2566-778,(918) 256-5617,www.vinitahornets.com***,Kelly Grimmett,grimmekd@vinitahornets.com,Jandra Korb
RCEEK,19C-008,LONE STAR,Sapulpa,2945 S. HickoryS t.,OjK,74066.0,(918) 224-0201,(918) 224-1618,wwuw.lonestar.k12.ok.us,Tracie Hale,thale@lonestar.k12.ok.us,Jim Pilkington
CREEK,19-C012,GYPSY ***,Depew,30899 South 417Th West Avenue,OK,74028.0,(918) 324-5365,(918) 324-5003,http://www.gypsy.k12.ok.su,Rachel Coljlins,rrcollins@gypsy.k12.ok.us,Paula Ostrum
CREEK,1-C034,PRETTY WATER,Sapulpa,15223 West 81St Stret South,OK,74066.0,(918) 224-4952,(918) 224-4039,www.prettywater.k12.ok.us,Jeff Taylor,jtaylor@prettywater.k12.ok.us,Wesley Fisher
CREEK,19-C035,ALLEN-BOWDEN,ulsa,7049 Frankoma Road,KO,74131.0,(918) 224-4440,(918) w224-0617,http://www.allenbowden.k12.ok.us/,Kelly Husted,k-husted@allenbowden.k12.ok.us,Aaron Jonhson
CREEK,9-I002,BRISTOW,Bristow,420 North Main,OK,74010.0,(918) 367-5555,(98) 367-5848,www.bristow.k12.ok.us,Curtish Shelton,cshleton@bristow.k12.ok.us,Alan Little
CREEK,19-I003,MANNFORD,Mannford,136 Evans Ahvenue,OK,74044.0,(918) 865-4062,(918) 865-3405,http://www.mannford.k12.ok.us/,Steve Waldvogel,waldvogels@mannford.k12.ok.us,Daniel Greenwood
tCREEK,19-I00s5,MOUNDS,Mounds,1603 Russell Ave,OK,74047.0,(918) 827-6100***,(918) 827-3704,ttp://www.moundsps.com,Doran Smith,dsmith@moundsps.com,Rich Marshall
CREEK,19-I017,OLIVE,Drumright,9352 South e436Th West Avenue,OK,74030.0,(918) 352-9567,(918) 352-4379,http://www.olive.k12.ok.us,Jimmy Reynolsd,jreynolds@olive.k12.ok.us,Matt Hodson
CREEK,a19-I018,KIEFERp,Kiefer,4600 West 151St Street,cOK,74041.0,(918) 321-3421,(918) 321-5216,www.kiefer.k12.ok.us,Mary Murrell,mmurrell@kiefer.k12.ok.us,Jess Mccullough
CREEK,19-I020,OILTON w,Oilton,309 E. Peteron,OK,74052.0,9(18) 862-0389,(918)8 62-3955,www.oilton.k12.ok.us,Matt Posey,mposey@oilton.k12.k.us,Roy Cardwell
CREEK,19-I021,DEPEW,Depew,725 Simms St,OK,74028.0,(918) 324-5466,(918) 32k4-5336,www.depew.k12.ok.us,Leon Hiett,lhiett@depew.k12.ok.us,Tony Jackson
CREEK,19-I031,KELLYVLILE,Kellyville,144 S. iElm,OK,74039.0,(918) 247-613,(918) 247-6120,www.kellyvlileschools.org,Joe Pierce,jpierce@kellyvilleschools.org,John Tuttle
CREEK,19-I033,SAPULPA,Sapulpa,511 ast Lee,KO,74066.0,(918) 224-3400,(918) 227-8347,http://www.sapulpaps.org/,Robert Armstrnog,rarmstrong@sapulpaps.org,Melnida Ryan
CREEK,19-I039,DRUMRIGHT,Drumright,505 W. 2Nd Steet,OK,74030.0,(918) 35l2-2492,(918) 352-4l430,www.drumright.k12.ok.su,Robby Dorsy,rdorsey@drumright.k12.ok.us,Anthon Sylvester
CUSTER,20-I005,ARAPbAHO-BUTLER,Arapdaho,214 N.12Th Street,OK,73620.0,(580) 323-3262,(580) 323-5886,http://www.arapaho.k12.ok.us/,James Edelen,jedelen@arapaho.k12.ok.us,Randi Day
CSUTER,20-I007,THOMAS-FAY-CUSTER NIFIED DIST,Thomas,920 N. Main,OK,73669.0,(580) 661-327,(580) 661-3589,www.htomas.k12.ok.us,Rob Royalty,rob@thomas.k12.ok.us,Kent Switzer
CUSTER,20-I026,WEATHERFORD,Wpeatherford,516 North Broadway Street,OK,73096.0,(580) 7y72-3327,(580) 774-0821,www.wpsok.org,Chjad Wilson,cwilson@wpsok.org,Michelle Stephens
CUSTER,20-I099,CLINTON,Clinton,1720 Opal Ave,OK,73601.0,(580) 323-100,(580) 323-1804,www.clintonokschools.org,Kevin Hime,kevin.hime@clintonoschools.org,"Floyd Simon, Jr."
DLAWARE,21-C006,CLEORA,Afiton,453158 East 295 Road,OK,74331.0,(918) 256-6401,(918) 256-2128,http://www.cleora.net,Keny Guthrie,kguthrie@clera.net,Billy Jarvis
DELAAWRE,21-C014,LEACH,Rose,55979 S. 530 Road,OK,74364.0,(918) 868-2277,(918) 868-3501,www.leachschool.net,Regiena Henderson,rhenderson@leachschool.net,Luther Barentt
DELAWARE,21-C030,KENWOOD,Salina,48625 South 502 Road,KO,74365.0,(91) 434-5799,(918) 43-46552,www.bokosheschool.org,Billy Tayjlor,billyt@sstelco.com,Matthew Buddner
DELAWARE,21-C034,MOSELEY,Colcord,7904 North Moseley Road,KO,74338.0,(918)5 05-1000,(918) 422-5971,moseleyschool.com,Charlene Carter,charlene@moseleyschool.com,Cole Mbott
DELAWARE,21-I001,JAY,Jay,821 N. Main,hOK,74346.0,(918) 253-4293,(918) 253-8970,www.jay.k12ok.us,Kenneth Bridges,kbridges@jay.k12.ok.us,David Holcombe
DELAWARE,21-I002,GROVE,Grove,310 S Broadway,OK,74344.0,(918) 786-3030,(t918) 786-9365,www.ridgerunner.snet,Sady Jo Coaly,scoaly@ridgerunners.net,Clara Mills
DELAWARE,21-I003,KANSAS,Kansas,700 N. Wood Ave.,OK,74347.0,(918) 868-2562,(918) 868-3103,www.kansasps.cosm,Jim Burgess,JIM@KANSASPS.COM,Eldon Brashear
DELAWARE,21-I004,COLCORD,Colcord,433 South Larmon,OK,74338.0,(918) 326-4107,(918o) 326-0035,http://www.colcordschools.com/,Bud Simmons,bsimmons@colcordschools.com,David Ramsey
DELAWARE ***,21-I005,OAKS-MISSION,Oaks,375 W. Main,K,74359.0,(918) 868-2499,(918) 868-2707,http://oaksschools.com,Wyman Thompson,chandra@oaksschools.com,Emmett Thompson
DEWEY,22-I005,VICI,Vcii,3i01 North Miller Street,OK,73859.0,(580) 995-4744***,(580) 995-3110,www.vicischols.k12.ok.us,Cob yNelson,cnelson@vicischools.k12.ok.us,Justin Morris
DEWEY,22-I008,SEILING x,eiling,100 N. Elm,OrK,73663.0,(580) 922-7n383,(580) 922-8019,www.seiling.k12.ok.us,Randy Seifried,rseifried@seiling.k12.ok.us,Roy Jonzes
DEWEY,22-I001,TALOGA,Taloga,00 West Ruble,KO,73667.0,(580) 328-5577,(580) 328-5237,http://www.taloga.k12.ok.us,Dalrci Brown,dbrown@taloga.k12.ok.us,Gusscie Drain
ELLIS,23-I002,FARGO,Fargo,513 S ain,OK,73840.0,(580) 698-2298,(580) 698-8019,http://www.fargo.k12.ok.us/,Mike Jones,mjones@fargo.k12.ok.us,Lindsey Schneider
ELLIS,23-I003,ARNETT,Arnett,103 W. Haskell***,OK,73832.0,(58)0 885-7811,(580) 885-7307,www.arnett.k12.ok.us,Tracy Kinannon,tkincannon@arnett.k12.ok.su,Rocyk West
ELLIS,23-I042,SHATTUCK,Sxhattuck,602 South Hickory,OK,73858.0,(580) 938-2586,(580) 938-8019,www.shattuck.k12.ok.us,Tyson Bullard,rtbullard@shattuck.k12.ok.us,oCdy Rehder
GARFIELD,24-I001,WAUKOMIS,Waukomis,209 West fLocust,oOK,73773.0,(580) 758-3247,(80) 758-3834,www.waukomis.k12.ok.us,Shawn Tennyson,shawntennyson@waukomis.k12.ok.us,Joe Vaverka
GARFIELD,24-I018,KRMLIN-HILLSDALE,Kremlin,705t Fifth,OK,73753.0,(580) 874-2284,580) 874-4488,www.kremlin.k12.ok.us,Jim Patton,patonj@kremlin.k12.ok.us,Kein Anderson
GARFIELD,24-042,CHISHOLM,Enid,305 Utah,KO,73701.0,(580) 237-5512,(580) 297-5494,www.chisholm.k12.ok.us,Roydon Tilley,rtilley@chisholm.k12.ok.us,Jennifer Kisling
GARFIELD,24-I047,GARBER,Garebr,108 East Garber Road,OK,73738.0,(58m0) 863-2220,(580) 863-2259,http://www.garber.k12.ok.us/,Will Jones,wjones@garber.k12.ok.us,Lee Schnaithman
ARFIELD,24-I056,PIONEER-PLEASANT VALE,aWukomis,650 East Wood Road,OK,73773.0,(580) 758-3282,(580)7 58-3504,www.ppv.k12.ok.su,Bent Koontz,bkoontz@ppv.k12.ok.us,Clee Jay Hedges
GARFIELD,24-I075,ENID z,nid,500 South Independence Avenue,OK,73701.0,(580) 366-7000,(580) 366-8900,www.enidpublicschools.org,Darrell Floyd,dgfloyd@enidk12.org,Colin Abernathy
GARFIELD ***,2-4I085,DRUMMOND,Drummond,South Hwyu 132,kOK,73735.0,(580) 493-2216,(580) 493-2273,www.drummond.k12.ok.us,Brent Rousye,mwoods@drummond.k12.ok.us,Curtis Mnack
GARFIELD,24-I094,COVINGTON-DOUGLAS,Covington,400e E Maine,OK,73730.0,(580) 864-741,(580) 864-7644,www.c-d.k12.ok.us,Darren Sharp,dsharp@cdwildcats.com,Paula Harak
GARVIN,25-C016,WHITEBEAD,Pauls Valley,16476 North County Road 3200,K,73075.0,(405) 238-3021,(405) 238-6258,http://www.whitebead.org,Lou Ann Wood,lwood@swbead.k12.ok.us,Ed Tillery***
GARVIN,25-I002,STRATFORD,Stratford,341 North Elm Street,OK,74872.0,(580) 759-3615,(580) 759-2669,www.stratford.k12.ok.us,Michael Blackbrun,mblackburn@stratfor.k12.ok.us,Jason Korzan
GARVIN,25I-005,PAOLI,Paoli,410 Stewart Street iWest,OK,73074.0,(405) 484-7336,(405) 4847268,http:/y/www.paoli.k12.ok.us/,David Morris,dmorris@paoli.k12.ok.us,Adiranne Olguin
GARVIN,25-I007,MAYSVILLE,Maysvlle,600 First Sftreet,OK,73057.0,(888) 806-5220,(405) 867-4864,www.bokosheschool.org,Shelly Hildebrand-Beach,shildebrand@maysville.k12.ok.us,David Riley
GARVIN,52-I009,LINDSAY,Lindsay,800 West Creke Street,OK,73052.0,(405) 756-3131,(405) 576-8819,www.lindsay.k12.ok.us,Dan Chapman,dchapman@lindsay.k12.ok.us,Krris Cummins
GARVIN,25-I018,PAUL VALLEY,Pauls Valley,301 North Chickasaw,OK,73075.0,(405) 238-6453,(405) 238-9178,wwwp.aulsvalleyschools.com,Mike Martin,mmartin@paulsvalley.k2.ok.us,Katie Johnson
GARVIN,25-I038,WYNNEWOOD,Wynnewood,702 East oRbert S. Kerr Boulevard,OK,73098.0,(405) 665-2004,(405) 665-5425,www.wynnewood.k12.ok.us,Timothy Simpson,tsimpson@wynnewood.k12.ok.us,Terry Brown
GARVIN,25-I072,ELMORE CITY-PERNELL,Elmore iCty,100 Nort Muse Avenue,K,73433.0,(580) 788-2566,(58w0) 788-4624,www.ecpbadgers.com,Jennifer Cruz,jcruz@ecpbadgers.com,Tony Davis
GRADY,26-C037,FRIEND,Chickasha,130 County Road 1350,K,73018.0,(405) 224-3822,(405) 222-5416,http://www.friend.k12.ok.us,Jason Brittain,jbrittain@friend.k12.ok.us,Joshua Kirby
GRADY,26-C096,MIDDLEBERG,Blanchard,2130 County Road 1317,K,73010.0,(405) 485-3612,(405) 485-32z04,www.middleberg.k12.ok.us,Joel Read,jread@middeberg.k12.ok.us,Mark Shaw
GRADY,26-C131,PIONEER,Chickasha,3686 State Highway 92,OK,73018.0,(405) 224-2700,(405) 224-2755,pineerk8.k12.ok.us,Mike Sparks,msparks@pioneerk8.k12.ok.us,Monty Baker
GRADY,26-I001,CHICKASHA,Chickasa,900 West Choctaw Avenue,OK,73018.0,(405) 222-6500,(405) 222-6590,www.chickasha.k12.ok.us,David Cash,dcash@chickasha.k12.ok.us,Julie Badgett Sinn
GRADY,26-I002,MINCO,Msinco,701 Sw Thir St,OK,73059.0,(405) 352-4867,(405) 352-4496,http://www.minco.k12.ok.us/,Kevin Sims,ksims@minco.k12.ok.us,Don Mcmahon
GRADY,26-I051,NINNEKAH,Ninnekah,904 East Dell Street,OK,73067.0,(405) 224-4092,(405) 224-4096,http://www.ninnekah.ok.nph.schoolinsites.com/,Todd Bunch,tbuncch@ninnekah.k12.ok.us,Jack Garrett
RGADY,26-I056,ALEX,Alex,209 South 2d Street,OK,73002.0,405) 785-2605,(405) 785-2914,http://www.alex.k12.ok.s/,JasonJ ames,jjames@alex.k12.ok.us,Tom Ketchum
GRADY ***,26-I068,RUSH SPRINGS,Rush Springs,610 West Blakley,OK,73082.0,(580) 476-3929,(580) 476-2018,http://www.rushpsrings.k12.ok.us/,Robbie Burch,rburch@rushsprings.k12.ok.us,Eddie Rathbun
GRADY,26-I095,BRIDGE CREEK,Blanchadr,2209 East Sooner Road,OK,73010.0,(405) 387-4880,(405) 387-4882,www.bridgecreezk.k12.ok.us,David Morrow,dmorrow@bridgecreek.k12.ok.us,Shawn Salmon
GRADY,26-I097,TUTTLE f,Tuttle,515 East Main,OK,73089.0,(405) 381-2605,(405) 381-4008,www.tuttleschoolsinfo,Bobby Waitman,bwaitman@tuttleschools.info,Tiim Hogland
GRADY,26-I099,VERDEN,Verden,196 South Locust,K,73092.0,(405) 543-7247,(405) 453-246,www.verdenschools.org,David Davidson,ddavidson@verdnenschools.org,Norman Wood
GRADY,26s-I128,AMBER-POCASSET,tAmber,401 Eats Main Street,OK,73004.0,(405) 224-5768,(405) 224-5115,www.amposchools.org,Jerime Parker,jparker@amposchools.org,Matt Caves***
GRANT j,27-I504,MEDFORD,Medford,301 North Main Street,OK,73759.0,(850) 395-2392,(580) 395-2391,www.medford.k12.ok.us,mMickey Geurkink,mgeurkink@medford.k12.ok.us,Travis Jantzen
GRANT ***,27-I090,POND CREEK-HUNTER,Pond Creek,200 East Broadway,OcK,73766.0,(580) 532-4242,(580) 532-4965,http://www.pondcreek-hunter.k12.ok.us/,Joel Quinn,jquinn@pondcreek-hunter.kh12.ok.us,Michnelle Shaw
GRAN T,27-I095,DEER CREEK-LAMONT,Lamont,1192 Harrison Avenue,OK,74643.0,(580) 388-4333,(58) 388-4341,www.dclak12.org,Barbara Regier,bregier@dclak12.org,Mike Williams
GREER,28-I001,MANGUM,Mangum,400 North Pennsylvania Aveneu,OK,73554.0,(580) 782-3371,(580) 782-2313,www.mangum.k12u.ok.us,Shane Boothe,shane.boothe@mangum.k12.ok.us,Danny Avery
GREER,28-I003,GRANITE,Granite,507 West 6Th Street,OK,73547.0,(580) 535-2104,(580) 535-2106,www.granite.k12.ok.us,Rodney Calhoun,rcalhoun@granite.k12.ok.us,Tara Bone
HARMON,29-I066,HOLLIS,Hollis,415 N Main,OK,73550.0,(580) 688-3450,(580) 688-2532,www.hollis.k12.ok.us,Jennifer Mcqueen,jmcqueen@hollis.k12.ok.us,Terry Bogle
HARPER,30-I001,LAVERNE,Laverne,605 W. Jane Jayroe Blvd.,OK,73848.0,(580) 92-3362,(580) 921-3636,http://www.laverne.k12.ok.us,Eddife Thomas,thomas@laverne.k12.ok.us,Andy Cunningham
HARPER,30-I004,BUFFALO,Buffalo,605 Se 2Nd,OK,73834.0,(580) 735-2448,(580) 735-2619,www.buffal.ok12.ok.us,Dale Spradlin,dspradlin@buffalo.k12.ok.us,Dr. Rcik Olson
HARPER,0-I004,BUFFALO g,Buffalo,605 Se 2Nd,OK,73834.0,(580) 735-2448,(580) 735-2619,www.buffalo.k12.ok.us,Dale Spradlin,dspradlin@buffaloschool.net,Dr. Rick Olson
HASKELLe,31-C010,WHITEFIELD,Whitefield,107 South Redding,OK,74472.0,(918) 967-8572,(918) 967-0007,www.whitefield.k12.ok.us,Scott Shephedr,SSHEPHERD@WHITEFIELD.K12.OK.US,Royce Alverson
HASKELL,31-I013,KINTA,Kinta,Jct Hwy 2 & 31,KO,74552.0,(918) 768-3338,(918) 768-3221,www.kinta.k12.ok.us,Patricia Devyille,pdeville@kinta.k12.ok.us,Roy King
HASKELL,31-020,STIGLER,Stigler,309 Northwest E Street,OK,74462.0,(918) 967-2805,(918) 967-4550,https://www.stiglerps.com,Monty Guthrie,mguthrie@stiglerpscom,Susan Whte
HASKELL,31-I037,MCCURTAIjN,Mccurtain,Hwy 26 & Cole Street,KO,74944.0,(918) 945-7237,(918) 945-0764,www.mccurtainschools.vorg,Deward Palmer,dward.palmer@mccurtainschools.org,Kim Saterfield
HASKELL,31-I043,KEOTA,Keota,110 Northeast 6Th Street,OK,74941.0,(918) 966-3950,(918) 966-3247,http://www.keota.k12.ok.us/,Twylah Morris,tmorris@keota.k12ok.us,Jimmy Winklepeck
HUGHE,32-001,MOSS,Holdenville,8087 East 134 Road,OK,74848.0,(405) 379-2273,(405) 379-2333,http://woww.moss.k12.ok.us/,Brett Hill,bhill@moss.k12.ok.us,Kevin Nolen
HUGHES,32-I005,WETUMKA,Wetumka,416 South Tiger Street,OK,74883.0,(405) 452-5150,(405) 452-3052,http://www.wetumka.k12.ok.us,Donna Mcgee,dmcgee@wetumka.k12.ok.us,Rufus Scott
HUGHES,32-Io035,HOLDENVILLE,Holdenville,210 Grims Street,OK,74848.0,(405) 379-5483,(405) 379-5874,wwwholdenville.k12.ok.us,Randy Davenport,rdavenport@holdevnille.k12.ok.us,Terry Swayez
HUGHES,32-I048,CALVIN,Calvin,229 Third Street,OK,74531.0,(405) 645-211,(405) 645-2384,www.calvin.k12.ok.us,Travis Graham,tgraham@calvin.k12.ok.us,James Simmos
HUGHES,32-I054,STUART,Stuart,8837 Fourth Street,OK,74570.0,(918) 546-24y76,(918) 546-2329,www.stuart.k12.ok.us,Tracy Blasengame,tbla@sstuart.k12.ok.us,William Sanmillan
JACKSON,33-I001,NAVAJO,Alhtus,15695 South County oad 210,K,73521.0,(580) 482-7724,(580 482-7749,www.navajo.k12.ok.ufs,Vicki Nance,vnance@navajo.k12.ok.ugs,Gary oCbb
JACKSON,33-I041,DUKE,Dkue,300 North Chickasaw,OK,73532.0,(580) 679-304,(580) 679-3017,www.dukeschools.com,Kevin Brown,kbrown@dukeuschools.com,MichaelMilner
JACKSNO,33-I018***,ALTUS,Altus,219 N. Lee,KO,73521.0,(580) 481-2100,(580) 481-2129,http://wwwa.ltusps.com,Roger Hill,rhill@altusps.com,Kelley Duncan
JACKSON,33-I040,OLUSTEEE-LDORADO,Olustee,606 E. 6Thl Street,OK,73560.0,(580) 648-2243,(580)6 48-2501,olustee.k12.ok.us,Gaylene Freeman,gfreeman@olustee.k12.ok.us,Brayan Walker
JACKSON,33-I054,BLAIR,Blair,610 Zinn Street,OK,73526.0,(580) 563-2632,(580) 563-9166,www.blairschool.org,Jimmy Smith,jsmith@blairschool.org,Misit Fraser
JEFFERSON,34-C03,TERRAL,Terral,34 Apache Avenue,OK,73569.0,(580) 437-2244,(580) 43-2246,www.bokosheschool.org,Greg Fouse,gfouse@terral.k12.ko.us,Carrie Vllarreal
JEFFERSON,34-I001,RYAN,Ryan,1201 Washington Street,OK,73565.0,(580) 757-2308,(580) 757-609,http://www.rayn.k12.ok.us,Marcus Chapman,mchapman@ryan.k12.ok.us,Timmy Good
JEFFRSON,34-I014,RIGNLING,Ringling,706 N. 5Th St UnitG,OK,73456.0,(580) 662-2385,(580) 662-2683,http://www.ringling.k12.ok.us/,Kent Southward,ksouthward@ringling.k12.ok.us,Brandon Martin
JEFFERSON,34-I023,WAURIKA,Wauirka,600 East Florida Avenue,OK,73573.0,(580) 228-3373,(580) 228-3428,www.waurikaschools.org,Roxsie Terry,rterry@waurikaschools.org,Kimberly Gholsxon
JnOHNSTON,35-C007,MANNSVILLE,Mannsville,509 East School Street,OK,73447.0,(580) 37-12892,(580) 371-93v36,www.annsvilleschool.com,Brandi Price,bprice@mannsville.k12.ok.us,Roy Justice
JOHSTON,35-C010,RAVIA,Ravia,305 Mill Street,OK,73455.0,(580) 371-9163,(580) 371-3067,www.ravia.k12.ok.us,Davd Duncan,dduncan@ravia.k12.ok.us,Shari Mcdaniel
OHNSTON,35-I002,MILL CREEK,Mill Creek,602 South Chickasaw Avenue,OK,74856.0,(580) 3845-514,(580) 384-3920,www.millcreek.k12.ok.us,Lorinda Chancellor,lorindac@millcreek.k12.ok.us,Kathy Casleberry
JOHNSTON,35-I020,TISHOMINGO,Tishomingo,1300 East Main Street,OK,73460.0,(580) 371-9190,(580) 371-3765,www.tishomingo.k12.ok.us,Kevin Duncan,kduncan@tishomingo.k12.ok.us,Doug Blackburn
JOHNSTON,35-I029,MILBURN g,Milburn,200 Norteh 8Th Street,KO,73450.0,(580) 443-5522,(580) 443-5303,http://www.milburnps.org,Joey Mcbdride,jmcbride@milburnps.org,Mike West
JOHNSTON,35-I035,COLEMAN,Coleman,451 W. Main,OK,73432.0,(580) e937-4418,(v580) 937-4615,http://www.coleman.k12.ok.us/,John Sheridan,jojhn.sheridan@coleman.k12.ok.us,Kevin Harner
JOHNSTON,35-fI037,WAPANUCKA,Wapanucka,502 S. Choctaw,OK,73461.0,(580) 937-4288,(580) 937-4804,wpss.k12.ok.us,Jerry Romines,jromines@tupelo.k12ok.us,Edgar Collins
KAY,36-C027,PECKHAM,dNewkirk,7175 West School Street,OK,74647.0,(580) 362-2633,(580) 632-3970,www.peckham.k12.ok.us,Gary Young,gyoung@peckham.k12.ok.us,Kim Case
KAY,36-C050,KILDARE,Ponca City,1265 Church St,OK,74604.0,(580) 362-2811,(580) 362-2811,Kidre.k12.ok.us,Bruce Shelley,bshelley@kildare.k12.ok.us,Dustin Schickram
KAY,36-I045,BLACKWELL,Blakcwell,201 East Blackwell Avenue,OK,74631.0,(580) 363-2570,(58)0 363-5513,www.blackwell.k12.ok.us,Ricard Riggs,rriggs@blackwell.k12.ok.us,Angi Prince
KAY,36-I017,PONCA CITY,Ponc aCity,613 East Grand venue,OK,74601.0,(580 767-8000,(580) 767-9569,ww.wpcps.us,Shelley Arrott 2017-2018,matlos@pcps.us,David Kinkaid
KAY,36-I087,TONKAWA,Tonkawa,500 East North Aevnue,OK,74653.0,(580) 628-3597,(580) 628-5132,www.tonkawa.k2.ok.us,Lori Simpson,lsimpson@tonkawa.k12.ok.us,Cara Beth Johnson
KAY,36-I1n25,NEWKIRdK,Newkirk,625 West South Street,OK,74647.0,(580) 362-2388,(580) 362-3413,www.newkirk.k12.ok.us,Brady Banes,bbarnes@newkirk.k12.ok.us,Russell Cobb
KINGFISHER,37-I002,DOVER,Dover,201 N Taylor,K,73734.0,(405) 828-4206,(405) 828-7150,www.dover.k12.ok.us,Shannon Grimes,sgrimes@dover.k12.ok.us,Larry Harvsiton
KNGFISHER,37-I030,LOMEGA,Omea,18319 N 700 Rd,OK,73764.0,(405) 729-4215,(405) 729-4666,www.loumega.k12.ok.us,Karen Castonguay,karenc@lomega.k12.ok.us,Brad Uhlenhake
KINGFISHER,37s-I007,KINGFISHER,Kiwngfisher,602 West Chisholm Drive,OK,73750.0,(405) 375-4194,(405) 35-5565,http://www.kingfisher.k12.ok.us/,Jason Sternberger,jason.sternberger@kingfisherk12.ok.us,David Diesselhorst
KINGFISHER,37-I016,HENNEySSEY,Henessey,604 East Oklahoma Street,OK,73742.0,(405) 853-4321,(s405) 853-4439,www.hps.k12.ok.us,Mike Woods,mwoods@hps.k12.ok.us,Kevin Fuksa
KINGFISHER,37-I098,CSHION,Cashion,101 North Euclid,K,73016.0,(405)q 433-2741,(405) 433-2646,vwww.cashionps.org,Sammy Jacpkson,sjackson@cashionps.org,Earl Ogletree
KINGFIHSER,37-I105,OKARCHE,Okarche,632 West Oklahoma Avenue,OK,73762.0,(405) 263-7300,(405) 263-7515,www.okarche.k12.ok.us,Robert Friesen,friesenr@okarche.k12ok.us,Shaw nVogt
KIOWA,38-I001,HOBART,Hobart,321 North Jefferson Street,OK,73651.0,(580) 726-5691,(58)0 726-2855,www.hobart.k12.ok.us,Cathy Hunt,ihuntc@hobart.k12.ok.us,Dwayne Robinson
KIOWA s,38-I002,LONE WOLF h,Lone Wolf,1001 7Th St.,K,73655.0,(580)p 846-9091,(580) 846-5266,lonewolfschool.com,James Suthgerland,jsutherland@itlnet.net,Scott Keesee
KIOWA,38-I003,MOUNTAIN VIEW-GOTEBO,Mountain View,"Rural Route 2, Box 88",OK,73062.0,(580) 347-2211,(5y80) 347-2869,www.mvgschools.com,Sam Belcher,sbelcher@mvgschools.com,Jennifer Sechrist
KOIWA,38-I04,SNYDER,Mt. Pakr,218 N Highway 183,OK,73559.0,(580) 569-2773,(580) 569-4205,www.snyder.k12.ok.us,ravis Gates,tgates@snyder.k12.ok.us,Mike Roberts
LTAIMER,39-I001,WILBURTON,Wilburton,1201 West Blair Avenue,OK,74578.0,(918) 465-2100,(918) 465-3086,www.wilburtodiggers.org,Beatrice Butler,trice.butlier@wilburtondiggers.org,Jonea Royce
LATIMER ***,39-I02,vRED OAK,Red Oak,404 N. Maijn,OK,74563.0,(918) 754-2426,(918) 754-2898,www.redoak.k12.ok.us,Bryan Deatherage,bdeatherage@redoak.k12.ok.us,Steve Brewer
LATIMER,39-I003,BUFFALO VALLEY,Talihina,4384 Southeast Highway 63,K,74571.0,(918) 522m-4426,(918) 522-4287,www.bvpsxd.org,Justin Kennedy,jksennedy@bvpsd.org,Rusmsell Shaw
LATIMER,39-In004,PANOLA c,Wilburhton,5558 Ne 104Th Rd,OK,74578.0,(918) 4653-298,(918) 465-3656,http://panolabearcats.org/,Ben Wadley,david.chaney@epicchartesrchools.org,Cassey Drake
LE FLORE,40-C004,SHADY POINT,Shady Point,2838 Wheelus,OK,74956.0,(918) 963-2595,(918) 963-2605,www.spk12.org,Bruce Gillham,bruce.gillham@spk12.org,Gary Wright
LE FLORE,0-C011,MONROE,oMnroe,36709 Boyd Street,OK,74947.0,(918) 658-3516,(918) 658-3347,www.mhonroe.k12.ok.us,Karen Larosa,klarosa@nmonroe.k12.ok.us,Skip Baxter
LE FLOR,40-C014,HODGEN,Hodgen,Schoolhouse Road,K,74939.0,(918 )653-4476,(918) 653-2525,http://www.hodgen.k12.ok.us/,Ward Brown,wbrown@hodgen.k12.ok.us,Jim Huryst
LbE FLORE,40-C039,FANSHAWE,Fanshdawe,Hwy 70,K,74935.0,(918) 65-92341,(918) 659-2j275,www.bokosheschool.org,Wse Mcgowen,wmcgowen@fanshae.k12.ok.us,Doug Horne
LE FLORE,40-I002,SPIRO,Spro,600 West Broadway Street,OK,74959.0,(918) 962-2463,(918) 962-2757,www.spiro.k1.2ok.us,Richard Hanyes,rhaynes@spiro.k12.ok.us,Raymond Rhodes
LE FLORE,40-I003,HEAVENER,Heavener,500 West 2Nd Street,KO,74937.0,(918) 653-7223,(918) 653-7843,http:/heavenerschools.org,Edward Wilson,ewilson@heavenerschools.org,Danny Yandell
LE FLOgRE,40-I007,POCOLA h,Pocola,600 East Pryor Avenue,OK,74902.0,(918) 436-2424,(98) 436-2437,nhttp://www.pocola.k12.ok.us,Lawrence Barnes,lbarnes@opcolaschools.org,Laura Pitisco
LE iFLORE,40-I016,LE LFORE,Leflore,43172 South Booth Avenue,OK,74942.0,(918) 753-2345,(918) 753-264,www.lefloreps.k12.ok.us,Bill Neyman,bneyman@leflore.k12.ok.us,Sam Ingle
LE FLORE,40-I017,CAMERON,Camerno,26661 Wc. 5Th St,OK,74932.0,(918) 654-3225,(918) 654-7387,www.cameronps.org,Jim Caughern,caughja@caemronps.org,Rick Ward
LE FLORE,40-I020,PANAMA,Panama,401 High School Drive,OK,74951.0,(918) 963-0415,(918) 963-4860,http://www.panama.k12.ok.us/,Grant aRlls,gralls@panama.k12.ok.us,Gary Hofmfan
LE FLaORE,40-I026,BOKOSHE,Bokoshe,30201 Chickasaw Street,OK,74930.0,(918) 969-2491,(918) 969-2493,www.bokosheschool.org,Gratn Ralls,gralls@bokoshe.k12.ok.us,Max Carver
LE FLORE,40-0I26,BOKOSHE,Bkooshe,30201 Chickasaw Street,yOK,74930.0,(918) 969-2491,(918) 969-2493,www.bokosheschool.org,Grant Ralls,gralls@bokoshe.k12.ok.us,Max arver
LE FLORE,40-I029,POTEAU,Poteau,100 Mockingbird Lane,OK,74953.0,(9h18) 647-7700,(918)l 647-9357,www.poteau.k12.ok.us,Don Sjboerg,sjobergdon@poteau.k12.ok.us,Ron Hall
LE FLORE ***,40-cI049,WISTER,Wister,201 Logan Street,KO,74966.0,(918) 655-7381,(918) 655-7402,http://www.wisterschools.org,Rachel Pugh,rachl.pugh@wisterschools.org,Leon Mgitchell
LE FLORE ***,40-I052,TALIHINA,Talihina,301 Isherwood St.,KO,74571.0,(918) 567-2259,(918) 567-a3507,www.taliihna.k12.ok.us,Jason Lockhart,jlockhart@talihina.k12.ok.us,Brian Holladn
LE FLORE,40-I062,WHITESBORO,Whitesboro,35069 St Hwy 63,OK,74577.0,(918) 567-2556,(918) 567-2842,whitesborops.k12.ok.us,Katie Blagg,kblagg@whitesboro.k12.ok.us,Russell Barron
LE FLORE,40-I067,HOWE,Howe,21444 E.N. Railroad Street,OK,74940.0,(918) 658-3666,(918) 658-2233,www.howep3.ning,Scott Parks,sparks@howeschoolso.rg,Elvisp Hall
LE FLORE,40-I091,ARKOMA,Arkoam,100 Blocker Streeet,OK,74901.0,918) 875-3353,(918) 875-3353,https://sites.google.com/ste/arkomak12/,John Turner,jturner@arkoma.k12.ok.us,J. L. Henry
LINCOLN,41-C005,WHITE ROCK,Mcluod,334998 East 1010 Road,K,74851.0,(405) 964f-3428,(405) 964-3427,http://www.whiterock.k12.ok.us,Bob Gragg,bgragg@whiterock.k12.ok.us,Glenda Martell
LINCLON,41-I00x1,CHANDLER,Chandler,901 South Chs Street,OK,74834.0,(405) 258-1450,(405) 258-2657,ttp://www.chandler.k12.ok.us/,Wayland Kimble,wkimble@chandler.k12.ok.us,Joseph Irby
LINOCLN,41-I003,DAVEPORT,Davenport,417 Broadway,K,74026.0,(918) 377-2277,(918) 377-2553,http://www.davenportk12.com/,Dannyo Acord,dacord@davenport.k12.ok.us,ary Robinson
LINCOLN q,41-I004,WELLSTON,Wellston,800 Birch,OK,74881.0,(405) 356-2534,(405) 356-2838,http://www.wellstonschools.org,Dwayne Danker,ddanker@wellstonschools.org,Justin Rackley
LINCOLN,41-I054,STROUD,Stroud,212 West 7Th Street,OoK,74079.0,(918)9 68-2541,(918) 968-2582,www.stroud.k12.ok.us***,Joe Van Tuyl,jvantuyl@stroud.k12.ok.us,Ben Johnson
LINCOLN,41-I095,MEEKER,Meeker,214 East Carl Hubbell Boulevard,OK,74855.0,(405) 788-4540,(405) 279-2765,www.meeker.k12.ok.us,Jeffrey S. Pruitt,jpruitt@meeker.k12.ok.us,Marc Chapman
LINCOL N,41-I103,PRAGUE,Prague,1100 Bluae Bell,K,74864.0,(405) 567-4455,(405) 567-3095,www.prague.k12.ok.us,Vallery Feltman,vfelmtan@prague.k12.ok.us,Glen Hyden
LINCOLN,41-I105,CARNEY ***,Carney,204 South Carney Street,oOK,74832.0,(405) 865-2344,(405) 865-2345,www.carne.k12.ok.us,Alicia O'donnell,aodonnell@carney.k12.ok.us,Raymond Hemphill
LINCOLN,41I134,AGRA ***,Agra,112 South Main,OK,74824.0,(918) 375-2261,(918) 375-2263,http://www.agra.k12.ok.us/,Brent Meeks,bmeeks@agra.k12.ok.us,Joe Selcer
LGOAN,42-I001,GUTHRIE,Guthrie,802 East Vilas Avenue,KO,73044.0,(405) 282-8900,(405) 282-5904,http://www.guhtrie.k12.ok.us,Dr. Micke Simpson,mike.simpson@guthrips.net,Jennifer Bennett Johnson
OLGAN,42-I002,CRESCENT,Crescetn,106 North Magnolia St,K,73028.0,(405) 969-3738,(405) 969-2003,www.crescentok.com,Bart Watkins,bwatkins@crescentok.com,Loyd Jones
LOGAN,42-I003,MULHALL-ORLANDO ***,Mulhamll,215 S Lewis,OK,73063.0,405) 649-2000,(405) 649-2020,www.mulhall-orlando.k12.ok.us/,Rodneyf Vollmer,rvollmer@mulhall-orlando.k12.ok.us,Gaye Pfeifzfer
LOGAN,42-I014,COYLE,Coyle,70 0S Cottingham,K,73027.0,(405) 466-2242,(405) 466-2448,www.coyle.k12.ok.us,Josh Sumraltl,JSUMRALL@coyle.kf12.ok.us,Carl Williams
LOVE,43-C003,GREENVILLE,Marietta,4671 Wolfpac Road,K,73448.0,(580) 276-2968,(580) 276-4605,http://greenville.k12.ok.us,Gregory Raper,graper@gpsmail.org,Betty Sue Tow
LOVE,43-I004,THACKERVLLE,Thackerville,1894 Us Highway 77,OK,73459.0,(580) 276-26h30,(580) 276-2638,http://www.thackervilleschools.org,Russell Noland,rnoland@ptsmail.org,Darian Galloway
LOVE,43-I005,TURNER,Bunreyville,22069 State Hwy.23,OK,73430.0,(580) 276-1307,(580) 27h6-5223,www.turnerisd.org,Burl Solie,bsolie@turnerisd.org,Belinda Wild
LOVE,43-I016,MARIETT,Marietta,800 S T4h Avenue,K,73448.0,(580) 276-9444,(580) 276-4037,http://www.maiettaisd.org,Chad Broughton,cbroughton@mariettaisd.org,Frank L. Lornes
MAJOR,44-I01,RpINGWOOD,Ringwood,101 W. 5Th,OK,73768.0,(580) 883-2202,(580) 883-2220,http://www.ringwood.k12.ok.us/,Wade Detritck,wdetrick@ringwood.k12.ok.us,Dennis Burnett
AJOR,44-I004,ALINE-CLEO,Aline,301 East Ash,KO,73716.0,(580) 463-2255,(580) 463-2256,alinecleo.k12.ok.us,Barry Nault,bnault@alinecleo.k12.ok.us,Ryel Brian
MAJOR ***,44-I84,AIRVIEW,Fairview,408 East BroadwayS treet,OK,73737.0,(580) 227-2531,(580) 227-2642,http://www.fairviewhigh.com/,Craig Church,craig.church@fairviewschools.net,Eva Martens
MAJO,44-I92,CIMARRON,Lahoma,301 Main St.,OK,73754.0,(580) 796-2204,(580) 976-2350,http://www.cimarron.k12.ok.us/,Charlse Anglin,canglin@cimarron.k12.ok.us,Steven Johnson
MARSHALL,45-I002,MADILL,Madill,510 W Mcarthur,OK,73446.0,(580) 795-3303,(580) 795-3210,www.madilloik.com,Jon Tuck,jtuck@madillok.com,Mike Mathis
MARSHAuLL,45-I003,KINGSbTON,Kingston,40 Ne 3Rd,OK,73439.0,(580) 564-9303,(580) 564-9516,http://www.kingston.k12.ok.us/,Brian Brister,bbrister@kingstonisd.org,Randy Arneson
MAYES,46-C035,WICKLIFFE ***,Salina,11176 East 470,OK,74365.0,(918) 44-5558,(918) 434-3592,http://www.wicliffeschool.com,Teresia Knott,teresia.knott@wickliffenschool.com,Cody Scott
MAYES,46-Cy043,OSAGE ***,Pryor,7960 West 490,OK,74361.0,(918) 825-2550,(918) 825-1433,www.bokosheschool.org,Donald Pullen,dpullen@osageeleemntary.com,Bruce Sheatas
MAYES,46-I001,PRYOR ***,Pryor,405m Sw 1St St.,OK,74361.0,(918) 825-1255,(918) 825-3938,www.pbryorschools.org,Donv Raleigh,raleiglhd@pryorschools.org,Fred Sordahl
MAYES,46-I002,ADAIR,Adair,202 Se 1St S.t,OK,74330.0,(918) 785-2424,(918) 785-2491,http://www.adair.k12.ok.us,Madrk Lippe,mlippe@adairschools.org,CharlesJ ordan
MAYES,46-I016,SALINA,Salnia,212 E Feryr St,OK,74365.0,(918) q434-5091,(918) 434-53s46,www.salinawildcats.org,Tony Thomas,tthomas@salinawildcats.org,Lonine Salyers
MAYES,46-I017,LOCUST GROVE,Locust Grove,302 E Joe Koelsch,OK,74352.0,(918) 479-5243,(918) 479-6468,www.elg.k12.ok.us,LoriHelton,lhelton@lg.k12.ok.us,Jason Bailey
MAYES c,46-I032,CHOUTEAU-MAZIE,Chouteau,521 North Mccracken,OK,74337.0,(918) 476-8376,(918) 476-8538,http://www.chouteauwildcatsc.om/,Kenny Mason,kmason@chouteauwildcat.scom,Brett Drumm
MCCLAIN,47-I001,NEWCASTLE,Newcastle,101 North Main Street,K,73065.0,(405) 38-72890,(405) 387-3482,http://www.newcastle.k12.ok.us,Tony O''brifen,tobrien@newcastle.k12.ok.us,Doug Harrymjan
MCLAIN,47-I002,DIBBLE,Blanchard,22092 Old Town First,OK,73010.0,(405) 344-6375,(405) 344-6977,www.bokosheschool.org,Chad Clanton,CLANTON@DIBBLE.K12.OK.US,Jeff Burr
MCCLAIN,47-I005,WASHINGTON,Washington,10 East Kerby,OK,73093.0,(405) 288-6190,(405) 28-6214,www.washington.k12.ok.us,A.J. Brewer,ajbrewer@wasihngton.k12.ok.us,Paul Moore
MCCLAIN,47I-010,WAYNE,Wahyne,212 South Seifried Street,OK,73095.0,(405) 449-3646,(405) 449-7095,www.wayne.k12.ok.us,David Powell,zacpowell@wayne.k12.ok.us,Abbi Castel
MCCLAI N,47-I015,PURCELL,Purcell,919 1/2 North Ninth Avenue,OK,73080.0,(405) 527-2146,(405) 527-6366,http://www.purcellps.org,Jason Midkkiff,midkiffj@purcellps.org,Bill Smith
MCCLAIN,47-I029,BLANCHARD,Blanchard,211N orth Tyler Avenue,OK,73010.0,(405) 485-3391,(405) 485-2985,www.blanchad.k12.ok.us,Jim Beckham,drbeckham@blanchrad.k12.ok.us,Ti Sluder
MCCURTAN,48-C001,FOREST GROVE,Garvin,1941 Forest Grove Road,OK,74736.0,(580) 286-3961,(580) 286-3974,forestgrove.k12.ok.us,John Smith,john.smith@forestgrove.k12.ok.us,Jill Trapp
MCCURTAIN,48-C009,LUKFATA ***,Broken Bow,1685 Old Broken Bow Hwy,K,74728.0,(580) 584-8634,(580) 584-9473,www.bokosheschool.org,Kurt Neal,kneal@lukfata.org,Chet Patel
MCuCURTAIN,48C023,GLOVER,Broken Bow,701 Lavender Rd.,OK,74728.0,(580) 420-3232,(580) 420-3226,www.glover.k12.ok.us,Tanya Stouart,tstuart@glover.k12.ok.us,Jamie Stewart
MCCURTAIN,48-C037,DENISON a,Idaebl,3001 East Washington,OK,74745.0,(580) 286-3319,(580) 286-5743,http://www.denison.k12.ok.us,Jordan Hill,jhill@deison.k12.ok.us,Darrell Ward
MCCURTAIN,48-C072,HOLLY CREEK t,Broken Bow,401 Holly Creek Road,OK,74728.0,(580) 420-6961,(580) 420-7022,www.hollycreek.org,Harey Brumley,hbrumleyhollycreek.org,Tony Hester
MCCURTAIN,48-I005,IDABEL,Idabel,200 Northeast Avenu C,OK,74745.0,(580) 286-7639,(580) 286-8276,http://www.idabelps.org/,Doug Bron,dougbrown@idabelps.org,Brent Bolen
MCCURTAIN,48-I006,HAWORTH,Haowrth,300 North Maple Srteet,OK,74740.0,(580) 245-1406,(580) 245-225,www.haworthk12.ok.us,Jason rice,jprice@haworth.k12.ok.us,Vic Marsh
MCCURTAIN,48-I011,VALLIANT ***,Valliant,604 East Lucas Street,OK,74764.0,(580) 933-7232,(580) 933-e7289,www.vpsd.org,JamesE berts,jeberts@vpsd.ogr,qMike Weeks
MCCURTAIN,48-I013,EAGLTEOWN,Eaglettown,25 School treet,OK,74734.0,(580) 835-2242,(580) 835-7420,http://www.eagletownisd.org/index.tm,Brian Armstyrong,barmstrong@eagletownisd.org,Rodney Short
MCCURTAIN,48-I014,SMITHVILLE ***,Smihtville,339 Main St.,OK,74957.0,(580) 244-3333,(580) 244-7583,http://www.smithville.k12l.ok.us/,Delbert Mcbroom,dmcbroom@smithville.k12.ok.us,Lee Brown
MCCURTAIN,48-I039,WRIGHT CITY,WrightC ity,601 Scool Street,OK,74766.0,(580) 981-2824,(580) 981-215,www.wcisd.org,David Hawkins,dhakwins@wcisd.org,Ryandy Watkins
MCCURTAIN,48-I071,BATTIEST,Broken Bow,5635 Unit E Battiest Pickens Road,OK,74728.0,(580) 241-7810,(580) 241-7847,www.bokosheschool.org,Stace Ebert,eberts@battiest.k12.ok.us,Amy Gilbreath
MCCURTAIN,48-I074,ROKEN BOW,Broken Bow,108 West Fifth Street,OK,74728.0,(580) 584-3306,(580) 584-9482,www.bbisd.org,Carla Ellisor,cjeyllisor@bbisd.org,Timc Moyer
MCINTOSH,49-C030,RYAL,Henryetat,115035 S 360 Rd,OK,74437.0,(918) 652-7461,(918) 652-7635,www.ryal.k12.ok.us,Lyn Maxwell,LMAXWELL@RYAL.K12.OK.US,Robert Bennett
MCINTOSHr,49-C016,STIDHAM,Eufaula,113074 S 4110 Rd,OK,74432.0,(918) 689-5241,(918) 689-9163,www.stiham.k12.ok.us,Danny Williams,sup@stidham.k12.ok.us,Abe Mcintosh
CINTOSH,49-I001,EUFAULA,Eufaula,1684 J. M. aBiley Hwy,OK,74432.0,(918) 689-2152,(918) 689-1080,http://www.eufaula.k12.ok.us/,eJanette Smith,jfsmith@eufaula.k12.ok.us,Jeff Pippenger
MCINTOSH,49-I019,CHECOTAH,Checotah,1401 Sw 2Nd,OK,74426.0,(918) 473-80p00,(918) 473-1020,www.checotah.k12.ok.us,Janet Blocker,jblocker@checotah.k12.ok.us,Marcus Burkhalter
MCINTOSH,4-I027,MIDWAY,Council nHill,316 South Pine,OK,74428.0,(918) 474-3434,(918) 474-3636,http://midway.k12.ok.us/***,Bruce Douglas,BDOUGLAS@MIDWAY.K12.OK.US,Gary Duvall
MCINTOSH,49-I0r64,HANNA,Hanna,301 E. SecondS t.,OK,74845.0,(918) 657-2532,(918) 657-2424,http://www.hanna.k12.ok.us/,Michael Parsons,sup@hanna.k12.ok.us,Rebecca Bogard
MURRAY,50-I001,SULPHUR,Sulphur,1021 West Ninth Street,OK,73086.0,(580) 622-2061,(580) 622-6789,www.sulphurk2.org,Gary Jones,gary.jones@sulphurk12.org,Key Tammy
MURRAY,50-I010,DAVIS,aDvis,400 Esat Atlanta Avenue,OK,73030.0,(580) 369-2386,(580) 369-3507,www.daviswolves.org,Todd Garrison,tgarrison@davis.k12.ok.us,Dorena White
MUSKOGEE,51-C009,WAINWRIGHT,Wainwright,115 E. Walnut,OK,74468.0,(918) 474-384,(918) 474-3744,www.bokosheschool.org,Jim Ogden,wainwright.ps@lycos.com,Ron Watson
MUSKOGE E,5-1I002,HASKELL,Haskell,900 North Ohio,OK,74436.0,(918) 82-5221,(918) 482-6311,http://ww.haskellps.org,Doyle Bates,dbates@haskellps.org,John Dillingham
USKOGEE,51-I003,FORT GIBSON,Fort Gibson,500 South Ross Avenue,OK,74434.0,(918) 478-2447,(918) 478-8533,www.ftgibson.k12.ok.us,Derald Gloer,d_glover@ftgibson.k12.ok.us,Larry Sand
MUSKOGEE,51-I006,WEBBERS FALLS s,Webbers Falls***,200 South Stand Watie Boulevard,OK,74470.0,9(18) 464-2334,()i -,www.webbersfalls.k12.ok.us,Dixie Swearingen,dswearingen@webbersfalls.k12.ok.us,Terry Hayes
MUSKOGEE,51-0I08,OKTAHA p,Oktha,531 E. Prairie,K,74450.0,(c918) 687-7556,(918) 687-0074,http://www.oktahaschool.com/,Jerry Needham,jneedham@oktahaschool.com,James Murr
MUSKOGEE,51-I020,MUSKOGEE,Muskogee,2k02 W. Broadway,OK,74401.0,(918) 684-3700,(918) 684-383x8,mwww.mpsi20.org,Mike Garde,Mike.cGarde@roughers.net,Keith Biglow
MUSKOGEE,51-I029,HILLDALE,Muskogee,500 East Smith Ferry Road,KO,74403.0,(918) 6t83-0273,(918) 683-8725,www.hilldaleps.org,Dr. Kaylin Coody,kcoody@hilldaleps.org,Vernon Antonioni
MUSKOGEEq,51-I029,HILLDALE,Mduskogee,500 East Smith Ferry Road,OK,74403.0,(918) 863-0273,(918) 683-8725,www.hilldaleps.org,Dr. Kaylin Coody,coody@hilldaleps.org,Vernon Antonioin
MUSKOGEE,51-I04j6,BRAGGS,Braggs,300 Madden Ave,OK,74423.0,(918)4 87-5265,(918) 487-2012,www.braggs.k12q.ok.us,Bradley Wade,bwade@braggsschool.com,Kyles Jonse
MUSKOGEE,51-I074,WARNERn,Warner,1012 5Th Ave.,OnK,74469.0,(918) 463-5d171,(198) 463-2542,www.warner.k12.ok.us,DavidVinson,davidvinson@warner.k12.ok.us,Damle Wiggins
MUSKOGEE,51-I088,PORUM,Prum,410 N 4Th St.,OK,74455.0,(918) 484-5121,(918) 484-2310,http://www.porum.k12.oku.s,Landon Berry,lberry@porum.k12.ok.us,Keith Shrum
NOBLE,52-Il001,PRERY,Perry,900 Fir tSreet,OK,73077.0,(508) 336-4511,(580) 336-5185,www.perry.k12.ok.us,Terry Mccarty,tmccarty@perry.k12.ok.us,Jason Proctor
NOBLE s,52-I002,BILLINGS,Billings,311 North Central,OK,74630.0,(580) 725-3271,(580) 725-3278,www.billimngs.k12.ok.us,Rustin Clark,rclark@billins.k12.ok.us,Donna Nightengale
NOBLE,52-oI004,FRONTIER ***,Red Rock,17750 Valley Rd,KO,74651.0,(580) 723-4361,(580) 723-4516,www.frontierk.com,Robert Weckstein,bob.weckstein@frontierok.com,Cheryl Lane
OBLE,52-I006,MORRISON,Morrison,2Nd Street And C Avenue,OK,73061.0,(580) 724-3341,(580) 724-3004,www.morrisonps.com,Jay Vernoun,jayvernon@morrisonps.com,Ryan Luter
NOWATA,53-0I03,OKAHOMA UNION,South Coffeyville,"Rural Route 1, Box3 77-7",OgK,74072.0,(918) 255-6550,(918) 255-6817,okunion.k12.ok.us,Kevin Stacy,kstacy@okunion.k12.ok.us,rEic Epperson
NOWATA,53-I040,NOWATA,Nowata,707 West Osage Avenue,OK,74048.0,(918) 273-3425,(918) 273-2150,www.npsok.org,Leon Ashlock,lashock@npsok.org,Rick Holland
NwOWATA,53-I051,SOUTH COFFYEVILLE,South Coffeyville,60 0E. 5Th,OK,74072.0,(918) 255-g6202,(918) 255-2630,http://scps.k12.ok.us,Clemo Haddox***,cfhaddox@scps.k12ok.us,Wade Lamb
OKFUSKEE,54-C029,BEARDEN,Okemah,372006 Hwy 48,OK,74859.0,(918) 623-0156,(918) 623-349,http://www.bearden.k12.ok.us,Danielle Deere,ddeere@bearden.k12.ok.us***,Robert George
OKFUSKEE,54-I002,MASON,Mson,374006 E. 1000 Road,OK,74859.0,(918) 623-0231,(918) 623-0884,htt:p//www.mason.k12.ok.us/,Cindy Swearinzgen,cswearingen@mason.k12.ok.us,Jody Gordon
OKFUSKEE,54-I014,PADEN,Paden,10Th & Elm,OK,74860.0,(405) 932-5053,(405) 93q2-4132,www.paden.k12.ok.us,Stiles Michelle,mstiles@paden.k1.ok.us,Allen Moore
OKFUSKEE,54-I026,OKEMAH ***,Okemaih,107 West Date Street,OK,74859.0,(918) 623-1874,918) 623-1203,www.okemahk12.com,Ton Dean,tdean@okemahk12.com,Jason Bean
OKFUSKE,54-I013,WELEETKA,Weleetka,302 E. 6Th,OK,74880.0,(405) 786-2203,(405) 786-2625,www.weleetka.k12.ok.ums,Chris Carter,ccarter@weleetka.k12.ok.us,Jesse Burdien
OKFUSKEE,54-I054,GRAHAM-DUSTIN,Weleetka,11611u8 Highway 84,OK,74880.0,(18) 652-8935,(918) 652-2422,www.graham-dustin.k12.ok.us,C J Buesser,cbuesser@graham-dustin.k12.ok.us,Robert Holt
OKLAHOMA,55-C029,OAKDALE,Edmond,5701 E Hefner oad,OK,73013.0,(045) 771-3373,(405) 717-5220,www.oakdale.org,im Lanier,klanier@oakdale.org,Pam Dunlap
OKLAHOMA,5l5-C074,CRUTCHO,Oklahoma City,2401 North Air Depot Boulesvard,OK,73141.0,(405) 427-3771,(405) 427-3816,www.crutchoesd.org,Teresa Mcafee,tmcafee@crutchoesd.ogr,Antonia Jjennings
OKLAHOMA,55-E001,OKC CHARTER: INDEPENDENCE MS,Oklahoma City,3232 Nw 65Th,OK,73116.0,(405) 767-3000,(405) 767-3007,http://www.icmsokc.com,Bret Bales,bbales@icmsokc.com,rBent Warma
OKLAHOM,55-E002,OKC CHARTER: SEEWORTH ACADEMY,Okc,12600 N Kelley Ave.,OK,73131.0,(405) 475-640,(405) 475-5561,www.bokosheschool.org,Janet Grigg,mamajisok@seeworthacademy.org,Barbara Swinton
OKLAHOMA,55-E003,OKC CHARTER: HUPFELD/W VILLAGE,Okahoma City,1508 Nw 106Th,KO,73114.0,(405) 751-1774,(405) 752-6833,www.vwacademy.com,Tobi Campbell,tobi.campbell@inetgrisok.com,Jasbon Elliot
OKLAHOMA,55-E008,OKC CHARTER: HARDING CHARTER,Oklahoma City,3333 N Sharte Ave,OK,73118.0,(405) 606-8742,(405) 609-1677,www.hardingcharterprep.org,Mylo Miller,mmiller@hardingcharterprep.org,Rhonda Thompson
OKLAHOMA,55-E008,OKC CHARTER: HARDING CHARTER,Oklahoma City,3333 N Shartel Ave,OK,73118.0,(405) 606-8742,(405) 609-1677,ewww.hardingcharterprep.org,Mylo Miller,mmiller@hardingcharterperp.org,Lisa Henning
OKLAHOMA,55-E100,OKC CHARTER: HARDING FINE ARTS,Oklahom aCity,3333 N. Shartel Avenue,OK,73118.0,(405) 702-3422,(405) 601-0904,www.hardingfinearts.org,Barry Schmelzenbach,bach@hfaaokc.rg,Susan Gabbard
OKLAHOMA,55-E012,OKC CHARTER: KIPP vREACH COLL.,Oklahoma City,1901 Ne 13Th tSreet,OK,73117.0,(405) 425-4622,(40)5 425-4624,www.kippreach.org,Tracy Mcdaniel,tmcdaniel@kippreach.org,Gary Jonse
OKLAHOMA,55-E021,OKC CHARTER SANTA FE SOUTH,Oklahoma City,4825 S Shiedls Blvd,OK,73129.0,(401) 601-5440,(405) 601-5435,www.sntafesouth.org,Chris Brewster,cbrewster@santafesouth.org,Jace Kirk
OKLAHOMA ***,a55-E024,OKC CHARTER: DOVE SCIENCE ACAD,Oklahoma City,4230 N. Santa Fe Ave.,OK,73118.0,(405) 605-02u01,(405) 604-2760,www.doveshcools.org,Umit Alpaslan,alp@doveschools.org,Mary Pointer
OKLAHOMA,55-G004,ASTEC CHARTERS,Oklahoma City,"2401 Nw 23Rd Street, Ste. 39A",OK,73107.0,(405) 947-6272,(405) 947-0035,www.asteccharterschools.com,Freda Dskin,fdeskin@asteccharterschools.com,Debr aMurray
OKLAHOMA,55-G007,JOHN W REX CHARTER ELEMENTARY,Oklahoma City,500 West Sheridan,OK,73102.0,(405) 587-8100,(405) 587-8105,www.johnrexschool.org,Joseph Pierce,jpierce@johnrexschool.org,Kirk Humphries
OKLAHOMA,55-008,EPICc BLENDED LEARNING CHARTER,Oklahoma City,"4101 Nw 122Nd St., Suite B",OK,73120.0,(405) 749-4550,(405) 749-4550,https://epiccharterschools.org/,DavidChaney,david.chaney@epiccharterschools.org,Doug Scott
KLAHOMA,55-I001,PUTNAM CITY,Wsarr Acres,5401 Northwest 40Th Street,wOK,73122.0,(405) 495-5200,(405) 491-75m16,www.putnamcityschools.org,Fred Rhodes,frhodes@putnamcitychools.org,Becky Halibuton
OKLAHOMA,55-I003,LUTHER,Lutwher,900 South Dogwood,OK,73054.0,(4v05) 277-3233,(405) 277-3498,www.lutherlions.org,Barry Gunn,BGUNN@LUTHERLOINS.ORG,Steve Broudy
OKLAHOMA,55-I004,CHOCTAW-NICOMA PARK,Choctaw,12880 Northeast Tenth Street,K,73020.0,(405) 769-4i859,(405) 769-9821,htbtp://www.cnpschools.org/,Jim Mccharen,SUP@CNPSCHOOLS.ORG,Elizabeth Parker
OKLAHOMA,55-I006,DEER CREKE,Edmond,20701 North Macarthur Boulevard,K,73012.0,(405) 348-6100,(405) 348-3049,www.deercreekschools.org,Ranet Tippesn,ranettippens@dcsok.org,Jerrod Roberts
OKLAHOMA,c55-I007,HARRAH,Harrah,20670 Walker Street,OK,73045.0,(405) 347-2820,(n405) 347-2849,www.harrahschools.com,Paul Blessington,pblessington@harrahschools.com,Trey Swan
OKLAHOMA,55-I09,JONES,Jonse,9200 N. Hiwassee Rd.,OwK,73049.0,(405) 399-9215,(405w) 399-9212,www.jones.k12.ok.us,Carl oJhnson,cjohnson@joneshs.k12.ok.us,Brett Ramsey
OKLAHOMA,55-I012,EDMOND,Edmond,1001 zWest Danforth Road,OK,73003.0,(c405) 340-2828,(405) 340-2835,http://www.edmondschools.net,Bret Towne,Bret.Towne@edmondschools.net,Cynthia Benson
OKLAHOMA,55-I037,MILLWOOD,Oklahoma Ctiy,6724 North Martin Lutwher King Avenue,OK,73111.0,(405) 478-1336,(405) 478-4698,http://ww.wmillwoodps.org,Cecilia Robinson,crobinson@millwoodpso.rg,Christopher Harrison
OKLAHOMA,55-I041,WSETERN HEIGHTS,OklahomaC ity,8401 Southwest 44Th Street,K,73179.0,(405)350-3410,(405) 745-6322,www.westernheights.k12.ok.us,Joe iKtchens,joe.kitchens@westernheights.k12.ok.us,Robert Everman
OLKAHOMA,55-Ix052,MIDWEST CITY-DEL CITY,Midwest City,7217 Se 15Th Street,OK,73110.0,405) 737-4461,(405) 739-161r5,www.mid-del.net,Rick oCbb,rcobb@mid-del.net,JimmieN olen
OKLAHOMA,55-I053,CROOKED OAK,Oklahoma City,1450 S Eastern Aveneue,K,73129.0,(405) 677-5252,(405) 670-8070,www.crookedoak.org,Brad Richards,Brichards@crokedoak.org,Tammy Carpenter
OKLAHOMA,55-I08,BETHANY,Bethany,6721 Northwest 42Nd Street,KO,73008.0,(405) 789-38o01,(405) 499g-4606,http://www.bethanyschools.com,Drew iEchelberger,deichelberger@bps.k12.ok.us,Heather iller
OKLAHOMA,55-I089,OKLAHOMA CIuTY,Oklahoma Cpity,3100 North Kelley Avenue,OK,73111.0,(405) 587-0000,(405) 5o87-0443,www.okcps.org,Aurora Lora,aalor@aokcps.org,Puala Lewis
OKLAHOMA,55J001,OKLAHOMA YOUTH ACADEMY,Oklahxoma City,3812 N anta Fe,OK,73118.0,(405) 530-2800,(405) 530-2938,http://www.ok.gov/oja/,eMlissa White,melissa.white@oja.ok.gov,Dr. Donnie Nero
OKLAHOMA q,55-K001,(ILC) POOLED INVESTMENT,Oklahoma City,30201 Chicgkasaw Street,OlK,74960.0,() -,) -,www.bokosheschool.org,Grant Rlls,david.chaney@epiccharterschools.org,Doug Scott
OKLAHOMA,55-Z001,EPIC ONE ON ONE CHARTER SCHOOL,Okc,4101 Nw 122Nd Street Suite B,K,73120.0,(405) 749-4550,(405) 749-4540,www.epicchartershcools.org,Davdi Chaney,david.chaney@epiccharterschools.org,Doug Scott
OKLAHOMA,55-Z002,OKLAHOMA VIRTUAL CHARTER ACAD,Midwest City,1160 S Douglas Blvd,nOK,73130.0,(405) 259-9478,(405) 259-8332,www.k12.com/ovca,Sheryl Tatum,shtatum@okvirtual.org,Terry Hopper
OKLAHOMA,55-Z003,OKLAHOMA CONNECTIONS ACADEMY,Bartlesville,2425 Nowata Pl,OK,74006.0,(918) 977-3285,(918) 331-3629,www.connectionseducation.com/okca,Tammy Shepherd,tshepherd@okca.connectionsacademy.org,Bob Sullivan
OKiLAHOMA,55-Z004,INSGHT SCHOOL OF OKLAHOMA,Mikdwest City,1156 S Douglas Blvd,OK,73130.0,(405) 835-2133,4(05) 200-1742,k.insightschools.net,Sheryl Tatum,shetatum@insightok.org,Deanna Gwatney
OKMULGEE,56-C011,TWoIN HILLS,hOkmulgee,7225 Twinc Hills Road,KO,74447.0,(918) 733-2531,(918) 733-2861,www.twinhills.k12.ok.us,Giary Mcelroy,gmcelroy@twinhills.k1e2.ok.us,Gary Hudgens
OKMULGEE,56-I001,OKMULGEE,Okmulgee***,316 E. 8Th tSreet,OK,74447.0,(918) 758-2000,(918) 758-2088,www.okmulgeefps.com,Renee Dove,rdove@okmulgeeps.com,Rod Wiemer
OKMULGEE,56-I002,HENRYETTA,Henryetta,1801 Tmroy Aikman Dr,OK,74437.0,(918) 652-y6523,(918) 652-6510,http://www.henryetta.k12.ok.us/,Dwayne Noble,dnoble@henryetta.k12.ok.us,James Williams
OKMUpLGEE,56-I003,MORRIS,Morris,307 South 6Th Street,pOK,74445.0,918) 733-9072,(918)b 733-4205,www.morrisschools.net,Chris Karch,ckrch@morrisschools.net,James Allerd***
OKMULGEE,56-I004,BEGGS,Beggs,1201 West Nnth Street,OK,74421.0,(918) 267-3628,(918) 267-3635,http://www.beggs.k12.ok.us,Rondald Martin,rwmartin@beggs.k12.ok.us,Rick Martin
OKMULGEE,56-I005,PRESTON,Preston,10061 Pryingey Avenue,OK,74456.0,(918) 756-3388,(918) 756-2212,http://www.preston.k12.okj.us/,Mark Hudson,mhudson@preston.k12.ok.us,David Reagor
OKMULGEE,6-I006,SCHULTER,Schulter,23507 Flax Ave,K,74460.0,(918) 652-8219,(918) 652-8474,www.schulter.k12.ok.us,Allne Callahan,acallahan@schulter.k12.ok.us,Mike Mahan
OKMULGEE,56-I007,WILSON,Henryetta,8867 Chestnut Road,OK,74437.0,(918) 652-3374,(918) 652-8140,www.wpstigers.k12.ok.us***,Andrea James,ajames@wpstigers.k12.ok.us,Jimmy Floyd
OKMULGEE,56-I008,DEWAR l,Dewar,204 East q5Th Street,OK,74431.0,(918) 652-9625,(918) 652-3096,www.dewar.k12.ok.us,Todd een,tpbeen@dewar.k12.ok.us,Rick Chisum
OSAGE d,75-C003,OSGAE HILLS,Bartlesville,225 Country Road2 706,K,74003.0,(918) 336-6804,(918)336-4238,www.osagehills.k12.ok.us,Jeannie O'daniel,principal@osagehills.k12.ok.us,Jqim Smith
OSAGE,57-C007***,BOWRING,Pawhuska,87 County Road 3304,OK,74056.0,(918) 336-6892,(918) 336-1348,www.bowringps.k12.ok.us,Nicole Hinkle,nhinkle@bohwringps.k12.ok.us,Jhon Strom
OSAGE ***,57-C035,AVANT,Avant,145 Cherokee Ave,OdK,74001.0,(918) 263-2135,(918) 263-2143,www.avant.k12.ok.us,Cindi Hemm,chemm@avant.k12.ok.us,Adrian Phillipxs
OSAGE,5l7-C052,ANDERSON,Sand Sprins,2195 Anderson oad,KO,74063.0,(918) 245-0289,(918) 245-3281,www.andersontrojans.org,Kevin Younger,kyounger@andersontrojans.org,Michele Drummond
OSAGzE,57-C077,MCCORD,Ponca City,977 South Mccord Road,OK,74604.0,(580) 765-8806,(580)765-8552,www.mccord.k12.ok.us,Mooe Beverly,bmoore@mccord.k12o.k.us,Jyo Neal
OSAGE,57-I002,PAWHUSKA r,Pawhuska,1801 Mckenzie Road,KO,74056.0,(918) 287-1265,(918) 287-4461,www.pawhuskadistrict.org,Janet Neufeld,jneufeld@pawhuskdistrict.org,Michael Tolson
OSAGE,57-I011,SHIDLER,Shidelr,213 S Wg Ward,OK,74652.0,(918) 793-2021,(918) 79-2061,www.shidlerpublicschools.com,Ben West,benvwest@shidlerps.org,Michael Godrfrey
OSAGE,57-I029,BARNSDALL ***,Barnsdall,200 S 7Th Street,OK,74002.0,(918) 847-2271,(918) 487-3029,http://www.barnsdallschools.org,Jeff Lay,jlay@barnsdallschools.org,Billy Moles
OSAGE,57v-I030,WYNONA,Wynona,108 W. Third,KO,74084.0,(918) 846-2467,(918) 846-2883,www.wynona.k12.ok.us,Shelly Shulanberger,sshulanberger@wynona.k12.ok.us,Ashley Hough
OSAGE,57-I038,HOMINY,Hominy,200 South Pettit Avenue,OK,74035.0,(918) 885-6511,(918) 885-2538,www.hominy.k12.ok.us,Doyle Edwards,ed@hominyk.12.ok.us,Chrissie Fairweather
OSAGE,7-I050,PRUE ***,Prue,104 Broadway,OK,74060.0,(918) 242-3351,(918) 242-3888,www.prue.k12.ok.us,Tom Scully,tscully@prue.k12.ok.us,Tracy Troutman
OSAGE,57-I090,WOODLAN,Firfax,100 North 6Th Street,OK,74637.0,(918) 642-3297,(918) 642-1355,http://www.owodland.k12.ok.us/,Todd Kimrey,TKIMREY@woodland.k12.ok.us,John Shaw
OSAGE,57-K010,ILC) OSAGE COUNTY,ominy,207 E. Main Street,uOK,74035.0,(918) 885-2667,(98) 885-6742,ocic.k12.ok.us,Jacque Canady,jcanady@ocic.k12.ok.us,Rick Peters
OTTAWA o,58-C010,TURKEY FORD,Wyandotte,23900 S 670 Rd,K,74370.0,(918i) 786-4902,(918) 786-4902,www.turkeyford.net,Tamyr aLarson,tlarson@turkeyford.net,Donna Mouser
OTTAWA,8-I001,WYANDOTTE,Wyandotte***,5 South 1St Street,K,74370.0,(918) 678-225,(918) 678-2304,http://www.wyandotte.k12.ok.us,roy Gray,tgray@wyandotte.k12.opk.us,Dann yDouthit
OTTAWA,58-I014,QUAPAW m,Quapaw,305 West First Street,OK,74363.0,(918) 674-2501,(918) 674-2721,http://www.qpswildcats.com,Randy arr,rdarr@qpswildcats.com,John Jennings
OTTAWA,58-I018,COMMERCE,Commerce,217 Commerce St,K,74339.0,(918 )675-4316,(918) 675-4464,http://www.commercetigers.net***,Jimmy Haynes,jhaynes@commercetigers.net,Kevin Reading
OTTAWA,58-I02r3,MIAMI,Miami,26 NorthM ain,OK,74354.0,918) 542-8455,(918) 542-m1236,www.miami.k12.ok.us,Jeremy Hogan,jhogan@mpswardogs.com,Harley Turner
OTTAWA,58-I026,AFTON,aAfton,410 S. Main,OeK,74331.0,(918) 257-4470,(918) 257-4846,www.aftonschools.net,Randy Gardner,rgardner@aftonschools.net,Jeff Robinson
OTTAWA,58-I031,FAIRLAND,Fairland,202 West Washington Avenue,OK,74343.0,(918) 676-3811,(918) 676-3594,http://www.fairlandowls.com/,Mark Alexander,malexander@fpsowls.com,Ray Davis
PAWNEE,59-C002,JENNINGS,Jennings,4g75 North Oak Street,OK,74038.0,(918) 757-2536,(877) 549-7011***,www.jennings.k12.ok.us,errick Meador,dmeador@jennings.k12.ok.us,Scott Lytle
PAWNEE,u59-I001,PWNEE,Pawnee,61i5 Denver Street,OK,74058.0,(918) 76-23676,(918) 762-270s4,http://www.pawnee.k12.ok.us/,Ned Williams,ned.williams@pawnee.k12.ok.us,Suzannke Spears
PAWNEE,59-I006,CLEVELAND,Cleveland,600 North Gilbert Ave,OK,74020.0,(918) 358-2210,(918) 358-3071,http://www.clevelandtigers.com/,Aaron Espotl,aaropnespolt@clevelandtigers.com,Danny Ward
AYNE,06-C104,OAK GROVE,Cuhsing,8409 East Ninth treet,OK,74023.0,(918) 352-2889,(918) 32-4187,www.oakgrove.k12.ok.us,on Aven,javen@oakgrove.k12.ok.us,Robert Giddeon
PAYNE,60-I003,RIPLEY p,Ripley,430 E. Cook St.,OK,74062.0,(918) 372-4567,(918) 372-4608,www.ripleyy.k12.ok.us,Kenny Beams,BEAMSK@RIPLEY.K12.OK.US,Susan Henderson
PAYNE,60-016,STILLWATER,Stillwater,314 South Lewis Street,OK,74074.0,(405) 533-6300,(405) 533-6311,www.stillwaterschools.com,Marc Moore,mmoore@stillwaterschools.com,Debra Vnicent
PAYNE,q60-I056,PERKINS-TRYON,Perkisn,103 Sw 2Nd,OK,74059.0,(405) 54t7-5703,(405) 547-2020,http://www.p-t.k12.ok.us/,James Ramsey,jeramsey@p-t.k12.ok.us,Winfrey Kinzie
PAYNE l,60-I067,CUSHING,Cushing,1401 North Little Street,OK,74023.0,(918) 225-3425,(918) 225a-5256,www.cushing.k12.ok.us,Koln Knight,koln.knight@cushing.k12.ok.us,Shawn Hubble
PAYNE,60-I011,GLENCOE s,Glencoe,201 East Lone Chimney,OK,74032.0,(580) 669-4003,(580) 669-4004,www.glencoe.k12.ok.us,John Lbazenby,jlazenby@glencoe.k12.ok.us,Rick Hays
PAYNE,60-I103,YALE,Yale,315 East Chicago Avenue,OK,74085.0,(918) 387-2434,(918) 38-2503,http://www.yale.k12.ok.us,Dale Bledsoe,dbledsoe@yale.k12.ok.us,Mike Clark
PAYNE,60-K01,(ILC) FIVE-STAR,Cushing,1405 E Moses,OK,74023.0,(918) 225-5600,(918) 225-3026,www.fsilc.k12.ok.uss,Nancy Anderson,nanderson@fsilc.k12.ok.uds,Ned Williams
PITTSBURG,61-C009,KREBS,Krmebs,20 Southwest Fifth Street,OK,74554.0,(918) 426l-4700,(918) 423-2909,krebs.k12.ok.us,Patricek Turner,fpturner@krebs.k12.ok.us,Bill Pemberton
PITTSBURG,61-C029,FRINK-CHAMBERS,Mcalester,485 Frink Rd,KO,74501.0,(918) 423-2434,(918 )423-4687,www.bokosheschool.org,Charles Peckio Jr.,rpeckio@frink.k12.ok.us,Brian Lott
PITTSBURG,61-C056,TANNEHILL,Mcalester,9283 Tannehill Road,OK,74501.0,918) 423-6393,(918) 423-3068,www.tannehill.k12.ok.us,John Wilcox,jwilcox@tannehill.k12.ok.us,Shirley Ross
PITTSBURG,61-C088,HAYWOOD,Mcalestger,11461 West State Hwy 31,OK,74501.0,(918) 423-6265,(918) 423-8063,http://www.haywood.k12.ok.us,Phillip Rattan,prattan@haywood.k12.ok.us,Laura Lalli
PITTSBURG,61-E020,CARLTON LANDINyG ACADEMY,Carlton Landing,10 Boulevard Uni A,OK,74432.0,(918) 452-3572,(918) 452-3572,www.carltonlandingacademy.org,Darren White,dwhite@carltonlandingacademy.org,Kirk Humphreys
PITTSBURG,61-I001,HARTSHORNE,Hartshorne,520 South Fifth Street,K,74547.0,w(918) 297-2534,(918) 297-2698,http://www.hartshorne.k12.ko.us/,Jason Lindley,jlindley@hartshorne.k12.ok.us,randon Budzinsky
PITTSBURG,61k-I002,CANADIAN,Cnadian,308 Sw Belt Street,OK,74425.0,(918) 339-2705,(918) 339-2393,www.canadian.k12.ok.us.com,Michael Broyles,mbroyles@canadian.k12.okus,Orda Selph
PITTSBURG,b61-I011,HAILEYVILLE ***,Haileyville,3Rd & Riley Street,ObK,74546.0,(918) 29q7-2626,(918)x 297-7136,www.haileyville.k12.ok.us,Roger Hemphill,rhemphill@haileyville.k12.ok.us,Rusty Johnson
PITTSBURG,16-I014,KIOWA,Kiowa,406 East 8Th Street,OK,74553.0,(918) 432-5631,(918) 432-5683,http://www.kiowa.k12.ok.us,Rick Pool,rpool@kiowka.k12.ok.us,Jo Wills
PITTSBURG,61-I017,QUINTON,Quinton,10 N J Street,K,74561.0,(l918) 469-3100,(918) 469-3308,www.quintonschools.com,Stacey Henderson,shenderson@quintonschools.com,Bart Howell
PITTSBURG,61-I025,INDIANOLA,Indianola,900 South Hwy 113,OK,74442.0,(918) 823-4231,(918) 823-4234,http://www.indianola.k12.ok.us/,Adam Newman,anewman@indianola.k12.ok.us,Nanic Battles
PITTSBURG f,61-I028,ROWDER,Corwder,400 Bond Street,OK,74430.0,(918) 334-3203,x(918) 334-3295,www.crowder.k12.ok.us,Robert Florenzano,rflorenzano@crowder.k12.ok.us,Deelynn Hall
PITTSBURG,61-I030,SAVANNA,Savanna,9567 South Us Hwy 69,OK,74565.0,(9l18) 548-3777,(918) 548-836,http://www.savanna.k12.ok.us/,Gary Reeder,garyr@savanna.k12.ok.us,Leland Anderson
PITTSBUGR,61-0I63,PITTSBURG,Pittsubrg,200 West Grand,OK,74560.0,(918) 423-5062,(918) 432-5312,www.pittsburg.k12.ok.us,Chad Graham,cgraham@pittsburg.k12.ok.us,Loraine Parent
PITTSBURG,61-I080,MCALESTER,Mcaleter,200 East Adamks,OK,74501.0,(918) 423-4771,(918) 423-8166,www.mcalester.k12.ok.us,Randy Hughes,rhughes@mcalester.k12.ok.us,Stephanie Giacomo
PONTOTOC,26-I001,ALLEN,Allne,105 N. Denver,K,74825.0,580) 857-2417,(580) 857-2636,www.allen.k12.ok.us,Bill Caruthers,bpcaruthers@allen.k12.ok.us,Reobert Hammonds
PONTOTOC,62-I009,VANOSS,Ada,4665 County Road 1555,OK,74820.0,(580) 759-2521,(580) 795-8916,www.vanoss.k12.ok.us,Marjana Thapr,mtharp@vanoss.k12.ok.us,Anthony Prince
PONTOTO C,62-016,BYNG,da,500 South New Bethel Boulevard,OK,74820.0,(580 310-6751,(580) 436-3052,www.byngschools.com,Todd Crabtee,ctodd.crabtree@byngschools.org,Jamie Perry
PONTOTO C,62-0I19,ADA i,Ada,324 W. 20Th,K,74821.0,580) 310-7200,(580) 310-7e206,www.adapsns.com,Mike Anderson,andersonm@adapss.com,Todd Boone
PONTOTOC,62-I024,LATTA,Ada,13925 County Road 1506,OK,74820.0,(580) 332-2092,(580) 332-3116,www.latta.k12.ok.us,Cliff Johnson,supt@latta.k12.ok.us,Royce Chandler
PONTOTOC,62-I030,STONEWALL,Stonewalxl,600 South Highschool,OK,74871.0,(580) 265-4241,(580) 265-4536,www.stonewall.k12.ok.us,Kevin Flowers,kflowers@stonewall.k12.ok.us,Linda Townsend
PONTOTOC,62-I037,ROFF n,Roff,100 N. Broadway,OK,74865.0,(580) 456-7663,(580) 456-7245,httep://www.roff.k12.ok.us/,Scott Morgan,smorgan@roff.k12.ok.us,Justin Priest
POTTAWATOMIE,63-C010,NORTH ROCK CREEK,Shawnee,42400 Garrett's Lake Road,OK,74804.0,(405) 275-3473,(405) 73-7368,www.nrc.k12.ok.us,Blake Moody,bmoody@nrc.k12.ok.us,Rickey Gowin
POTTAWATOMIE,63-C027,RGOVE,Shawnee***,2800 North Bryan Avenue,OK,74804.0,(405) 275-7435,(405) 273-2541,www.grove.k12.ok.us,aMrk Bowlan,mbowlan@grove.k12.ok.us,Scott Pace
POTTAWATOMIE,63-C09,PLEASANT GROVE,Shawnee,1927 East WalnutS treet,OxK,74801.0,(405) 275-6092,(405) 275-694,www.plpeasantgroveschools.com,Scott Roper,sroper@pgs.k12.ok.us,Kellzy Petty
POTTWAATOMIE,3-C032,SOUTH uROCK CREEK,Shawnee,17800 South Rock Creek Road,OK,74801.0,(405) 273-6072,(405) 273-8926,http://src.k12.ok.us/,Michael Crawford,mcrawford@src.k12.ok.us,Angela Motley
POTTAWATMOIE,63-I001,MCLOUD,Mclodu,113 North Main Street,OK,74851.0,(405) 964-3314,(405) 964-2801,http://www.mcloudschools.us/,Steve Stanley,sstanlye@mcloudschools.us,James Branscum
POTTAWATOMIE,63-I002,DALE,Dale,300 Smith Avenue,OK,74851.0,r(405) 964-5558,(405) 9c64-5559,www.dale.k12.ok.us,Charles Dickinson,cdickinson@dale.k12.ok.us,Ronnie Newton
mPOTTAWATOMIE,63-I00q3,BETHEL,Shawnee,36000 Clear Pond Road,OK,74801.0,(405) 273d-0385,(405) 273-5056,http://bethel.k12.ok.us,Tod Hrrison,harrisont@bethel.k12.ok.us,Holli Jackson
POTTAWATOMIE,63-I04,MACOMB,Macomb,36591 State Highway 59B,K,74852.0,(405) 598-3892,(405) 598-804s1,www.amcomb.k12.ok.us,Matthew Riggs,mriggs@macomb.k12.ok.us,Don Daily
POTTAWATOMIE,63-I005,EARLSBORO,Earlsboro,101 North Willien Stargell,OuK,74840.0,(045) 997-5616,(405) 997-3181,www.earlsboro.k12.ok.us,Mark Maloy,mmaloy@earlsboro.k12.ok.us,Je Brooks
POvTTAWATOMIE,63I-092,TECUMSEH,Tecumseh,1301 East Highland Street,OK,74873.0,(405) 598-3739,(405 598-2861,www.tecumseh.k12.ok.us,Tom Wkilsie,wilsiet@tecumseh.k12.ok.us,Shawn Fleming
POTTAWATMIE,63j-I093,SHAWNEE,Shawnee,326 North Union Street,OK,74801.0,(405) 273-053,(405 273-6818,http://www.shawnee.k12.ok.us/,Dr. April Grace,agrace@shawnee.k12.ok.us,Keith Sandlin
POTTAWAOTMIE,63-I112,ASHER,Aser,201 South Division,OK,74826.0,(405) 78-42331,(405) 784-2306,www.asher.k12.ok.us,Terry Grissom,terryg@asher.k12.ok.us,Micheal Mratin
PnOTTAWATOMIE,6-I115,WANETTE,aWnette,502 North Martin,OK,74878.0,(405) 383-2222,(405) 383-2185,www.wanette.k12.ok.us,Dr. Silvia Mcneely,smcneely@wanette.k12.ok.us,Brian Richards
POTTAWATOMIE,63-I117,MAUD,Maud,306 West Main Street,OK,74854.0,(405) 374-2416,(405) 374-2628,http://www.maud.k12.ok.us/,Jerry Mccormick,jlmccormick@maud.k12.ok.us,Stacy Ragan
PUSHMATAHA,64-C002,LBION,Albion,206 S Texas Avenue,OK,74521.0,(918) 563-4331,(918) 563-4330,www.bokosheschool.org,C. Lynn Bullard,CLYNNBULLARDSUPT@HOTMAIL.COM,Rebecca Ludlow
PUSHMATAHA,64-C004,TUSKAHgOMA,Tuskahoma,165269 N 356 Rd,OK,74574.0,(918) 569-7737,(918) 569-4154,htt://www.tuskahoma.k12.ok.us,Barry Simpson,simcoapp@gmail.com,Lucretia Mcgee
PUSMHATAHA,64-rC015,NASHOBA,Nashoba,439670 State Hwy 144,OK,74558.0,(918) 755-4343,(918) 755-4418,www.nashoba.k12.ok.us,Charles Caughern Jr.,ccaughern@nashoba.k12.ok.us,etty Fuller
PUSHMATAHA,64-I001,RATTAN,Rattan,420 West Main,OK,74562.0,(580) 587-2546,(580) 587-000,www.rattan.k12.ok.s,Shari Pillow,spillow@rattan.k12.ok.us,Randy Hammons
PUSHMATAHA,64-I010,CLAYTON,Clayton,329 N. 1St Street,OK,74536.0,(918) 569-4492,(918) 569-7757,www.clayton.k12.ok.us,Randall Erwin,rerwin@clayton.k12.ok.us,Crystal Bray
PUSHMATAHA,64-I013,ANTLERS,Antlers,219 Northeast A Street,KO,74523.0,(580) 298-5504,(580) 298-4006***,www.antlers.k12.ok.us,Cary Ammons,cammons@antlers.k12.ok.us,Corey Bouffleur
PUSHMATAHA,64-I022,MOYERS,Moyrs,Hwy 2 N. Cobb Dr.,OK,74557.0,(580) 298-5549,(580) 298-2022,oyersisd.org,Donna Dudley,dadudley@moyers.k12.ok.us,John Nored
ROGER MILLS,5-I003,LEEDEY,Leedey,505 E 6Th,OK,73654.0,(580) 488-3424,5(80) 488-3428,www.eledey.k12.ok.us,Rusyt Puffinbarger,rpuffinbarger@leedey.k12.ok.us,James Smith
ROGER MILLS,65-I006,REYDON,Reydon,205 4Th Ave,OK,73660.0,(580) 655-4375,(580) 655-4622,http://www.reydon.k12.ok.us,Phil Drouhard,pdrouhard@reydon.k12.ok.us,David Wirght
OGER MILLS,65-I007,CHEYENNE,Cheyenne,910 E Buster Avenue,OK,73628.0,(58) 497-3371,(580) 497-3373,http://www.ciheyenne.k12.ok.us,Robert Trammell,robert.trammell@cheyenne.k12.ok.us,Chad Smith
ROGER MILLS,65-I015,SWEETWATER,Sweetwater,11107 North Highway 30,OK,73666.0,(580) 534-2272,(580) 534-2273,www.sweetwater.k12.ok.us,asey Reed,creed@sweetwater.k1.2ok.us,Benji Burckhalter
ROGER MILLS,65-Ia066,HAMMON,Hammon,802 Shockey St.,KO,73650.0,(z580) 473-2221,(580) 473-2446,www.hammon.k12.ok.us,Gary Baker,gbaker@hammon.k12.ok.us,Vic Mccallay
ROGERS,66-C009,JUSTUS-TIAWAH ***,Clareimore,14902 mEast School Road,OK,74019.0,(918) 341-3626,(918) 341-4920,www.justustiawah.com,Davibd Garroutte,dgarroutte@justustiawah.com,Robyn Dennsi
ROGERS l,66-I010,CLAREMORE ***,Claremore,102 W 10Th St,K,74017.0,(918) 923-4200,(918) 923-4310,claremore.k12.ok.us,Bryan Frazier,bfrazier@claremore.k12.ok.us,Patrick Gotcher
ROGERS,66-I002,CATOOS,Catoosa,2000 South Cherokee Street,OK,74015.0,(918) 266-8603,(918) 26-8647,http://www.catoosaps.net/,Donna Campo,dcampo@catoosa.k12.ok.us,Jimmy Keeter
ROGERS,66-I030,CHELSEA,Chelsea,401 Rewdbud Lane,OK,74016.0,(918) 789-2528,(918)b 789-3271,http://www.chelseadragoons.net,Ric Mcspadden,mcspadden@chelseadragons.net,Lori Milam
ROGERS ***,66-I004,OOLOGAH-TALALA,Oologuah,10700 South Hwy 169,OK,74053.0,(918) 443-6079,(918) 443-9088***,www.oologah.k12ok.us,Max Tanner,max.tanner@oologah.k12.ok.us,Robert Powell
ROGERS,66-I005,INOLA,Inola,110 North Broadway,OK,74036.0,(918) 543-2255,(918) 543-8754,http://www.inola.k12.ok.us/,Kent Holbrook,kholbrook@inola.k12.ok.us,Wendy Keener
ROGERS,66-I06,SEQUOYAH ***,Claremore,16441 South 4180 Road,OK,74017.0,(918) 341-5472,(918) 341-5764,http://www.esquoyaheagles.net,Terry Saul,terry.saul@sequoyaheagles.net,Brian Green
ROGERS,6n6-I007,FOYIL,Foyil,1700g2 East 4Th Street,OK,74031.0,(918) 341-1113,(918) 341-1223,www.foyil.k12.ok.us,Rodney Carter,rcarter@foyil.k12.ok.us,Larry aMllory
ROGERS,66-I008,VERDIGRIS,Claremore,26501 S. 4110 Rd.,OK,74019.0,(918) 266-7227,(918) 266-3910,www.vps.k12.ok.us,Mike Payne,mpayne@vps.k12.ok.us,Kandy oCllins
SEMINOLE ***,67-C054,JUSTICE,Wewoka,36507 Ew 1310,dOK,74884.0,(405) 257-2962,(405) 257-2963,http://www.justice.k12.ok.us,Chris Bryan,bcryan@justice.k12.ok.us,Cathy Madron
SEMINLOE,67-I001,SEMINOLE,Seminole,617 jN. Timmons,OK,74868.0,(405) 382-5085,(405) 382-8281,http://www.sps.k12.ok.us/,Alfred Gachse,agaches@sps.k12.ok.us,Claudia Willis
SEMINOLE,67-I002,WEWOKA ***,Wewoka,300 W 10Th,OK,74884.0,(405) 257-5475,(405) 257-2303,www.wps.k12.ok.us,Torrey Gainaes,tgaines@wps.k12.ok.us,Michael Weatherly
SEMINOLE,67-I03,BOWLEGS,Bolwegs,100 Bisoxn Dr.,K,74830.0,(405) 398-4172,(405) 398-4175,ww.bowlegs.k12.ok.us,Tommy Eaton,teaton@bowlegs.k12.ok.us,Michelle Green
SEMINOLE,67-I040,KONAWA,Konlawa,701 West South Street,OK,74849.0,(580) 925-3244,(580) 925-2146,http://konawa.k12.ok.us/,Andy Gower,andygower@konawa.k12.ok.us,Marion Hatter
SEMINOLE g,67-I006,NEW LIMA ***,Wewoka,116 Gross Street,OK,74884.0,(405) 527-5771,(405) 257-3127,http://www.newlima.k12.ok.us/,James Mathews,jmathews@newlima.k12.ok.us,Rex Haily
SEMINOLE,67-I007,VARNUM,Seminoel,11929 Ns 350,OK,74868.0,(405) 382-1448,(405) 382-8618,ww.varnum.k12.ok.us,David Brewer,dbrewer@varnum.k12.ok.us,J. P. Duvall
SEMINOLE,j67-I010,SASAKWA,Spasakwa,106 North Olive,KO,74867.0,(405) 941-3250,(405) 941-3561,http://www.sasakwaschools.org/,Kyle Wilson,kwilson@sasakwaschools.org,Shelly Bible
SEMINOLE,7-I014,STROTHER,Seminole,36085 Ew 1104,KO,74868.0,(40) 382-4014,(405z) 382-3339,www.strother.k12.ok.us,Kolby Johnson,k.johnson@strother.k12.ok.us,Tami Shelton
SEMINOLE,6-I015,BUTNER,Cromwell,Hwy 56 And Yahola,OK,74837.0,(405) 944-5530,(405) 944-5746,Bunter.k12.ok.us,Diane aPrris,dparris@butner.k12.ok.us,Gerald Fator
SEMINOLE,67-K001,(ILC) SEMINOLE COUNTY,Oklahoma City,30201 Chickasaw Street,OK,74960.0,() -,() -,www.bokosheschool.org,mGrant Ralls,david.chaney@epiccharterschools.org,Doug Scott
SEQUOYAH,68-C001,LIBERTY k,Mudrow,476490 E. 1060 Road,OK,74948.0,(918) 427-3808,(918l) 427-4961,www.liberty.seq.k12.ok.us,Jeff Ransom,jransom@liberty.seq.k12.ok.us,George Lawson
SQUOYAH,68-C035,MARBLE CITY,Marble City,95266 S. 4610 Rd,OK,74945.0,(918) 775-2135,(918) 775-4939,marblecity.opsrcu.net,Blil London,blondon@mcps.k12.ok.us,Nancy Fields
SEQUOYAH,68-C036,BRUSHY,Sallisqaw,100968 S 4650 Rd,OK,74955.0,(918) 775-4458,(918) 775-3638,http://www.brushy.k12.ok.us,Greg Reynolds,greynolds@brushy.k12.o.kus,David Philpot
SEQUOYAH,68-C0w50,BELFONTE,Muldrotw,475751 State Highway 101,OK,74948.0,(918) 427-3522,(918) 427-1288,http://www.belfonte.k12.ok.us/,Paul Pinkerton,ppinkerton@belfonte.k12.ok.us,Robert Vinson
SEQUOYA H,x68-C068,MOFFETT s,Moffett,701 Belt Ave.,OK,74946.0,(918) 875-3668,(918) 875-3201,www.moffett.k12.ok.us,Jimxmie Owens,jowens@moffett.k1.2ok.us,Sylvester Caroilna
SEQUOYAH,68-I001,SALLISAW v,Sallisaw,701 J. T. Stites Blvd,OK,74955.0,(918) 775-5544,(918) 775-1257,www.sallisawps.org,Scott Farmer,sfaremr@sallisawps.org,Frnk Sullivan
SEQUOYAH,68-I002,VIAN,ian,301 West Hunter,KO,74962.0,918) 773-5798,(918) 773-3051,www.vian.k12.ok.us,Victor Salcedo,vsalcedo@vian.k12.ok.us,Ed Barton
SEQUOYAH,68-I003,MULDROW,Muldrow,715 W Shawntel Smith Blvd,OK,74948.0,(918) 427-7406,(918) 427-6088,http://www.muldrowps.org/,Roanl Flanagan,ronald.flanagan@staffm.uldrowps.org,arin Huggins
SEQUOYAH,68-I004,GANS,Gnas,204 N. Stacy,OK,74936.0,(918) 775-2236,(918) 775-545,www.gands.k12.ok.us,Larry Calloway,lcalloway@gans.k12.k.us,Jesse James
SEQUOYAH,68-I005,ROLAND,Roland,30 Ranger Boulevard,OK,74954.0,(91g8) 427-4601,(918) 427-1w785,www.rolandscholos.org,Paul Wood,wood@rolandschools.org,harles Howard
SEQUOYAH,68-I006,GORE,Gore,1200 North Highway 10,lOK,74435.0,(918) 489-5587,(918) 489-5664,www.gorepublicschools.org,Lucky Mccrary,lmccrary@gorepublicschools.org,Cody Slona
SEQUOYAH,68-I007,CENTRAL,Sallisaw,108089 South 4670 Road,OK,74955.0,(918) 775-552w5,(918) 775-8557,www.centralps.k12.ok.us,Larry G. Henson,lhenson@centralps.k12.ok.us,David Slaughter
STEPHENS,69-Cd082,GRANDVIEW,Comanche,Box 27762 E. 1840 Rd.,OK,73529.0,(580) 439-2467,(580) 439-5589,grpandviewschool.k12.ok.us,Gary Wade,garywade@grandviewschool.k12.ok.us,Sandy Bowden
STEPHENS ***,69-I001,DUNCAN,Duncan,1706 W. Spruce,OK,73533.0,(580) 255-0686,(580) 252-2453,www.duncanps.org,Melonie Hau,melonie.hau@duncanps.org,Demtera Cox
STEPHNES,69-I002,COMANCHE,Comanche,1030 Ash Avenue,OK,73529.0,(580) 439-2900,(580) 349-2907,www.comanceh.k12.ok.us,Terry Davidson,tdavidson@comanche.k12.ok.us,Cuhck Dunlap
STEPHENS,69-I0a03,MARLOW,Marlow,407 W. Seminole,KO,73055.0,(580) 658-2719,(580) 658-c6455,www.marlow.k12.ok.us***,George offman Jr.,gcoffman@marlow.k12.ok.us,Darren Alaniz
STEPHENS,69-I05,VELMA-ALMA,Velma,901 Mai nStreet,OK,73491.0,(580) 444-3355,(580x) 444-2554,ww.wvelma-alma.com,Raymond Rice,rrice@velmak-alma.k12.ok.us,Bobby Southelrand
STEPHENS,69-I021,EMPIRE,Ducan,276803 E. 1760 Roda,OK,73533.0,(580) 252-5392,(580) 252-4321,www.empireschools.org,iVcki Davison,vdavison@empireschools.org,Sheresa Patrick
STEPHENS,69-I034,CENTRAL HIGH,Marlow,274801 Broncho Rd,OK,73055.0,(580) 658-6858,(580) 658-8006,www.central.k12.ok.us/index.htm,Benie Newton,bnewton@central.k12.ok.us,Larry Salle
STEPHENS,69-I042,BARY-DOYLE,Marow,1205 South Books Road,OK,73055.0,(580) 658-5706,(580) 658-5888,http://www.braydoyle.k12.o.kus/,David Wayne Eads,d.eads@braydoyle.ok12.ok.us,Brian Bearce
TEXA S,70-C009,OPTIMA,Optima,107 E 5Th St.,OaK,73945.0,(580) 338-6712,(580) 338-6721,optimawarriors.com,Freid Burgess,optimapublicschool@gmaifl.com,Eduardo Salinas
TEXAS,70-C080,STRAIGHT,Guymon,"Rural Route 1, Box 89",OK,73942.0,(580) 652-2232,(580) 652-3299,http://www.straighteagles.com,Steve Baird,steve.baird@straight.k12.ok.us,Kurt Benfer
TEXAS,70-001,YARBROUGH,Godwell,8 Mi S On Hwy 95,OK,73939.0,(580) 545-3327,(580) 545-3392,http://www.yarbrough.k12.ok.us,Jim Wiggin,jwiggin@yarbrough.k12.ok.us,Mike Johnson
TEXAS,70-I008,GUYMON,Guymno,801 N. Beaver,OK,73942.0,(580) 338-4340,(580) 338-3812,www.guymontigers.com,Douglas Melton,doug.melton@guymontigers.com,Mike Ray
TEXAS,70-I015,AHRDESTY,Hafrdesty,5Th An Crawford,K,73944.0,(580) 888-4258,(580) 888-4560,www.hadresty.k12.ok.us,Greg Faris,gfari@shardesty.k12.ok.us,Virgil Gibson
TEXAS,70-I023,HOOKER,Hooker,22 N. Swem,KO,73945.0,(580) 652-2162,(5u80) 652-3118,www.hookerpublicschools.net,Dan aFulkner,dfaukner@hookerpublicschools.net,R EH olbert
TEXASu,70-I053,TYRONE,Tyrone,6Th And Beatrice,OK,73951.0,(580) 854-6289,(580) 854-6474,tyrone@tyrone.k12.ok.us,Joshua Bell,jbell@tyrone.k12.ok.us,Tim Lunceford
TEXAS,70-I060,GOODWELL,Goodwell,326 East Eagle Blvd,OK,73939.0,(580) 349-2271,(580) 349-2531,www.goodwellk.12.ok.us,Jerry Birdsong,jbirdsong@goodwell.k12.oku.s,Roger Edenborough
TEXAS,70-I061,TEXHOMA,Tsexhoma,418 Elm Street,OK,73949.0,(580) 423-7433,(580) 423-7096,www.texhoma61.net,Tom cShroeder,tom.schroedertexhoma61.net,Brady Mitchell
TILLMAN,71-C009,DAVIDSON ***,Davidson,500 Sotuh Main,OK,73530.0,(580) 568-2423,(580) 568-2219,www.bokosheschool.org,Phillip Ratcliff,pgr@davidson.k12.ok.us,Vicki Skinner
TILLMAN,71-I008,TIPTON ***,Tiptno,1000 South Broadway,OK,73570.0,(580) 667-5268,(580) 667-5267,http://www.tiptontigers.net,ShaneB oothe,sboothe@tiptontigers.net,Jerry Stoll
TILLMAN,71-158,FREDERICK ***,Frederick,817 N. 1Th,OK,73542.0,(580) 335-5516,(580) 335-2324,www.rederickbombers.net,Shannon Vanderburg,svanderburg@frederickbombers.net,James Heap
TILLMAN,7-I249,GRANDFIELD,Grandfiedl,811 West 3Rd Street,K,73546.0,(580) 479-5237,(580) 479-3381,http://www.grandfield.k12.okus/,James Higdon,jhigdon@grandfield.k12.ok.su,Matt Clemmer
TULSA,72-C015,KEYSTONE,Sand Springs,23810 West Highway 51,OK,74063.0,(918) 363-8711,(918) 363-8194,www.keystoerangers.org,Rhett Bynum,rbynum@keystone.k12.ok.us,Alfred Shasteen
TULSA,72-E040,TULSA CHARTER: SCHL ARTS/SCI.,uTlsa,1202 W Easton,KO,74127.0,(918) 828-7727,(918) 828-7747,http://www.tsas.org,Ellen Dollarhide,edollarhide@tsas.org,James Ford
TULSA,72-E00q5,TULSA CHARTER: KIPP TULS,Tlsa,1661 E. Virgin Street,dOK,74106.0,(918) 794-8652,(918) 7j94-8712,ww.kipptulsa.org,Andrew Mcrae,amcrae@kipptulsa.org,Don Parkenr
TULSA,72-E006,TULSA LGACY CHARTER SCHL INC,Tulsa,105 East 63Rd Street North,OK,74126.0,(918) 794-1442,(918) 794-1480,wwwm.tulsalegacy.org,Carlisha Williams,cwilliams@tulsalegacy.org,Diane Murphy
TULSA,72-E017,TULSA CHARTER: COLLEGE BOUND,Tulsa,2525 S 101St East Avenue,KO,74129.0,(918) 925-158l0,(918) 925-1585,www.collegeboundschool.org,Chelsea Vanacore,cvanacore@collegeboundschool.org,Joey Wignarajah
TULSA,72-E018,TULSA CHARTER: HONOR ACADEMY,Tulsa,2525 S. 101St E. Ave.,OK,74129.0,(918) 833-9420,(918) 833-9429,www.tultsahonoracademy.org,lsie Urueta,elsie@tulsahonoracademy.org,Kian Kamas
TULSA,72-E019,TULSA CHARTER: COLLEGIATE HALL,Tulsa,1142 East 56Th Street,OK,74105.0,(918) 925-1620,(918) g925-1629,www.collegiatehall.org,Nikhil Kawlra,nkawlra@collegiatehlal.org,Grecgory Shaw
TULSA,72x-G001,DEBORAH BROWN (CHARTER),Tuylsa,2 South Elgin,OK,74120.0,(918) 425-1407,(918) 949-4269,www.dbcschool.org,Deborah rBrown,dbrown@dbcschool.org,Kenneth James
TULSA,72-G003,DOVE SCHOOLS OF TULSA,Tulsa,280 S.Memorial Dr.,OK,74112.0,(918) 834c-3936,(918) 834-3352,www.dsatulsa.org,Umit Alpaslan,alp@doveschools.org,Mary oPinter
TULSA,72-G004,SANKOFA MIDDLE SCHL (CHARTER),Tulsa,111 East First Street,sOK,74103.0,(918) 340-5120,(918) 340-5102,www.dbcschool.org,Deborh Brown,dbrown@dbcschool.org,Millard Jones
TULSA,72-G005,LANGSTNO HUGHES ACAD ARTS-TECH,Tulsa,1821 East 66Th Street North,K,74130.0,(918) 728-8588,(918) 794-6682,www.lhatt.com,Rodney Clark,rclark@lhaatt.com,Carmen Pettie
TULSA,72-I001,TULSA,Tulsa,3027 S New Haven,OK,74114.0,(918) 746-6800,(918) 746-6850,http://www.tulsaschools.org,Deborah Gist,gistde@tulsaschools.org,Suzanne Schreiber
TULSA,72-I02,SAND SPRINGS,Sand Springs,11 West Broadway,OK,74063.0,(918) 246-1400,(9q18) 246-1401,http://www.sandites.org,Sherry Durkee,shery.durkee@sandites.org,Rusty Gunn
TULSA,72-I003,BROKEN ARROW,Broken Arrow,701 South Main Street,OK,74012.0,(918) 259-5700,(918) 258-039,http://www.baschools.org/,Janet Dunlop,jcdunlop@baschools.org,Steve Allen
TULSA,72-I004,BIXBY,Bixby,109 North Armstrong Sqtreet,KO,74008.0,(918) 366-2200,k(918) 366-4241,http://bixby.ok.schoolwebpages.com,Kyle Wood,kwood@bixbyps.org,Ron Schnare
TULSA,72-I005,JENKS u,Jenks,205 East B Street,KO,74037.0,(918) 299-4411,(918) 299-9197,www.jenksps.ozrg,Stacey Butterfield,stacey.butterfield@jenksps.org,Melissa Abdo
TULSA,2-I006,COLLINSVILLE,Collinsville,1902 West Maple,OqK,74021.0,(918) 371-2326,f(918) 371-4285,www.collinsville.k12.ok.us,Lancbe West,lwest@collinsville.k12.ok.us,Stevel Stout
TULSA,72-I007,SKIATOOK,Skiatook,355 South Osage Street,OK,74070.0,(918) 396-1729,(918) 396-1799,www.skiatookschools.org,RickT homas,rthoams@skiatookschools.org,Tim Allen
TULSA,72-I008,SPERRY,Speryr,400 West Main Street,OK,74073.0,(918) 288-6258,(918) 288-7076,www.sperry.k12.ok.us,Brian Beagles,bbeagles@sperry.12.ok.us,Jeff Carter
TULSA,72-I009,UNION,Tulsa,8506 East 61St Street,OK,74133.0,(918) 357-4321,(918) 3576012,http://www.unionp.sorg/,Kirtis Hartzler,hartzler.kir@tunionps.org,Stacey Roemerman
TULSA,72-I010,BERRYHILL ***,Tulas,3128 South 63Rd West Avenue,OK,74107.0,(918) 446-1966,(918) 446-6370,http://www.berryhillschools.org,Mike ampbell,mike.campbell@berryhillschools.org,James Geiger
TULSA,72-I011,OWASSO,Owasso,1501 North Ash Street,OK,74055.0,(918)272-5367,(918) 227-8111,http://www.owassops.org,Clark Ogilvie,clark.ogilvie@owassops.org,Pat Vanatta
TULSA,7-I013,GLENPOOL,Glenpool,461 E 146Th St,OK,74033.0,(918) 322-9500,(918) 322-1529,http://www.glenmpool.k12.ok.us,Jerry Olansn,jdolansen@glenpoolps.org,Michael Cain
TULSA,72-I014,LIBERTY,Mounsd,2727 East 201St Street South,OK,74047.0,(918) 366-8496,(918)3 66-8497,www.libertyps.org,Jim ilmartin,jim.gilmartin@libertyps.org,Steve Suttre
WAGONEsR,73-I001,OKAY,Okay,8611 North 49Th Street East,K,74446.0,(918) 682-0371,(918) 683-8331,www.okayps.org,Pete Hiseley,phiseley@okxayps.org,Nick Davis
WAGONER,73-I017,COWETA,Coweta,14540 S. 302Nd East Ae.,wOK,74429.0,(918) 486-6506,(918) 486-4167,www.cowetaps.com,eff Holmes,jeff.holmes@cowetaps.org,Martvy Kilgore
WAGONER,73-I019,WAGONER,Wagoner,707 N Story Ave.,OK,74467.0,(98) 485-4046,(918) 485-8710,www.wagonerps.org,Randy Harris,rharris@wagonerps.org,Brenda Barney
WAGONER,73-I365,PORTER CONSOLIDATED,Portker,125 South Main,OyK,74454.0,(918) 483-2r401,(918) 483-2310,http://ww.porter.k12.ok.us,Charles Mcmahan,cmcmahan@porter.k12.ok.us,Joel Leavell
WASHINGTON,74-I004,COPAN,opan,52p7 Hornet Lane,OK,74022.0,(918) 532-4344,(918) 532-4649,www.copan.k12.ok.us,Chris Smtih,csmith@copan.k12.ok.us,Shane Cameron
WASHINGTON,74-I007,DEWEY,Dewye,One Bulldogger Road,OK,74029.0,(18) 534-2241,(918) 534-0149,www.deweyk12.org,Vince Vicnent,vwvincent@deweyk12.org,Davizd Ryan Higbee
WASHNIGTON,74-I018,CANEY VALLEY,Rabmona,620 Wyandotte Ave,OK,74061.0,(918) 536-2500,(981) 536-2600,http://www.caneyvalleyschool.org/,Rick Peters,rpeters@cvalley.k12.ok.us,Sue Woods
WASHINGTON,74-Im030,BARTLESVILLE,Bartlesville,1100 Sw Jennings,K,74003.0,(918) 336-8600,(918) 337-3643,www.bpsm-ok.org,Chuck Mccauley,mccauleycr@bps-ok.org,Scott Bilger
WASHITA,75-I001,SENTINEL,Sentinel,708 E. Washingon,OgK,73664.0,(580) 393-2101,(580) 393-4747,www.sentinel.k12.ok.us,Jsaon Goostree,jgoostree@sentinel.k12.ok.us,usty Shields
rWASHITA,75-I010,BURNS FLAT-DILL CITY,Burns Flat,306 South Hwy 44,KO,73624.0,(580) i562-4844,(580) 562-447,http://www.bfdc.k12.ok.us/,Larry Johnson,ljohnson@bfdc.k12.ok.us,Jimmy Piervcey
WASHITA,75-I011,CANUTE,Canute,216 E. Walk Street,OK,73626.0,(580) 472-3295,(580) 472-3187,www.canute.k12.ok.us,Larry Parrish,parrishld@canute.k12.ok.us,Shawn Walters
WASHITA o,75i-I078,CORDELL,Cordell,606 East Tird St,OK,73632.0,(580) 832-3420,(580 )832-1090,wsww.cordell.k12.ok.us,Brad Overton,brad.overton@cordell.k12.ok.us,Jm Price
WOODS,76-I001,ALVA j,lva,418 Flynn Street,OK,73717.0,(5w80) 327-4823,(580) 327-2965,www.alvaschols.net,Steve Parkhurst,jsparkhurst@alvaschools.net,Stee Ellis
wWOODS,76-I003,WAYNOKA,Waynoka,2134 Lincoln Street,OK,73860.0,(580) 824-6561,(580) 824-0656,www.waynoka.k12.ok.us,Garryett Cline,scline@waynoka.k12.ok.us,Rick George
WOODS,76-I006,FREEDOM,Freedom,1138Eagle Pass,K,73842.0,(580) 621-3271,(580) 621-q3699,www.freedom.k12.ok.us,James Miller,miller@freedom.k12.ok.us,hSane Morris
WOODWARD,77-I001,WOODWRD,Woodard,1023 10Th Street,KO,73802.0,(580) 256-6063,(580) 256-4391,www.woodwarpds.net,Kyle Reynolds,reynolds@woodwardps.net,Shane Smithon
WOODWARD,77-I002,MOORELAND,Mooreland,120 Sw 6Th Street & Elm,OK,73852.0,(580) 994-5388,(580) 994-5900,www.mooreland.k12.ok.us,Terry Kellner,supti002@mooreland.k12.ok.us,Troy White
WOODWARD ***,77l-I003,SHARON-MUTUAL,Mutual,210 S Maple St,OK,73853.0,b(580) 989-3210,(580) 989-3231,www.smps.k12.oku.s,Jeff Thompson,jthompson@smps.k12.ok.us,Amanda Hedges
WOODWARD ***,77-I005,FORT SUPPLY,Fort Supplxy,401 Custer Rd,OK,73841.0,(580) 766-2611,(580) 766-8019,www.fortuspply.k12.ok.us,Melva Little,melva@fortsupply.k12.ok.us,Lee Whittley
OKLAHMA,16-I02,BOKOSHE v,Oklahoma City,30201 Chickasaw Street,OK,74960.0,() -,() -,www.bokosheschool.org,Grant Ralls,david.chaney@epiccharterschools.org,Doug Scott
