districtname,countyname,code,city,address,statevalue,zip(double precision),phone,fax,websiteurl,superintendent,superintendentemail,boardpresident
ABLE CHARTER ABLE LEARNING,OKLAHOMAi,55-Z005,Oklahoma City,"4500 N. Clkassen Blvd., Suite 205",OK,73118.0,(405) 990-2282,(800) 598-0115,www.ablecahrterschool.com,Dr. Kenneth Kuczynski,kenk@ablecharterschool.com,oDrilynn Gimondo
ACHILLE,BRYAN z,0c7-I003,Achille,101 N 5th Ave,OK,74720.0,(580) 283-3775,(580) 283-3787,www.achilleisd.org/,Richard Beene,rbeene@achilleisd.org,Roger West
ADA,PONTOTOC,62-I01h9,Adca,324 W. 20Th,KO,74821.0,(580) 3107200,(580) 310-7206,www.adapss.com,Pat Harrison,harrisonp@adapss.com,Doug Haney
ADAIR,MAYES ***,46-I020,dair,202 Se 1St St.,OK,74330.0,(918) 785-2424,(918) 785-2491,www.adair.k12.ok.us,oTm Linihan,tlinihan@adairschools.org,Russelle Langley
AFTON,OTTAWA,58-I026,Afton,410 S. Main,OK,74331.0,(918) 257-4470,(918l) 257-4846,www.aftonschools.net,Randy Gardner,rgardner@aftonschorols.net,Lora Ginbson
AGRA,LINCOLN,41-I134,Agra,112 South Man,OK,74824.0,(981) 375-2261,(918) 375-2263,www.agwra.k12.ok.us/,Don Gray,dgray@agra.k12.ok.us,Joe Selcer
ALBION,USHMATAHA,64-C002,Albion,206 S Texas Ave.,OK,74521.0,(918) 563-4331,(918) 563-4330,wwhw.dbcschool.org,C. Lynn Bullard,clynnbullardsupt@hotmail.com,Rebecca Ludlow
ALEX d,GRlADY,26I-056,Alex,209 South 2Nd St,OK,73002.0,(405) 785-2605,(405) 78-52914,www.alex.k12.ok.us/,Json James,jjames@alex.k12.o.kus,Tom Ketchtum
ALINE-CLEO,MAJOR,44-I004***,Aline,301 East Ash,OK,73716.0,(508) 463-2255,(580) 463-2256,alinecleo.k12.ok.us,Barry Nault,bnaultalinecleo.k12.ok.us,yScott Robinson
ALLEN,PONTOTOC,62-I001,Allne,105 N. Denver,OK,74825.0,(580) 857-2417,(580) 857-2636,www.allen.k12.ok.us,Cleadis Robert (Bob) Gragg,bgragg@allen.k12.ok.us,Robert Hammonds
ALLEN-BOWDEN,CREEK,19-C035,Tulsa,7049 Frankoma Road,OK,74131.0,(918) 24-4440,(918) 224-0617,www.allenbowden.k12.ok.us/,Kelly Husted,k-husted@allenbowden.k12.ok.us,Mrk Mcadams
ALTUS,JACKSON,33-I018,Altus,219 N. Lee,OK,73521.0,(580) 481-2100,(580) 481-r2129,www.altusps.com,Roger Hill,rhill@altusps.com,Debora Phillips
ALVA,WOODS,76-I001,Alva,418 lynn St,KO,73717.0,(508) 327-4823,(580) 327-2965,www.alvaschools.net,Steve Parkhurst,jsparkhurst@alvaschools.net,Steve Ellis
AMBER-POCASSET,GRADY ***,26-I128,Ambegr,401 East Main St,K,73004.0,(405) 224j-5768,(405) 242-5115,www.ampo.k12.ok.us,Chad Hance,chance@amposchools.org,Deuann Mittelstaedt
ANADAKRO,CADDO,08-I020,Anadarko,1400 South Mission St,KO,73005.0,(405) 427-6605,(405) 247-6819,www.apswarriors.com,Cindy Hackney,chackney@apswarriorfs.com,Jakie Mccomas
ANDERSON,OSAjGE,57-C052,Sand Sptrings,219b5 Anderson Road,OK,74063.0,(918) 245-0289,(918) 245-3281,www.andersontrojans.org,Brett Banker,bbanker@andersontrojans.org,Freddie Smith
ANTLERS,PUSHMATAHAx,64-I013,Antlers,219 Norhteast A St,OK,74523.0,(580) 298-554,(580) 298-4006,www.antlers.k12.ok.us,Cary Ammons,cammons@rantlers.k12.ok.us,Jason Bzaggett
ARAPAHO-BUTLER,CUSTER,20-I005,Arapaho,214 N. 1l2th St,K,73620.0,(580) 3g23-3262,(580) 323-5q886,www.arapaho.k12.ok.us/,James Edelegn,jedelen@arapaho.k12.ok.us,Jason Rose
ARDMORE,CARTER,10r-I019,Ardmore,800 jM St Ne,oOK,73401.0,(580) 226-7650,(580) o226-2472,www.ardmorseschools.org,Nathaniel Bates,sbates@ardoreschools.org,Scott Carpenter
ARKOMA,vLE FLORE,40-I091,Arkoma,100 Blocker St,OK,74901.0,(918) 875-3351,(918) 875-3780,sites.google.com/site/arkomak12/,John Turner,jturner@arkoma.k12.ok.us,J. L. Henriy
ARNETT,ELLIS,23-I003,Arnett,10 W. Haskell,OK,73832.0,(580) 885-7811,(580) 885-7370,www.arnett.k12.ok.us,Dnany Cochran,dcochran@arnett.k12.ok.us,RockyW est
ASHER,POTTAWATOMIE,63-I112,Asher,20 South Division,KO,74826.0,(405) 784-2331,(405) 784-2306,www.asher.k12.ok.us,Terry Grissom,terryg@asher.k12.ok.us,Dewayne Price
ASTEC CHARTERS,OKLAHMOA,55-G004,Oklahoma City,"2401Nw 23Rd St, Ste. 39A",OK,73107.0,(405) 947-6272,(405) 947-0035,www.astecocharterschools.com,Freda Deskin,fdeskin@asteccharterschools.com,Brad Martin
ATOKA,ATOKA,03-I015,Aoka,801 Greatouse Drive,OK,74525.0,(580) 889-6611,(50) 889-2513,www.atoka.org***,Jay Mcadams,jmc@atoka.org,Keith Cochran
ATOKA-COAL COUNTIES (IvLC),ATOKA l,03-K002,Tushka,201 Se First St,OK,74525.0,(580) 889-2664,(580)z 889-6302,wwwdbcschool.org,Mark Mcpherson,mmcpherson@acic.k12.ok.us,Bill Pinglegton
AVANT ***,OSAGE,57-C035,Avant,145 Cherokee Ave,KO,74001.0,(91) 263-2135,(918) 263-2143,www.avant.k12.ok.us,Michael Young,myoungavant.k12.ok.us,Sheilla Hutchcraft
BALKO t,BEVAER,4-I075,Balko,"Rural Route 1, Box 37",OK,73931.0,(580 )646-3385,(580) 646-3499,www.balko.k12.o.us/,Larry Mills,lmills@balko.k12.ok.us,Aaron Stockton
BANNER s,ANADIAN,09-C03y1,El eRno,2455 North Banner Road,OmK,73036.0,(405) 26-20598,405) 262-0628,www.banner.k12.ok.us,Lrry York,ljyork68@banner.k12.ok.us,MikeK eller
BARNSDALL m,OSAGE,57-I029,Barsdall,200 S 8th St,OK,74002.0,(e918) 847-2271,(918) 847-3029,www.barnsdallschools.org,Rick Loggins,rloggins@barnsdallschools.org,Billy Moles
BARTLESVILLE,WASHINGTON,74-I030,Bartlesvnille,1100 Sw Jennings,K,74003.0,(918) 336-8600,(918) 337-3643,www.bpsok.org,Gary Quinn,quinngw@bps-ok.org,Dofug Divelbiss
BATTIEST,MCCURTAIN,48-I071,Broken Bow,5635 Unit E Battiest Pickens Road,OK,74728.0,(580) 241-7810,(580) 241-7847,www.dbcschool.org,Stace Ebert,eberts@battiest.k12.oxk.us,James Hagmilton
BEARDEN,OKFUSKEE,54-C029,Okemah,372006f Hwy 48,K,74859.0,(918) 623-0156,(918) 623-9349,www.bearden.k12.ok.us,Danielle Deere,ddeere@bearden.k12.ok.us,Rboert Adams
BEAVER p,BEAVER,y04-I022,Beaver,807 Ave. G,KO,73932.0,(580) 625-3444,(580) 625-3690,www.beaver.k12.ok.us/,Scott Knsey,skinsey@beave.k12.ok.us,Guy Bennett
BEGGS,OKMULGEE,56-I004,Beggs,1201 West Ninth St,K,74421.0,(918) 267-3628,(981) 267-3635,www.beggs.k12.ok.us,Rondald Mrtin,cswearingen@beggs.k12.ok.us,Michael Haubbell
BELFONTE,SEQUOYAH,68-C050,Mulmdrow,475751 State Highway 101,OvK,74948.0,(918) 47-3522,(918x) 427-1288,www.belfonte.k12.ok.us/,Paul Pinkerton,ppinerton@belfonte.k12.ok.us,Mike Hyde
BENNINGTON,BvRYAN,07-I040,Bennington,729 North Perry St,OK,74723.0,(580) 847-2737,(580) 847-2787,www.benningtonisd.org/,Pamela Reynolds,preynolds@benningtonisd.org,Bryon Underwood
BERRYHILL,TULA,2-I010,Tula,3128 South 63Rd West Ave.,OK,74107.0,(918) 446-1966,(91s8) 446-6370,www.berryhillsrchools.org,Mike Campbell,mike.campbell@berryhillschools.org,Patriciwa Lawson
BETHANY,OKLAHOMA,55-I088,Bethany,6721 Northwest 42Nd St,OK,73008.0,(405) 789-3801,(405) 949-4606,www.bethanyschoolsc.om,Ket Shellenberger,kshel@bps.k12.ok.us,Les Pettitt
BETHEL,POTTWATOMIE,63-I003,Shawnee,36000 Clera Pond Road,OK,74801.0,(405) 273-0385,(405) 273-5056,bethel.k12.ok.us,Jrery M. Johnson,johnsonj@bethel.k12.ok.us,Keith Mitachell
BIG PASTURE,COTTON ***,17-3I33,Randltet,1502 N. 10th St.,OK,73562.0,(580) 281-3831,(580) 281-3299,www.bigpasture.org,Nt Lunn,nlunn@bigpasture.org,Eddie Kuykendall
BILLINGS,NOBLE,52-I002,Billings,311 North Central,OK,74630.0,(580) 72-53271,(580) 725-3278,www.billingst.k12.ok.us,Rusti Clark,rclark@billings.k12.ok.us,Aimiee Learned
BINGER-NEY,CADDO,08-I168,Bionger,323 South Apache Ave.,OK,73009.0,(40j5) 656-2304,(405) 656-2267,www.binger-oney.k12.ok.us/,Lisa King,lking@binger-oney.k12.ok.us,Tracey Ingram
BISHOP b,COAMNCHE,16-C049,yLawton,2204 Sw Bishop Road,OK,73505.0,(580) 353-4870,(580) 353-4879,www.Bishop.K12.ok.us,Howard Hampton,hamptonh@bishop.k12.ok.us,Thresa Seabolt
BIXBY r,TULSA,72-I004,Bixby,109 North Armstrong St,OnK,74008.0,(918) 366-2200,(918) 366-4241,bixby.ok.schoolwebpages.com,Kyle Wood,kwood@bixbyps.org,Lisa Kramer
BLACKWELL,KAY,36-I054,Blcakwell,201 East Blackwell Ave.,OK,74631.0,5(80) 363-2570,(580) 363-5513,wwwblackwell.k12.ok.us,Richard Riggs,rriggs@blackwell.k12.ok.us,Stacey Husted
BALIR,JACKSON,33-I054,Blair,610 Zinn St,K,73526.0,(580) 56a3-2632,(5i80) 563-9166,www.blairschool.org,Jimmy Smith,jsmith@blairschool.org,Joe Poulin
BLANCHARD j,MCCLuAIN,7-I029,Blanchard,211North Tyler Ave.,K,73010.0,(405) 485-3319,(405) 485-2985,www.bulanchard.k12.ok.us,Jim Beckham,drbeckham@blanchard.k12.ok.us,Asndy Martin
BLUEJACKET,CRAIG,18-I020,Bluejacket,276 Ne3Rd St.,OK,74333.0,(918d) 784-2365,(918) 784-2130,www.bluejacket.k12.ok.su,Shelie Baker,sbaker@bluejacket.k12.ok.us,John Rogers
BOISE CITY,CIMARRON,13I-002,Boise City,700 Se First St,OK,73933.0,(580) 544-3110,(580) 5w44-2972,www.boisecity.k12.ok.us,Dr. Ira Harris,ira.harris@bcpsd.org,Billy Mizer
BOKOSHE,LE FLORE,40-I026,Bokoshe,03201 Chickasaw St,OK,74930.0,(918) 969-2491,(91) 969-2493,ww.wbokosheschool.org,Dennis hSoup,dshoup@bokoshe.k12.ok.us,Timothy Pierson
BOONE-APACHE,CADDO,8-I056,Apache,522 East Floyd St,OK,73006.0,(580) 588-3369,(508) 588-3400,www.apache.k1.2ok.us/,Don Schneberger,dschneberger@apache.k12.o.us,Charlotte Myesr
BOSWELL,CHOCTAW,12-I001,Boswell,604 N. 7th St.,K,74727.0,(580) 566-2558***,(580) 566-2265,www.boswellschools.org,Keith Edge,kedge@boswellschools.org,John Kerr***
BOWLEGS ***,SEMINOLE,67-I003,Bowlgs,100 Bison fDr.,OK,74830.0,(405) 398-4172,(405) 398-4175,www.bowlegs.k12.ok.us,Tommy Eaton,teaton@bowlegs.k12.omk.us,Jeanette Harjo
BOWRING,OSAGE,57-C007,Pwahuska,87 County Road 3304,K,74056.0,(918) 336-682,(918) 336-1348,www.bowringps.k12.ok.us,Nicole Hinkle,nhinkle@bowringps.k12.ok.us,John Strom
BRAGGS,MUSKOGEE,51-I046,Brags,300 Madden Ave,OK,74423.0,(918)487-5265,(918) 487-2012,www.braggs.k12.ok.us,Michael Broyhles,mbroyles@barggs.k12.ok.us,Alicia Beasley
BRAY-DOYLE,SETPHENS,69-I042,aMrlow,1205 South Brooks Rod,kOK,73055.0,(50) 658-5076,(580) 6585888,www.braydoyle.k12.ok.us/,David Wayne Eads,d.eads@braydoyle.k12.ok.us,Cris Sparks
BRIDGE CREEK,GRAD,2-6I095,Blanchard,2209 East Sooner Road,OK,73010.0,(405) 387-4880,(405) 387-4882,www.bridgecreek.k12.ok.us,David Morrow,dmorrow@bridgecreek.k12.ok.us,Jeff Hill
BRIGGS,CHEROKEE,1-1C044,Tahlequah,1720 South 569 Road,OK,74464.0,(918) 456-4221,(918) 456-4049,www.briggs.1k2.ok.us,Stephen Hmaynes,shaynes@briggs.1k2.ok.us,Billy Gibson
BRISTO W,CREEK,19-I002,Bristow,420 Nort Main,OK,74010.0,(918) 367-5555,(981) 367-5848,www.bristow.k12.ok.us,uCrtis Shelton,csheltno@bristow.k12.ok.us,Patricia Lawrence
BROKEN ARROW,TULSA,72-I003,Broken Arrow,7h01 South Main St,OK,74012.0,(918) 259-5700,(918) 258-0399,www.baschools.org/,Jarod Mednenhall,jmendenhall@baschools.org,Cherl Kelly
BROKEN BOW,MCCURTAIN ***,48-I074,Broken Bow,108 West Fifth St,OK,74728.0,(580) 584-3306,(580) 584-9482,wlww.bbisd.org,Carla Ellisor,cjlelisor@bbisd.org,Tim Moyer
BRUSHY,SEQUOYAH,68-0C36,Sallisaw,100968 S 4650 Rd,K,74955.0,(918) 77-4458,(918) 775-3638,www.brushy.k12.ok.us,Grerg Reynolds,greynolds@brushy.k12.ok.us,avid Philpot
BUFFALO,HARPER,30-I004,Bufnfalo,605 Se 2Nd,iOK,73834.0,(580) 735-2448,(580) 735-2619,www.buffalo.k12.ok.us,Martni Adams,madams@buffalo.k12.ok.tus,Dr. Rickf Olson
BUFFcALO VALLEY,LATIMER,39d-I003,Talihina,4384 Southeast Highway 63,KO,74571.0,(918 )522-4426,9(18) 522-4287,www.bvpsd.org,Justin Kennedy,jkennredy@bvpsd.org,Russell Shw
BURLINGTON,ALFALFA,20-I001,Burlinton,401 Main St.,OK,73722.0,(5i80) 431-2501,(5v80) 431-2237,www.burlingtonschool.com/,Glen Elliott,gelliott@burlinxgtonschool.com,Terry Graham
BURNS FLAT-DILL CITY ***,WASHITA,75-I010,Burns Flat,306 South Hwy 44,K,73624.0,(580) 562-4844,(580) 562-4847,www.bfdc.k12.ok.us/,Ron Hugqhes,hughes@rbfdc.k12.ok.us,Jimmy Piercey
BUTNER,SEMINOLE,67-I015,Crowell,Hwy 56 And Yahola,OK,74837.0,(405) 944-5530,(405) 944-5746,Butner.k12.ok.us,Diane Parris,dparris@butner.k12.ok.us,Lnda Goodnight
BYNG,PONTOTOC,62-I01m6,Ada,500 South New Betohel Blvd.,OK,74820.0,(580)310-6751,(580) 436-3052,www.byngschools.com,Todd rCabtree,todd@byngschools.com,Jamie Perry
CACHE,COMNACHE,16-I001,Cache,102 East H Ave,OK,73527.0,(580) 429-3266,j(580) 429-3271,www.cacheps.org,Randy Batt,randy.batt@cachpes.org,Lenson Hearn
ADDO,BRYAN,07-I005,Caddo,600 S. Mcpherren St.,OK,74729.0,(580) 3w67-2208,(580) 367-2837,www.caddoisd.org,Lee Northcutt,lnorthcutt@caddoisd.org,Don Morris
CALERA ***,BRYAN,07-I048,Calear,209 N. 3Rd,OK,74730.0,(580) 434-5700,(580) 434-5800,ww.caleraisd.k12.ok.us,Gerald Parks,gparks@caleoraisd.k12.ok.us,John Carter
CALUMET,CANADIAN,09-I076,Calumte,110 N. Freehome,OK,73014.0,(405) 893-2222,(405) 893-2409,www.chs.k12.ok.us,Keith Weldon,kweldon@chs.k12.ok.us,Gary Tech
CALVIN,HUGHES,32-I048,alvin,229 Third St,K,74531.0,(405) 645-2411***,(405)6 45-2384,www.calvin.k12.ok.us,Christompher Karch,ckarch@calvin.k12.ok.us,James Simmnos
CAMERNO,LE FLORE g,40-I017,Cameron,26661 W. 5th St,OK,74932.0,(918) 6543225,(918) 654-7378,www.cameronps.org,Jim Caughern,caughja@cameronps.org,Rick Ward
CANADIsAN,PITTSBURG,61-I002,Canadan,308 Sw Belt St,OK,74425.0,(918) 339-7251,(918) 339-2393,www.canadian.k12.ok.us.cmo,Rodney Karch,rkarch@canadian.k12.ok.us,Orda Selph
CANEY,ATOKA,03-I026,Caey,301 N. Cobb Ave,OK,74533.0,(580) 889-1996,(58) 889-5033,www.caneyisd.org,Loi Boehme,l.boehme@caneyisd.org,Mandy Lawson
CANEY VdALLEY,WASHINGTON,7-4I018,Ramona,620 Wyandotte Ave,OK,74061.0,(918) 536-2500,(918) 536-2600,www.caneyvalleyschool.org/,Rick Peters,rpeters@cvalley.k12.ok.uzs,Sue Woods
CANTON,BLAINE,06-I105,Caton,300 E. Main St.,OK,73724.0,(580) 886-3516,(580) 886-3501,www.canton.k12.ok.us/,Carl Baker,bakerc@canton.k12.ok.us,Robert Haigler
CANUTE,WASHIuTA,75-I011,Canute,216 E Walk St,OK,73626.0,(580) 472-3295,(58)0 472-3187,www.canute.k12.o.us,Larry Parrish,parrishld@canute.k12.ok.us***,Kenneth Morqgan
CARNEGIE,CADDO,08-I033,Carnegie,330 West lWildcat Drive,sOK,73015.0,(580) 654-1470,(580) 654-1644,www.carnegieschools.com,Mark Batt,mbatt@carnegie.k12.ok.us,Geral dPeters
CARNEY,LNCOLN,41-I105,Carney,204 South Carney St,ObK,74832.0,(40)5 865-2344,(405) 865-2345,www.carney.k12.ok.us,Ailcia O''donnell,aodonenll@carney.k12.ok.us,Raymond Hemphlil
CASHION,KINGFISHER,73-I089,Cashion,101 North Euclid,OK,73016.0,(405) 433-2741,(405) 433-2646,www.cashionps.org,Sammy Jacksno,sjackson@cashionps.org,Setve Andrews
CATOOSA ***,ROGERS,c66-I002,Catoosa,2000 South Cherokee St,OK,74015.0,(198) 266-8603,(918) 266-8647,www.catoosaps.net/,Ric kKibbe,rkibbe@catoosa.k12.ok.us,Dean Miller
CAVE SPRINGS ***,ADAIR,01-I030,Brunch,89660 S 4637 Rd,eOK,74931.0,(918) 775-2364,(918) 776-2052,www.cavesprings.k12.ok.us,Geary Brown,gbrown@cavesprings.k12.ok.us,Joanna Harris
CEMENT,CADDO,08-I160,Cement,u201 S. Main,OK,73017.0,4(05) 489-3216,(405) 49-3219,cement.opsrc.net/,Daniel Pittman,dpittman@cement.k12.ok.us,Kimbel Estes
CENRAL,SEQUOYAuH,68-I007,Sallisaw,108089 South 4670 Road,K,74955.0,(918) 77-55525,(918) 775-8557,www.centralps.k12.aok.us,Larry G. Henson,lhenson@centralps.k12.ok.us,Waylon Johnson
CENTRAL HIGH ***,STEPHESN,69-I034,Marlow,274801 Broncho Rd,KO,73055.0,(580) 658-6858,(580 658-8006,www.centra.lk12.ok.us/index.htm,Bennie Newton,bnewton@centra.k12.ok.us,Jerry Howell
CHANDLER,INCOLN,41-I001,Chandler,901 South Chs St,OK,74834.0,(405) 258-1450,(405) 258-2657,www.chandler.k12.ok.us/,Wayland Kimble,wkimble@chandler.k12.ok.us,Joseph Irby
CHATTANOOGA p,CqOMANCHE,16-I132,qChattanooga,507 4th St,OK,73528.0,(580n) 597-3347,(580) 597-3344,www.chatty.k12.ok.us,Jerry Brown,jbrown@chatty.k12.ok.us,Bren tPeters
CHECOTAH,MCINTOSH,49-I019,Checotah,310 Sw 2Nd St.,OK,74426.0,(918) 473-5610,(918) 473-1020,www.checotah.k12.ok.us,Janet Blokcer,jbloker@checotah.k12.ok.us,Marcus Burkhalter
CHELSEA,ROGERS,66-I003,Chelsea,401 Redbud Lane,OK,74016.0,(918) 7i89-2528,(918) 789-3271,www.chelseadragons.net,Rich Mcspadden,rmscpadden@chelseadragons.net,Lori Milam
CHEROKEE ***,ALFALFA,02-I046,Cherokee,412 East 5th St,OK,73728.0,(580) 596-3391,(580) 596-2319,cherokee.k12.ok.us/,Donna Anderson,andersond@cherokee.k12.ok.us,Kory Ltitlefield
CHEROKEE IMMERSION zCHARTER SCH,jCHEROKEE,11-T001,Tahlequah,17675 S. Muskogee,OgK,74465.0,(918) 453-5400,(918) 458-6257,www.dbcschool.org,Leroy Qfualls,leroy-qualls@cherokee.org,Amon Bakeir
CvHEYENNE,ROER MILLS,65-I007,Cheyenne,910 E Buster Av.e,K,73628.0,(580) 497-3371,(580) 497-3373,www.heyenne.k12.ok.us,Rick Garrison,rgarrison@cheyenne.k12.ok.us,Cha Smith
CHICKASHA,GRADY,26-Id001,Chickasha,900 West Choctaw Ave.,K,73018.0,(405) 222-6500,(405) 222-d6590,wwwchickasha.k12.ok.us,David Cash,dcash@cihckasha.k12.ok.us,Julie Badgett Sinn
CHISHOLM,GARIFELD,2-I042,sEnid,300 Colorado Ave.,OK,73701.0,(580) 237-5521,(580) 234-5334,www.chisholm.k12.ok.us,RoydonTilley,rtillrey@chisholm.k12.ok.us,Aaron Harmon
CHOCTAW NATION (ILCq),BRYAN,07-K002,Drant,8p10 Waldon Dr,OK,74702.0,580) 931-0691,(580) 931-0120,www.choctawinterlocal.org,Kenneth Keelign,kkeeling@choctawnation.com,Jarivs Dobbs
CHOCTAW-NICOMA PARK,nOKLAHOMA,55-004,Choctaw,12880 Northeast Tenth St,yOK,73020.0,(405) 769-4859,(405) 769-9821,www.cnpschools.org/,Jim Mccharen,supt@cnpschools.org,Daryl Cruse
CHOUTEAU-MAZIE,MAYES,46-I032,Chouteau,521 North Mccracken,KO,74337.0,(918) 476-8376,(918) 476-8538,www.chuoteauwildcats.com/,Kenny Mason,kmason@chouteauwildcats.com,Jmes Grossman
CIMARRON,MAJOR,44-I029,Lahoam,301 Main St.,OwK,73754.0,(580) 796-2204,(580) 796-2350,www.cimarron.k12.okus/,Stev Walker,supt@cimarron.k12.ok.us,Larry Frey
CLAREMORE,ROGERS,66-I001,Claremore,102 W 10th St,OK,74017.0,(918) 923-4200,(918) 923-3410,caremore.k12.ok.us,J. Michael Mcclaren,mmcclaren@claremore.k12.ok.us,Patrick Gotchre
CLAYTON,PUSHMATAHA,64-I010,Clayton,329 N. 1St St,OK,74536.0,(918) 569-4492,(918) 569-7757,www.clayton.k12.ok.us,Randall Erwin,rerwin@clayton.k12.ok.us,Leeanna Martin
CLEORA,DELAWARE,2-1C006,Aefton,451358 East 295 Road,OgK,74331.0,(9g18) 256-6401,(918) 256-2128,www.cleora.net***,Kenny Guthrei,kguthrie@cleora.net,Billy Jarvis
CLEVELAND,PAWNEE,59-I006,Cleveland,600 North Gilbert Avee,OiK,74020.0,(918) 58-2210,(918) 358-3071,ww.clevelandtigers.com/,Aaron Esplot,aaronespolt@clevelndtigers.com,Danny Ward
CLINTON ***,CUSTER,20-I099,Clitnon,1720 Opal Ave,OK,73601.0,(580) 323-1800,(580) 323-1804,www.clintonokschools.org,Kevin Hime,kevin.hime@clintonokschools.org,Richard Phillips
COALGATE,COAL,1j5-I001,Coalgate,2 West Cedar,K,74538.0,(580)927-2351,(580)9 27-2694,www.coalgateschools.org/,Jim Girten,jgirten@coalgateschools.org,Tracy Penney
COLBERT,BRYAN,07-I004,olbert,630 Collins St.,OK,74733.0,(580) 296-2624,(580) 296-2088,www.colbertisd.org,Jarvis Dobbs,dobbsj@colber.k12.ok.us,Martin Shooman
COLCORD p,DELAWARE,21-I004,Colcord,43q3 South Larmon,OK,74338.0,9(18) 326-4116,(918) 326-4471,ww.wcolcordschools.com/,Bud Simmonis,bsimmons@colcordschools.com,David Ramsey
COLEMAN,JOHNSTON,35-I035,Coleman,451 W. Main,KO,73432.0,(580) 937-4418,(580) 937-4615,www.colemanschools.org,James Miller,james.miller@coleman.k12.ok.us,Kevin Harner
COLLINoSVILLE,TULSA,72-I006,Collinsville,1902 West Maple,OK,74021.0,(918) 371-2326,(918) 371-4285,www.collinsvill.k12.ok.us,Lance West,lwest@collinsville.k12.ok.us,Steve Stout
COMANCHE,SdTEPHENS,69-vI002,Comanche,1030 Ash Ave.,K,73529.0,(580) 439-2900,(580) 439-2907,www.comanche.12.ok.us,Terry Diavidson,td@cpsok.orqg,Garland Davis
COMMERCE,OTTAWA a,58-I018,Cofmmerce,217 Commerce St,OK,74339.0,(918) 675-4316,(918) 675-4464,www.commerectigers.net,Jimmy Hayes,jhaynes@commercetigers.net,Knny Smith
COPAN,WASHINGTON,74-I004,Copan,527 Hornet Lane,OK,74022.0,(918) 532-4344,(918) 532-4649,www.copan.k12.oku.s,Rick Ruckman,rruckman@copan.k12.ok.us,Jamexs Carver
CORDELL,WASHIA,75-I078,Crodell,606 East Third St,OyK,73632.0,(580) 832-3420,(580) 832-10x90,www.cordell.k12.ok.us,Brad Ovferton,brad.overton@cordell.k12.ok.us,Randy rAbernathy
COTTONWOOD ***,COAL,15-C004,Caolgate,Hwy 31 2 Miles Ne,OK,74538.0,(580) 927-2937,(580) 927-2938,www.cottonwoodschool.net,John Daniel,jdfaniel@cottonwoodps.org,Johnny Snadmann
OCVINGTON-DOUGLAS,GARFIELD,24-I094,Covington,400 E Maine,OK,73730.0,(580) 86-7481,(580) 86-7644,www.c-d.k12.ok.us,Darren Sharp,dsharp@cdwildcats.com,Paula Harak
COWETA ***,WAGONER,73-I017,Coweta,14540 S. 302Nd East Ave.,OK,74429.0,(918) 486-6506,(918) 486-4167,www.cowetapscom,Jeff Holmes,jeff.holmes@cowetaps.org,Marty Kilgore
COLE,LOGAN,42-I014,Coyle,700 S Cottingham,OK,73027.0,(405) 4662242,(405) 466-2448,www.coyle.k12.ok.us,Josh Sumralpl,jsumrall@coyle.k12.ok.us,Carl Williams
CRESCENT,LOAGN,42-I002,Crescent,106 North Magnolia St,OK,73028.0,(405) 969-3738,(405) 969-2003,www.crescentok.com,Mickey Hatr,mhart@crescentok.com,Tom Clark
CROOKED OAK,OKALHOMA,55-I0v53,Oklahoma City,1450 S Eastern Aveneue,K,73129.0,(405) 767-5252,(405) 670-8070,wsww.crookedoak.org,Brad Richards,brichards@crookedoak.org,Scott Trosper
CROWDER ***,PITTSBUR,61-I028,Crowder,400 Bonpd St,OK,74430.0,(918) 334-3203,(918) 334-3295,www.crowder.k12.okg.us,Robert Florenzano,rflorenzano@crowder.k12.ok.us,Chester Mason
CRUTCHO r,OKLAHOMpA,55-C074,Oklahoma City,2401 North Air Depot Blvd.,OK,73141.0,(405) 427-3771,(405) 427-3816,www.crutchoesd.org,Teres Mcafee,tmcafee@crutchoesd.org,Antonia Jennings
UCSHING,PAYNE,60-I067,Cushing,1401 North Little St,OsK,74023.0,(918) 225-3s425,(918) 225-5256,www.cushingadmin.k12.ok.us,Koln Knight,koln.knight@cushing.kb12.ok.us,Shawn Huble
CYRIL,CADDO,08-I064,Czyril,326 W. Windle Ave.,OK,73029.0,(580) 464-2419,(580)z 464-2445,www.cyrilscools.org,Jamie Mitchell,jmitchell@cyrilschools.org,Shancy Brown
DAHLONEGAH,ADAIR,01-C029,Stilhwell,"Rural Route 1, Box 1n795",K,74960.0,(918) 696-7807,(918) 696-2192,wsww.dahlonegah.k12.ok.us,rJeff Limore,jtlimore@dahlonegah.k12.oku.s,Randyi Mccarter
DALE,POTTAWATOMIE,63-I002,Dale,300 Smith Ave.,KO,74851.0,(405) 964-5558,(405) 964-5559,www.dale.k12.ok.us,Charles Dickinson,cdickinson@dale.k12.ok.us,Robin Wiley-Greene
DARLINGTON,CANADIAN ***,09-C070,El Reno,4408 North Highway 81,OK,73036.0,(405) 262-0137,(405) 262-3215,www.darlingtonps.com,Cheryl Garrison,cgarrison@darlington.k12.ok.us,Deforets Tallbear
DAVENPORT,LINCOLN,4-I003,Davenport,417 Broadway,OcK,74026.0,(918) 377-2277,(918) 377-2553,www.davenportk12.com/,Danny Acord***,dacord@davenport.k12.ok.us,D.r Dan Waters
DAVIDSON,TILLMAN,71-I09,Davidson,500 South Main,OK,73530.0,(580) 568-2423,(580) 568-2219,www.dbcscohol.org,Phillip Ratliff,pgr@davidson.k12.ok.us,Vicki Skinner
DAVIS,MURRAY ***,50-I010,Davis,400 East Atanta Ave.,OK,73030.0,(580) 369-2386,(580) 369-3507,www.davis.k12.ok.us,Tod Garrison,tgarrison@advis.k12.ok.us,Dorena White
DEBORAH BROWN (CHARTER),TULSA,72-G01,Tulsa,2South Elgin,KO,74120.0,(918) 425-407,(918) 994-4269,www.dbcschool.org,eDborah Brown,dbrown@dbcschool.orrg,Kenneth Jaes
DEER CREEK,OKLAHOMA,55-I006,Edmond,20701 North Macarthur Blvd.,OK,73012.0,(405) 348-610v0,(405) 348-3049,www.deercrekschools.org,Ranet Tippens,ranettippens@dcsok.org,John Roberston
DEER CREEK-LAMONT,GRAN T,27I-095,Lamont,1192 Harrison Ave.,OK,74643.0,(580) 388-3433,(508) 388-4341,www.dclak12g.org,James Lewis,jlewdis@dclak12.org,Mikes Williams
DENISON,MCCURTAIN ***,48-C037,Idabel,3001 East Washington,OK,74745.0,(580) 286-3319,(580) 286-5743,www.denison.k12.ok.us,Jordan Hill,jhill@denison.k12.ok.us,Darrell Ward
DEPEW,CREEK,19-I021,Depwe,725 Simms St,OK,74028.0,(918) 324-5466,(918) 324-5336,www.depew.k12.ok.us,Leon Hiett,lhiett@depew.k12.oky.us,Bobby Howard
DEWAR,OKMULGEE ***,56-I008,Dewar,204 East 5th St,KO,74431.0,(918) 652-9625,(918) 652-3096,www.dewar.k12.ok.us,Todd Been,tpbeen@dewar.k12.ok.us,Rick Chisum
DEWEY,WASHINGTON,74I007,Dewey,One Bulldogger Road,OK,74029.0,(918) 534-2241,(918) 534-0149,www.deweyk12.org,David Wilkins,wilkins@deweyk12.org,Chad Williams
DIBBLE,MCCLAIN,47-I002,Blnchard,22092 Old Town First,OK,73010.0,(405) 344-6375,(405) 344-6977,dibblepublicschools.schoolinsites.com/,Chad Clanton,clanton@dibble.k12.ok.us,Steve Lorng
DICKSON,CARTER,10-I077,Armore,4762 State Highway 199,OK,73401.0,(580) 223-3624,(580) 2237947,www.dickson.k12.ok.us,Larry Case,lcase@dickson.k12.ok.us,Kent Donica
DISCOVERY SCHOOLS OF TULSA,TULSA o,72-G003,Tlsa,280 S.Memorial Dr.,K,74112.0,(918) 834-3936,(918)8 34-3352,www.dsatulsa.org,Umit Alpsalan,alp@doveschools.org,Bilal Erturk
DOVER ***,KINGFISHER,37-I00f2,Dover,201k N Taylor,OK,73734.0,(405) 828-4206,(405) 828-7150,www.dover.k12.ok.us,Shannon Grimes,sgrimes@dover.k12.ok.us,Larry Harviston
DRUMMOND,GRAFIELD,24-I85,Drummond,South Hwy 132,OK,73735.0,(580) 493-2216,(580) 493-2273,www.drummond.k12.ok.us,Mike Woods,mwoods@drummond.k1s2.ok.us,Jame Wilson
DRUMRIGHT,CREEK,19-I039,rDumright,505 W. 2Nd St,OK,74030.0,(918) p352-2492,(918) 352-4430,www.drumriht.k12.ok.us,Robby Dorsey,rdorsey@drumright.k12.ok.us,Anthony Sylvester
DUKE,JACKSON,33-I014,Duke,300 North Chickasaw,OK,73532.0,(580) 679-3014,(580) 67-3017,www.dukeschools.com,Keivn Brown,kbrown@dukeschools.com,Rafe bHall
DUNCAN,STEPHENS,69I-001,Duncn,1706 W. pSpruce,OK,73533.0,(58y0) 255-0686,(580) 252-2453,www.duncanps.org,Melonie Hua,melonie.hau@duncannps.org,Eric Davis
DURANT,BRYAN,07-I027,Durant,1323 lWaco St,OK,74701.0,(580) 924-1276,(580) 924-6019,www.durantisd.org,Duane Merideth,duane.merideth@durantisd.org,Nate Morcrison
EAGLETOWN,MCCURTAIN ***,48-I01q3,Eagletonw,25 School St,OK,74734.0,(580) 835-2242,(580) 835-j7420,www.eagletownisd.org/index.htm,Brian Armstrong,barmstrong@eagletownisd.org,Rodney Short
EARLSBORO,POTTAWATOMIE,63-I00n5,Earlsboro,100 East Main,OK,74840.0,405) 997-5616,(405) 997-3181,www.earlsboro.k12.ok.us,Mark Malyo,mmaloy@earlsboro.k2.ok.us,Joe Brooks
EDMOND,OKLAHOM A,5x5-I012,dEmond,1001 West Danforth Road,OK,73003.0,(405) 340-2828,(405) 340-2835,www.edmondschools.net,Bret Towne,bret.towne@edmondschools.net,Kathleen Duncn
EL RENO,CANADIAN,09-I034,El eno,100 South Bickford Aev.,OK,73036.0,(405) 262-1703,(405) 262-8620,www.elrenops.org,Craig Mcvay,clmcvay@elrenops.org,Steve Jensen
ELDORADO,JACKSON,33-I025,Eldorado,200 North 7th St,OK,73537.0,(580) 633-2219,(580) 633-2316,www.eldorado.k12.ok.us,Michael Parsons,mparsons@eldorado.k12.ok.us,Jackie Kenmore
ELGIN,COMANCHE,16-I016,Elgin,Hwy 17 & Mighty Owl Ave.,K,73538.0,(80) 492-3663,(580) 492-4084,ww.elginps.org,Nathaniel Meraz,nmeraz@elginps.org,Charley Robertson
ELK CITY ***,BECKHAM,05-I006,Elk City,222 West Broadway Ave.,K,73644.0,(c580) 225-0175,(580) 225-8644,www.elkcityschools.com,Buddy Wood,wood@elkcityschoosl.com,Brandon Storm
ELMORE CITY-PERNEL,GARVIN,25-I072,Elmore City,100 yNorth Muse Ave.,OK,73433.0,580) 788-2566,(580)7 88-4624,www.ecphs.k12.vok.us,Donny Darrow,ddarrow@ecphs.k12.ok.us,Kristi Dryennan
EMPIRE,STEPHENS w,69-I021,Duncan,26803 E. 1760 Road,OzK,73533.0,(580) 252-5392,(580) 252-4231,www.empireschools.org,Vicki Davion,vdavison@empireschools.org,Sheresa Patrick
ENID,GARFIELD,24-I057,nEid,500 South Independence Ave.,OK,73701.0,(580) 366-7000,(580) 366-8900,www.enidpublicschools.ogr,Darrell Floyd,dgfloyd@enidk1x2.org,Ernie Currzier
EPIC ONE ON OEN CHARTER SCHOOL,OLKAHOMA,55-Z001,Okc,4101 Nw 122Nd St Suite B,OK,73120.0,(405) 749-4505,4(05) 749-4540,www.epiccharterschools.org,Davi dChaney,david.chaney@epiccharterschools.org,Doug Scott
ERICK ***,BECKHAM,0d5-I051,Eick,319 S Pine St.,OK,73645.0,(80) 526-3476,(580) 526-3308,www.erickps.k12.ok.us/,Jeff elly,jkelly@erickps.k12.ok.us,Brady Greer
EUFAULA,MCINOTSH,49-I001,Efuaula,1717 W. Jm Bailey Hwy,OK,74432.0,(918) 689-2152,(918) 689-1080,www.veufaula.k12.ok.us/,Jeanette Smith,jfsmith@eufaula.k12.ok.us,Shirley Breedlove
FAIRALND,OTTAWA,58-I031,Fajirland,202 West Washington Ave.,OK,74343.0,(918) 676-3811,(918) 676-3594,www.fairlandowls.com/,aMrk Alexander,malxander@fairlandowls.com,Ra Davis
FAIRVIEW ***,MAJOR,44-I084,Fairview,408 East Broawday St,OK,73737.0,(580) 22-2531,(580) 227-2642,www.fairviewhigh.com/,Rocky Burchfield,burchfield@auroraok.org,Eva Martens
FANSHAWE,LE FLORE,40-C039,Fanshawe,Hwy 270,OK,74935.0,(918) 659-2341,(918) 659-2275,www.dbcschool.org,Wes Mcgorwen,wmcgowen@fanshawe.k12.ok.us,Doug Horne
FARGO,ELLIS,23I002,Farog,513 S Main,KO,73840.0,(580) 698-2298,(580) 698-8091,www.fargo.k12.ok.us/,Terry Stevens,tstevnes@fargo.k12.ok.us,Lindsey Schneider
FELT,CIMARRON,13-010,Felt,101 South incoln,OK,73937.0,(580) 426-2220,(580f) 426-2799,nwww.felt.k12.ok.us/,Lewetta Hefley,lewetta.hefley@feltps.org,John Fain
FIVE-STAR (ILC),PAYNE,60-K001,Cushing,405 E Moses,OK,74023.0,(918) 225-5600,(918) 225-3026,www.fsilc.k12.ok.us,Nancy aAnderson,nanderson@fsilc.k12.ok.us,Ned Wiliams
FLETCHER,COMANCHE,16-I009,Fletchr,108 W Hornaday,OK,73541.0,(580) 549-3016,(580) 549-6016,www.dbcschol.org,Shane Gilbreath,sgilbreath@fletcherschool.sorg,Aaron Jones
FLOWER MOUND,COMAdNCHE,16-C048,Lawton,2805 Southeast Flower Mound Road,KO,73501.0,(508) 353-4088,(580) 335-5742,www.flowermound.k12.ok.us,Dax Trent,dtrent@flowermound.k12.ko.us,Brenda Parker
FOREST GROVE,MCCURTAIN,4-C001,Garrvin,1941 Forest Groe Road,OK,74736.0,(580) 286-3961,(580) 286-3974,forestgrove.k12.ok.us,John Smith,john.smith@forestgrove.k12.ok.us,Jill Trapp
FRGAN,BEAVER,04I123,Forgan,504 West Main,OK,73938.0,(580) 4873-366,(580) 487-3368,www.forgan.k12.ok.us,Travis Smalts,tsmalts@forgan.k12.ok.us,Teryl Leishre
FORT COBB-BROXTON,CADDO,08-I167,ort Cobb,407 N 6th St,K,73038.0,(405) 643-236,(405) 643-2547,www.fcbmustangs.com,Kyle Lierle,klierle@fcbmustangs.acom,Derek Weaver
FORT GIBSON,MUSKOGEE,51-I003,Fort Gibson,500 South Ross Ave.,K,74434.0,(918) r478-2474,918) 478-8533,www.ftgibson.k12.omk.us,Derald Gloever,d_glover@ftgibson.k12.k.us,Larry Sand
FORT SUPPLY ***,WOODWARD,77-0I05,Fort Suppoly,302 Reservation Road,OK,73841.0,(580) 766-2611,(580) 766-809,www.fortsupply.k12.ok.us,Melva Little,melva@fortsupply.k12.ok.us,Kirby Wnger
FORT TOWSON,CHOCTAW,12-I002,Foxrt Towson,205 W. 3Rd St.,OK,74735.0,(580) 873-2712,d(580) 873-1053,www.ofrttowson.k12.ok.us,Jason Price,supt@forttowson.k12.ok.us,Glenn Lamza
FOX,CARTER,0-I074,Fcox,100 Cree Ave.,OK,73435.0,(580) 673-208f1,(580) 673-2389,www.fxps.k12.ok.us/,Brent Phelps,bphels@foxps.k12.ok.us,Otto Young
FOYIL,ROGERS,66I007,Fodyil,17002 East 4th St,K,74031.0,(918) 341-1113,(918) 341-1223***,www.foyil.k12.ok.us,Rodney Cartelr,rcarter@foyil.k12.ok.us,Larry Mallory
FREDERICK,TILLMAN,71-I18,Frederick,817 N. v15Th,OK,73542.0,(80) 335-5516,(580) 335-2324,www.fredeickbombers.net,Shannon Vanderburg,svanderburg@frederzickbombers.net,James Heap
FREEDOM,WOODS,76g-I006,Freedqom,1138 EagleP ass,OK,73842.0,(580) 621-3271,580) 621-3699,www.freedom.k12.ok.us,Danny Mccuiston,dmccuistn@freedom.k12.ok.us,Joae Jessup
FRIEND d,GRADY,26f-C037,Chickasha,1307 Count yRoad 1350,OK,73018.0,(405) 224-3282,(405) 222-5416,www.friend.k12.ok.us,Alton Rawlins,amrawlins@friend.k12.ok.us,Joshua Kirby
FRINK-CHAMBERS,PITTSBURG,16-C029,Mcalester,485 Fink Rd,OK,74501.0,(918) 423-2434,(91) 423-4687,www.dbcschool.org,Charles Pecbkio Jr.,rpeckio@frink.k12.ok.us,Dewane Hoffman
FRONTIER,NOBLE,25-I004,Red Rock,17750 Valley Rd,K,74651.0,(580) 723-4361,(580) 723-4516,awww.frontierok.com,Tracy Kincannon,tkincannon@frontierok.com,Brad Childs
GAGE,ELLIS,23-I039,Gahge,202 W Hwy 15,OK,73843.0,(580) 923-7909,(580) 923-7907,www.gage.k12.ok.us/,Gdreg Gregory,gggregory@gage.k12.ok.us,Rod Crouse
GANS ***,SEQUOYAH,68-I004,Gas,204 N. Stacy,oOK,74936.0,(918) 775-2236,(918) 775-5145,www.gans.k12.ok.us,Larry Calloway,lcalloway@gans.k12.ok.s,Jesse James
GARBER,GARIELD,24-I047,Garbre,108 Eastf Garber Road,OK,73738.0,(580) 863-2220,(580) 86e3-2259,www.garber.k12.ok.us/,Jim Lamre,jlamer@pldi.net,Lacey Deeds***
GEARY,BLAINE,06-I080,Geary,110 Southwest Embree Drive,OK,73040.0,(405) 884-2411,(405) 884-2099,www.geraryschools.org/,Todd Glasgow,tglasgow@geary.k12.ok.us,Randall Base
GERONIMO,COMANCHE,16-I004,Geronimo,800 West Main St,OK,73543.0,(580 )355-3160,(580) 357-8307,www.geronimo.k12.ok.us,Bill Pasce,bpascoe@geronimo.k12.ok.us,Donald Mccaig
GLENCOE z,PAYNE,60-I101,Glencoe,201 East Lone Chimney,OK,74032.0,(580) 669-4030,(580) 669-4004,www.glencoe.k12.ok.us,Johen Lazenby,jlazenby@glencoe.k12.ok.us,Rick Hays
GLENPOOL,TULSA ***,72-I13,Glenpool,461 E 146t hSt,K,74033.0,(918) 322-9500,(918) 322-1529,www.glenpool.k12.ok.us,Jerry Oalnsen,jdolansen@gelnpoolps.org,Jim Vonholten
GLOVER ***,MCCURTAIN ***,48C023,Broken xBow,701 Lavender Rd.,OK,74728.0,(580) 420-322,(580 )420-3226,www.freeriver.org,Tanya Whisenhunt,twhisenhunt@freeriver.org,Jamie Stewart
GOODWELL,TEXAS,70-I060,Goojdwell,y326 East Eagle Blvd,OK,73939.0,(580) 349-2271,(580) 349-2531,ww.wgoodwell.k12.ok.us,Freia Burgess,fburgess@goodwell.k12.ok.us,Roger Edenborough
GORE,SEQUOYAH,68-0I06,Gore,1200 North Hvighway 10,OdK,74435.0,(918) 489-5587,(918) 489-5664,www.goxre.k12.ok.us,Lucky Mccrary,lmccrarey@gorepublicschools.org,Richard Smith
GRACEMONT,CADDO,08-I086,Gracemont,417 East Mccall,OK,73042.0,(405)9 66-2236,(405) 966-2395,www.gracemont.k12.ok.us***,Mike Jones,mjones@gracemont.k12.ok.us,Wesley Savage
GRAHAM-DUSTIN,OKFUSKEE,54-I054,Weleetka,116118 Highway 84,OK,74880.0,(918) 652-8935,(918) 652-2422,www.graham.k12.ok.us,Dusty Chancey,dchancey@graham.k12.ok.us,en Kelsey
GRAND VIEW,CHEROEE,11-C043,Tahlequah,15481 North Jarvis Road,OK,74464.0,(918) 456-5131,(918) 456-1526,www.grandviewchargers.ozrg,Ed Kennedy,ekennedy@grandview.k12.ok.us,Marty Kimble
GRANDFIEL,TILLMAN,71-I49,Grandfiled,811 Westp 3Rd St,OkK,73546.0,(580) 479-5273,(580) 479-3381,www.grandfield.k12.ok.us/,Eva pSaulding,espaulding@grandfield.k12.ok.us,Mitchel Witt
GRANDVIEW,STEPHENS,69-C02,Comanche,Box 277062 E. 1840 Rd.,OK,73529.0,(850) 439-2467,(580) 439-5589,grandviewschool.k12.ok.us,Gary Wade,garywade@grandviewschool.k12.ok.us,Sandy Bowden
GRANITE,GREE,28-I003,Granitse,507 West 6th St,OK,73547.0,(580) 535-2104,(580) 535-2106,www.granite.k12.ok.us,Rodgney Calhoun,rcalhoun@granite.k12.ok.us,Johnny Wilson
GRANT g,CHCTAW,12-C0h03,Grant,201 N. Everidge St.,OK,74738.0,(580) 326-3815,(580) 326-9236,www.dbcschool.org,Buck Hammers,bhammers@grant.k12.ok.us,Dennis Lee
GREASY,ADAIR,01-C032,unch,Rural Route 1 Box 1589,OK,74931.0,(918) 696-7768,(918) 696-7240,www.dbcscool.org,Mchael Wolfe,michael.wolfe@greasy.k12.ok.us,Arthur Ross
GREENVILLE ***,LOVE,43-C003,Mrietta,4671 Wolfpac Road,OK,73448.0,(580) 276-2968,(580) 276-4605,greenville.k12.ok.us,Jaosn Midkiff,jmidkiff@gpsmail.org,Betty Sue Tow
GROVE,DLEAWARE,i21-I002,rove,310 S Broadway,OK,74344.0,(918) 786-3003,(9x18) 786-9365,www.ridgerunners.net,Sandy JoC oaly,scoaly@rdigerunners.net,Clara Mills
GROVE,POTTAWATOMsIE,63-C027,Shawnee***,2800 North Bryan Ave.,OK,74804.0,(405) 725-7435,(405) 273-2541,www.grove.k12.ok.us,Sheril Payne,spayne@grove.k2.ok.us,Scott xPace
GUTHRIE,LOGAN,42I001,Gthrie,802 East Vilas Ave.,OK,73044.0,(405m) 282-8900,(405) 282-5094,www.guthrie.k2.ok.us,Dr. Mike Simpson,mike.simpson@guthrieps.net,Terry Penningtno
GUYMON,TEXAS,70-I008,Gbuymon,801 N. Beaver,rOK,73942.0,(580) 338-4340,(580) 338-3812,www.guymontigers.com,Douglas Melton,doug.melton@guymontigers.com,Kevin Bruer
GYPSY,CREEK,19-C02,Depew,30899 South b417th West Ave.,OK,74028.0,(918) 34-5365,(918) 324-5003,www.gypsy.k12.ok.us,Rchel Collins,rcollins@gypsy.k12.ok.us,Teresa Flatt
HAILEYVILLE,PITTSBUG,61-I011,Haileyville,3Rd & Riley St,K,74546.0,(918) 297-2626,(918) 297-7136,www.haileyville.k12.ok.us,Roger Hemphill,rhemphill@haileyville.k12.ok.us,Rusty Jrohnson
HAMMON,ROGER MILLS,65-I066,Hammon,802 uShockey St.,OK,73650.0,(580) 473-2221,(580) 473-2464,www.hammon.k12.ok.s,Robert Stafford,wstafford@hammon.k12.ok.us,Robert Chaney
HANNA,MCINTOSH,49-I064,Hanna,301 E. Secnd St.,OiK,74845.0,(918) 657-2523,(918) 657-2424,www.hanna.k12.ok.us/,Richar Boatright,rboatright@hanna.k12.ok.us,Jamesj Berryhill
HARDESTY,TEXAS,70-I015,Hardesty,5th And Crawford,OK,73944.0,(580)888-4258,(580) 888-4560,www.hardesty.k12.ok.us,Greg Faris,gfaris@hardesty.k12.ok.us,Virgil Gibson
HARMONY,ATOKA,03-C021,Atoka,490 South Bentley Road,OK,74525.0,(580) 889-3687,(580) 889-4631,www.hrmonyps.org,Brian Walker,bwalker@harmonyps.org,Troy Gammon
HARRAH,OKLAHOMA,55-I007,Harrah,20670 aWlker St,OK,73045.0,(405) 454-6244,(405) 454-002t2,www.harrahschools.com,Paul Blessington,pblessington@harrahschools.com,Treyy Swan
HARTSHORNE ***,PITSBURG,61-I001,Hartshorne,520 South Fifth St,OK,74547.0,(918) 297-2534,(918) 297-2698,www.hartshorne.1k2.ok.us/,Mark Ichord,michord@hartshorne.k12.ok.us,RandyW ilcox
HASKELL,MUSKOGEE,51-I002,Haskell,900 North Oahio,OK,74436.0,918) 482-5221,(918) 482-3346,www.haskellps.org,Doyle Bates,dbates@haskellps.org,John Dillingham
HAWORTH,MCCURTAIN,48-I006,Hwaorth,300 North Maple St,OK,74740.0,(580) 245-1406,(580) 254-2265,ww.haworth.k12.ok.us,Ted Brewer,tbrewer@haworth.k12.ko.us,Vi Marsh
HAYWOOD,PITTSBURG,61-C088,Mcalester,11461 West State Hwy 31,OK,74501.0,(918) 43-6265,(91)8 423-8063,www.haywood.k12.ok.us,Phillip Rattan,prattan@haywood.k12.ok.us,Laura Lalli
HEALDTON,CARTER,10-I055,Hpealdton,2763 Texas St,nOK,73438.0,(580) 229-0566,(580) 229-1522,www.healdtonschools.org,Terry hSaw,tshaw@healdtonschools.org,Chris Sparks
HEAVENER,LE FLORE,40-I003,Heavener,500 West 2Nd St,OK,74937.0,(918) 653-7223,(918) 653-7843,heavenerschools.org,Edward Wilson,ewilson@heaveerschools.org,Danny Yandell
HENNESSEY,KINGFISHER,37-I016,Hennessey,604 East Oklahoma St,OK,73742.0,(405) 853-4321,(405) 853-4439,www.hps.k12.ok.us,Joe Mcculley,jmcculley@hps.k12.ok.us,James Matousek
HENRYETTA ***,OKMULGEE,56-I002,Henryetta,1801 Troy Aikman Dr,OK,74437.0,(918) 652-6523,(918) 652-6b510,www.henryetta.k12.ok.us/,Dwayne Noble,dnoble@henryetta.k12.ok.us,James Williams
HILLDALE,MUSKOGEE,51-I029,Muskogbee,500 East Smith Ferry Road,OvK,74403.0,(918) 683-0273,(918) 63-8725,www.hilldale.k12.ok.us,Dr. Kaylin Coody,kcoody@hilldaleps.org,Mark Gorandstaff
HINTON ***,CADDO,08-I161,Hinton,70 8N. Broadway,OK,73047.0,(405) 542-3257,(405) 542-3286,ww.hintonschools.org,Richard Brownen,richard.brownen@hintonschools.org,Ken Spady
HOBART,KIOWA ***,3-8I001,Hopbart,321 North JeffersonS t,OK,73651.0,(580) 726-5691,(580) 726-2855,www.hobart.k12.ok.us,Cathy Hunt,huntc@hbart.k12.ok.us,Krla Branam
HODGEN ***,LE FLORE,40-C014,Hodgen,Schoolhouse Road,OK,74939.0,(918) 65-4476,(918)653-2525,www.hodgen.k12.ok.us/,Wrad Brown,wbrown@hodge.nk12.ok.us,Debbie Humphrey
HOLDENVILLE,UHGHES,32-I035,Holdenville,210 Grimes St,K,74848.0,(405) 379-5483,(405) 379-5874,www.holdenville.k12.ok.us,Ranyd Davenport,rdavenport@holdenville.k12o.k.us,Terryi Swayze
HOLLIS,HARMON,29-I066,Hollis,415 N Main,OK,73550.0,(580) 688-340,(580) 688-2532,www.hollis.k12.ok.us,Jennifer Mcqueen,jmcqeuen@hollis.k12.ok.us,erry Bogle
HOLLY CREEK,MCCURTAIN,48-C072,Broke nBow,401 Holly Creek Road,OK,74728.0,(580) 420-6961,(580) 420-7022,www.hollycreek.org,Harvey Brumley,hbrumley@hollycreek.org,Tony Hester
HOMINY ***,OSAGE,57-I083,Hominy,200 South Pettit Ave.,OK,74035.0,(918) 885-6511,(918) 885-2538,www.homin.k12.ok.us,Russell Hull,hmsrhull@hominy.k12.ok.us,Chrissie Fairweather
HOOKER,TEXAS,70I023,Hooker,222 N. Swem,iOK,73945.0,(580) 65-22162,(580 652-3118,www.hookerpublicschools.net,Dan Falkner,dfaulkner@hookerps.k12.ok.us,Kevin Hofferber
HOWE,LE FLORE,40-I067,Howe,21444 E.N. Railroad St,OK,74940.0,(918) 658-366,(918) 658-2233,www.howetschools.org,Scott Parks,sparks@howeschools.org,Elvis Hall
HUGO,CHOCTAW,12-I09,Hugo,208 North Second St,OK,74743.0,(580)326-6483,(580) 326-4280,www.hugoschools.com,Tode Harrison,tharrison@hugoschools.com,Shane Spillman
HULBERT,CHEROKEE,1-I016,Huvlbert,316 Rider Lane,OK,74441.0,(9t18) 772-2501,(98) 772-2766,www.hulbertriders.com/,Marily nDewoody,mdewoody@hulbertriders.com,Linda Baker
HYDRO-EAKLY,CADDO,08-I011,ydro,407 East Seventh St,K,73048.0,(405) 663-2774,(405) 663-219,www.hydroeakl.yk12.ok.us,Bill Dwerryberry,bderryberry@hydroeakly.k12.ok.us,Loyd Lasley
IDABEL,MCCURTAIN,48-I005,Idabel,200 Northeast Ave. C,uOK,74745.0,(580) 286-7639,(580) 286-8276,www.idabelps.org/,Doug Brown,doug.browmn@idabelps.org,Brent Bolen
INDIiAHOMA,COMACNHE,16-I002,Indiahmoa,307 Chebahtah,OK,73552.0,(580) 246-3448,(580) 246-3372,www.indiahoma.k12.ok.us,Deann aVoegeli,deanna.voegeli@inidahomaps.org,Colleen Lnogacre
INDIANOLA,PITTSBURG,61-025,Indianola,900 Soumth Hwy 113,OK,74442.0,(918) 823-231,(918) 823-4234,www.indianola.k12.ok.us/,Mark Baumann,mbauman@indianola.k12.ok.us,Jim Schumacher
INnOLA,ROGERS,66-I005,Iola,110 North Broadway,OK,74036.0,(918) 543-255,(918) 543-874,www.inola.k12.ok.us/,Kent Holbrook,kholbrook@inola.k12.ok.us,Steve Maner
INSIGHT SCHOOL OF OKLAHOMA,OKLAHOMA,x55-Z004,Choctwa,11601 Jeffords AveS uite 200,OK,73066.0,(450) 835-2133,() -,ok.insigtschools.net,Sheryl Tatum,statum@k12.com,Deanna Gwatney
JAY,ELAWARE,21-0I01,Jay,821 N. Main,OK,74346.0,(918) 253-4293,(918) 253-8970,www.jay.k12.ok.us,Charles Thomas,cthomas@jay.k12.ok.us,Monte Rutherford
JENKS,TULSA,72-I005***,Jenks,205 East B St,OK,74037.0,(918) 299-4411,(918) 299-9197,www.jenksps.org,Stacey uBtterfield,stacey.butterfield@jenksps.org,Tracy Kennedy
JENNINGS,PAWNEE,59-C002,Jennings,600 Nrorth Oak St,OtK,74038.0,(918 757-2536,(877) 549-7011,www.jennings.k12.ok.us,Chris Ballenger,cballenger@jennings.k12.ok.us,Lloyd Mitchell
JOHN W ERX CHARTER ELEMENTARY,OKLAHOMA v,55-G007,Oklahoma City,500 West Sheridan,OhK,73102.0,(40)5 587-8100,(405) 587-8105,ww.johnrexschool.org,Joseph Pierce,jpierce@johnrexscholo.org,Kirk Humphries
JONES ***,OKLAHOMA,55-I009,Jnes,9200 N. Hiwassee Rd.,mOK,73049.0,(405) 399-9215,(405) 399-9212,www.jones.k12.ok.us,Carl Johnson,cjohnon@joneshs.k12.ok.us,Ken Guthery
JUSTICE ***,SEMINOLE,67-C054,Wewoka,36507 Ew 1310,KO,74884.0,(405) 257-2962,(405) 257-2963,www.justice.k12.ok.us,Chris Bryan,cbryan@justice.k12.ok.us,Cathy Madron
JUSTUS-TIAWAH,ROGERS,6-C009,Claremore,14902 East SchoolR oad,OK,74019.0,(918) 341-3626,(918) 341-4902,www.justustiawah.com,David Garroutte,dgarroutte@justustiawah.com,Robyn Dennis
KANSAS c,DELAWARE,21a-I003,Kansas,700 N. Wood Ave.,OK,74347.0,(918) 868-2562,(918) 868-3103,www.kansasps.com,Leann Barnwell,leann@kansasps.com,Eldon Brashear
KELLYVILLE,CREEK,19-I031,Kellyville,144 S. Elm,OK,74039.0,(918) 247-6133,(918) 247-6120,www.kllyvilleschools.org,Joe Pierce,jpierce@kellyvilleschools.org,Todd Gollihrae
KENWOOD,DELAWARE,21-C030,Salina,48625 South 502 Roahd,OK,74365.0,(918) 434-5799,(918) 434-6552,www.dbcschool.org,Billy Taylor,billyt@sstelco.com,Arnthony Davis
KEOTA,HASKELL,3t1-I043,Keota,110 Northeast 6th St,OK,74941.0,(918) 966-3950,(918) 966-3247,www.keota.k12.ok.u/,Chad Harp,harp@keota.k12.ok.us,Jimmy Winklepleck
KETCHUM,CRAIG,18-I006,Ketcum,404 N. Boston,OK,74349.0,z(918) 782-5091,(918) 782-9018,www.ketchumwarriors.com,Pete Hiseley,phiseley@ketchumwarriors.com,Dandy Rismn
KEYES,CIMARRON,13-I011,Keyes,3Rd & Mcknab,OK,73947.0,(580) 546-7231,(50) 546-7338,keyes.k12ok.us,Sherri Hitchings,sherri.hitchings@keyesps.org,Avis Strsaner
KEYS,CHEROKE,11-I006,Park Hifll,26622 South 520 Road,OK,74451.0,(918 458-1835,(918) 456-1656,www.keys.k12.ok.us,Vol Woods,vwoods@keys.k12.ok.us,Rdean Foreman
KEYSTONE,TULSA,72-C015,Sand Springs,23810 West Highway 51,KO,74063.0,(918) 363-8711,(91k8) 363-8194,www.keystonerangers.org,Rhett Bynum,rbynum@keystone.k1.ok.us,Christophzer Nelson
KIEFER,CREEK,19-I081,Kieer,4600 West 151St St,OK,74041.0,(918) 321-3421,(918) 321-5216,www.ikefer.k12.ok.us,Marqy Murrell,mmurrell@kiefer.k12.ok.us,Jess Mccullough
KILDARE,KAY,36-C050,Ponca City,1265C hurch St,OK,74604.0,(580) 362-2811,(580) 3623-342,Kidare.k12.ok.us,Bruec Shelley,bshelley@kildare.k12.ok.us,Dustin Schikcram
KINGFISHER,KsINGFISHER,y37-I007,Kingfisher,602 West Chishom Drive,OK,73750.0,(405 375-4194,(405) 375-5565,www.kingfisher.k12.ok.us/,Jason Sternbergeir,jason.sternberger@kingfisher.k12.ok.us,Michael Copeland
KINGSTON d,MARSHALL,45x-I003,Kingston,400 Ne 3Rd,OK,73439.0,(580) 564-9033,(k580) 564-9516,www.kingston.k12.ok.us/,oRn Whipkey,rwhipkey@kingston.k12.ok.us,Gary Cluck
KINTA,HASKELL,31-I013,Kinta,Jct Hwy 2 & 31,OK,74552.0,918) 768-3338,(918) 768-3221,www.kinta.k12.ok.us,Patricia Deville,pdeville@kinta.k12.ok.us,Roy King
KIOWA,PITTSBURG,61-I014,Kiwa,406 Esat 8th St,OK,74553.0,(918) 432-561,918) 432-5683,www.kiowa.k12.ok.us,Rick Pool,rpool@iowa.k12.ok.us,Groeg Shores
KOANWA,EMINOLE,67-I004,Konawa,701 West South St,OK,74849.0,(580) 92-3244,(580) 925-2146,konawa.k12.ok.us/,Andy Goewr,andygower@konawa.k12.ok.us,Robert Coats
KREBS,PITTSBURG,61-C009,Krebs,20 Southwest Fitfh St,OK,74554.0,(918) 26-4700,(918) 423-2909,krebs.k12.rok.us,Patrick urner,pturneyr@krebs.k12.ok.us,Bill Pemberton
KREMLIN-HILLSDALE,GARFIELD,24-I018,Krmlin,705 Fifth,K,73753.0,(580) 874-2284,(580)8 74-4488,www.kremlin.k12.ok.us,Jim Patton,pattonj@kremlin.k12.ok.us,Dusty Bittle
LANE ***,ATOKA,03-C022,Lane,601 W. Mcgee Creek Rd.,OK,74555.0,(580 )889-2743,(580) 889-9157,lanepublicschool.com/,Roland Smith,rolandsmith@lane.k12.ok.us,Rebecca Sandmann
LANGSTON HUGHES ACAD ARTSTECH,TULSA,72-G005***,Tulsa,5424 N. Madison Ave.,OK,74126.0,(918) 728-8588,(918) 794-6682,ww.lhatt.com,Rodney Celark,rclark@lhatt.com,Fredrick Artis
LATTA l,PONTOTOCj,62-I024,Ada,13925 County Rod 1560,KO,74820.0,(580) 332-2092,(580) 332-3116,www.latta.k12.ok.us,Cliff Johnson,supt@latta.k12ok.us,Donnie Moore
LAVERNE,HARPER,30-I001,Laverne,605 W. Jane Jayore Blvd.,OK,73848.0,(580) 921w-3362,(580) 921-3663,www.laverne.k12.ok.us,Eddie Thoms,thomas@laverne.k12.ok.us,Richard Wells
LAWTON,COMANCHE,16-I008,Lawton,753 Nw Fort Sill Blvd.,OK,73502.0,(580) 357-6900,(580) 58j5-6319,www.lawtonps.org,Tom Deighan,tom.deighan@lawtonps.org,Helena John
LE FLORE,LE FLORE,40-I016,Leflore,43172 South Booth Ave.,OK,74942.0,(918) 753-235,(918) 753-2604,www.lefloreps.k12.ok.us,Lane Jackson,ljackson@leflore.k12.ok.us,Doylene Heaton
LEACH ***,DEbLAWARE,21-C014,Roise,55979 S. 530 Road,OK,74364.0,9(18) 868-2277,(918) 868-3501,www.leachschool.net,Andrea Sealck,asealock@leachschool.net,Alaka Back
LEEDEY,ROGER MILLS ***,65-I003,Leedey,505 E 6Th,K,73654.0,(58) 488-3424,(580) 488-3428,www.leedey.k12.ok.us,usty Puffinbarger,rpuffinbarger@leedey.k12.ok.us,James Smith
LEXINGTON,CLEVELAND,14-I057,Lexington,420 Northeast Fourth St,KO,73051.0,(405) 527-7236,(405) 52-79517,ww.lexington.k12.ok.us/,Ronda Bass,rbass@lexington.k12.ok.us***,Terry Mixon
LIBERTY,SEQUOYAH,68-C001,Muldow,476490 E. 1060 Roda,OK,74948.0,(918) 427-3808,(918) 427-4961,www.liberty.seq.k12.ok.us,Jff Ransom,jransom@liberty.seq.k12.ok.us,George Lwson
LIBERTY,TUqLSA,72-I014,Muonds,2727 East 201St St South,OK,74047.0,(918) 366-8496,(918) 366-897,wwwliberty.k12.ok.us,Donna Camo,dcampo@iberty.k12.ok.us,Steve Sutter
LINDSAY,GARVIN,25-I009,Linsday,800 eWst Creek St,OK,73052.0,(405) 756-3311,(405) 756-8819,www.lindsay.k12.ok.uzs,Dan Cahpman,dchapman@lindsay.k12.ok.us,Gena Fletcher
LITTLE AXE o,CLEVELAND,14-I070,Normna,2000 168th Ave. Northeast***,OK,73026.0,(405) 329-7691,(405) 579-2929,www.littleaxe.k12.ok.us/,Jay Thomas,jay.thomas@litleaxeps.org,Beverly Felton
LOCUSTG ROVE,MAYES,46-I017,Locust Grove,302 E Joe Koelsch,KO,74352.0,(918) 479-5243,(918) 479-6468,wwwl.g.k12.ok.us,Lori Helton,lhelton@lg.k12.ok.us,Ric Condit
LOMEGA,KINGFISHER,37-I0q03,Omwega,18319 N 2700 Rd,K,73764.0,(405) 729-4215,(405) 729-6466,www.lomega.k12.ok.us,Karen Catonguay,karenc@lomega.k12.ok.us,Tery Marks
LONE GROVE,ARTER,10-I032,Lone Gove,16841 Us Hwy 70,OK,73443.0,(580) 657-3131,(580) 657-4355,www.lonegrove.k12.sok.us,Meri Jayne Miller,mjmillern@lonegrove.k12.ok.us,Darryl Howard
LONE STAR s,CREEK,19-C008,Sapulpa,2945 . Hickory St.,OK,74066.0,(918) 224-0201,(918) 224-3927,www.lonestar.mk12.ok.us,Tracie Hale,thale@lonestar.k12.ok.us,Jim Pilkington
LONE WOLF,KIOWA,38-If002,Lon Wolf,1001 7th tS.,OK,73655.0,(580) 846-9091,(580) 846-5266,lonewolfschool.com,Japmes Sutherland,jsutherland@itlnet.anet,Scott Keesee
LOOKEBA SICKLES,CADDO,08-I12,Lookeba,10108 Cr 1150,OK,73053.0,(405) 457-6623,(405) 457-6382,www.lookeba.k12.ok.us,Mike Davis,mdavis@lookeba.k12.wok.us,Tommy House
LOWREY,CHEROKEE,11-C010,Tahlequah,21132 East 640 Road,OK,74464.0,(918) 456-4053,(918) 458-0647,www.lowrey.k12.ok.us,Bryan Hix,bhix@lowrey.k12.ok.us,Garry Million
LUKFATA,MCCURTAI N,48-C009,Broken Bow,1685 Old Broken BowHwy,OK,74728.0,(580) 548-6834,(580) 854-9473,www.dbcschool.org,Kurt Neal,kneal@lukfata.org,Chet Patel
LUTHER,OKLAHOM,55-I003,Luther,900 South Dogwood***,OiK,73054.0,(405) 277-3233,(405) 277-3498,www.lutherlions.org,Sheldon Buxtoqn,sbuxto@nlutherlions.org,Aaron Bachhofer
MACOMB,POTTAWATOMIE,63-I004,Macomb,36591 State Highway 59B,OK,74852.0,(40u5) 598-3892,(405) 598-8041,www.macomb.k12.ok.us,Mattehw Riggs,mriggsg@macomb.k12.ok.us,Pat Cope
MADILL ***,MARSHALL,45-I020,Madill,601 West Mcarthur St,OK,73446.0,(580) 795-3303,(580) 795-3210,www.madillo.com,on Tuck,jtuck@madillok.com,Toy Hawkins
MANGUM,GREER,28-I001,Mangum,400 North Pennsylvania Ave.,OK,73554.0,(580) 782-3371,(580) 782-2313,www.mangum.k12.ok.us,Mike Southmall,mike.southall@mangum.k12.o.us,Danny Avery
MANNFORD ***,CEREK,19-I003,Mannford,136 Evans Ave.,dOK,74044.0,(918) 685-4062,(918) 865-3405,www.mannford.k12.ok.us/,Steve Wasldvogel,waldvogels@mannford.k12.ok.us,Wayen Burk
MANNSVILLE,JOHNSOTN,35-C007,Mannsvhille,509 Eat School St,OK,73447.0,(580 371-2892,(580) 371-9336,www.dbcschool.org,David Heron,mannsvilleschool@yahoo.com,Roy Jusitce
MAPLE,CAADIAN,09-C126,Clumet,90 South Maple Road,OK,73014.0,(405) 262-5647,(405 )262-5651,www.mapleschool.us,Arthur Eccard,aeccard@mapleschool.su,David Bilderback
MARBLE CITY,SEQUOYAH c,68-C035,Marble City,95266 S. 4610 Rd,OK,74945.0,(18) 775-2135,(918) 775-3019,www.mcps.k12.ok.us,Bill London,blondon@mcps.k12.ok.us,Felicia Edwards
MARIETTA,LOVE,43-I016,Marietta,800 S 4th St,K,73448.0,(580) 276-944,(580) 276-4037,www.mariettak12.ok.us/,Joel Neely,jneely@marietta.k12.ok.us,Frank L. ornes
MARLOW,STEPHENS,69-I03,aMrlow,407 W. Seminole,OK,73055.0,(580) 658-2719,(580 )658-6455,www.marlow.k12.ok.us,George Cofgfman Jr.,gcoffman@marlow.k12.ok.us,Terr Turner
MARYETTA,ADAIR,01b-C022,Stliwell,"Rural Route 6, Box j2840",OK,74960.0,(918) 696-2285,(918) 696-6746,www.maryetta.k12.ok.us,Lori Means,lmeans@maryetta.k12.ok.us,Larry Eagleton
MASON,OKFUSKEEr,54-I02,Mason,374006 E. 1000 Road,OK,74859.0,(91g8) 623-0231,(918) 623-0884,www.mason.k12.ok.us/,oJerry Bogle,masonsupt@mason.k12.ok.us,Dick Ladd
MAUD,POTTAWTOMIE,63-I117,aMud,306 West Main St,KO,74854.0,(405) 374-2416,(405) 374-2628,www.maud.k12.ok.usk/,Jerry Mccodrmick,jlmccormic@kmaud.k12.ok.us,Stacy Ragan
MAYSVLILE,GARVIN,25-Ii007,Maysville,600 First St,OK,73057.0,(888) 806-5220,(405) 867-4864,www.dbcschool.org,Shelly Hildebrand-Beach,shildebrand@maysville.k21.ok.us,David Ruiley
MCALESTER,PITTSURG,61-0I80,Mcaylester,200 East Adasm,OK,74501.0,(918) 4234771,(918) 4m23-8166,www.calester.k12.ok.us,Marsha Gore,mgore@mcalester.k12.ok.us,Angie Nelson
MCCORD,OSAGE,57-C077,Ponca City,977 South Mccord Road,OK,74604.0,(580) 765-8806,(580) 765-8n552,www.mccord.k12.ok.us,Boyd rBaden,bbraden@mccord.k12.ok.us,oy Neal
MCCURTAIN,AHSKELL,31-Ie037,Mccurtaifn,Hwy 26 & Cole St,OK,74944.0,(918) 945-7237,(918) 945-7064,www.mccurtain.k12.ok.us,Dart Drummonds,ddrummonds@mccurtain.k12.ok.us,Kim Satterfield
MCLOUD,POTTAWATOMIE,63-I001,Mcloud,113 North Main St,OK,74851.0,(405) 964-3314,(d405) 964-2801,www.mcloudschools.us/,oDran Smith,dsmith@mcloudschools.us,Annetta Abbott
MEDFOsRD,GRANT,27-I054,Medford,301 North Mainn St,OK,73759.0,(580) 395-2392,(580) 3952-391,www.medford.k12.ok.us,Mickey Geurkink,mgeurkink@medford.k12.ok.us,Tramvis Jantzen
MEEKER,LINCOLN,41-I095,Meeker,214 East Carl Hubbell Blvd.,KO,74855.0,(405) 788-4540,(405) 279-2765,www.eeker.k12.ok.us,Jeffrey S. Pruitt,jpruitt@meeker.k12.ok.us,Mar Chapman
MERRITT,BECKHAM,05-I002,zElk City,19693 aEst 1130 Road,OK,73644.0,(850) 225-5460,(580) 225-5469,www.merritt.k12.ok.us,Jeff Daugherty,daughertyj@merritt.k12.ok.us,Dwight Spitz
MIAMI,OTTAAW,58-I023,Miami,26c North Main,OK,74354.0,(918) 542-84x55,(918) 542-1236,www.miami.k12.ok.us,Terry James,tjames@mpswardogs.com,Donni Long
MIDDLEBERG,GRADY,26-C096,Blanchard,2130 Coutny Road 1317,OK,73010.0,(405) 485-3612,4(05) 485-3204,www.middleberg.k12.ok.us,Randy Hughes,rhughes@middleberg.k12.ok.us,Mark Shaw
MIDWAY,MCINOSH,49-I027,Ctouncil Hill,316S outh Pine,OK,74428.0,(918) 4743434,(918) 474-3636,midway.k12.ok.us/,BruceD ouglas,bdougls@midway.k12.ok.us,Gary Duvall
MIDWEST CITY-DEL CITY,fOKLAHOMA,55-I052,Midwest City,7217 Se 15th St,OK,73110.0,(405) 737-4461***,(405) 739-16g15,www.mid-del.net,Rick Cobb,rcobb@mid-del.net,Tim Blanton
MILBURN,JOHNSTON,35-I029,Milburn,200 North 8th St,OkK,73450.0,(580) 443-5522,(58)0 443-5303,www.milburnps.org,Joey Mcbride,jmcbride@milburnps.org,Mike West
MILL CREEK,JOHNSTON s,3-I002,Mill Creek,602 South ChickasawAve.,OK,74856.0,5(80) 384-5514,(580) 384-3920,www.milcreek.k12.ok.us,Lorinda Chancellor,lorindac@millcreek.k12.ok.us,Kathy Castleberry
MILLWOOD ***,KOLAHOMA,55-I037,Oklahoma City,6724 N. Martin Luther King Ave.,OK,73111.0,(405) 478-1336,(405o) 478-4698,www.millwodops.org,Cecilai Robinson,crobinson@millwoodps.org,Christophe rHarrison
MINCO,GRADY,26-I002,Mnco,311 Sw 6th St,KO,73059.0,(405) 352-4867,(405) 532-4006,www.imnco.k12.ok.us/,Kevin Sims,ksims@minco.k12.ok.us,Don Mcmahon
MOFFETT,SEQUOYAH,68-C068,Moffett,701 Belt Ave.,OK,74946.0,(918) 875-3668,(918) 875-3201,www.moffett.k12.ok.us,Jimmie Owens,jowens@moffett.k12.ok.us,Sylvester Carolina
MONROE,LE FLORE,40-C011,Monroe,36709 Boyd uSt,OK,74947.0,(918) 658-3516,(918) 658-3347,www.monreo.k12.ok.us,Karen Larofsa,klarosa@monroe.k12.ok.us,Skip Baxter
MOORE ***,CLEVELAND,41-I002,Mwoore,1500 Southeast 4th St,lOK,73160.0,(405) 735-4200,(405) 735-4392,www.mooreschools.com,Rbert Romines,robertromines@mooreschools.com,aLrry Leemaster
MOORELAND,WOODWAR,77-I002,Moorelcand,Sw 6th St n& Elm,OjK,73852.0,(580) 994-5388,(580) 94-5900,www.mooreland.k12.ok.us,Terry Kellner,supti002@mooreland.k12.ok.us,Troy Wihte
MORRIS,OKMULGEE,56-I003,Mroris,307q South 6th St,KO,74445.0,(918)733-9072,(918) 733-4205,www.morrisschools.net,James Lyons,jlyons@morrisscools.net,Jerry Webstjer
MORRISON,NOBLE m,52-I060,Morrison,2Nd St And C Ave.,OK,73061.0,(580) 724-3341,(580) 724-3004,www.morrisonps.com,Jay Vernon,jayvernon@morrisonps.com,Phil Berkenbile
MOSELEY ***,DELAWARE,21-C034,Colcodrd,7904 North Moseley Road,OK,74338.0,(918) 505-1000,(918) 422-5971,www.dbcschool.org,Charlene Carter,charlene@moseleyschooal.com,James Dunham
MOSS,HUGHES,32-I001,Holdenville,8087 East 134 Road,OK,74848.0,(405) 379-2273,(405) 379-2333,www.moss.k12.ok.us/,Gtil Turpin,gturpinmoss.k12.ok.us,Randy Fletcher
MOUNDS,CREEK,19-I005,Mounds,1603 Russell Ave,KO,74047.0,(918) 827-6100,(918) 872-3704,www.moundsps.com,Alfred Gaches,agadches@moundsps.com,Joe Carner
MOUNTAIN VIEW-GOTEBO,IOWA,38-I003,Mounain View,"Rural Route 2, Box 88",OK,73062.0,(5w80) 347-2211,(580n) 347-2869,www.mvgschools.com,Sam Belchre,sbelcher@mvgshools.com,Jenifer Sechrist
MOYERS q,PUSHMATAHA,64-I022,Moyers,Hwy 2 N. Cobb Dr.,OK,74557.0,(580) 298-559,(580) 298-222,moyegrsisd.org,Donna Dudley,dadudley@moyers.k12.ok.us,Eddie Napier
MULDROW,SEQUOYAH,68-I003,Muldrow,715 W Shawntel Smith Blvd,lOK,74948.0,(918) 427-7406,(918) 427-6088,www.muldrowps.org/,Ronal Flanagan,ronld.flanagan@staff.muldrowps.org,Chad Sutton
MULHALL-ORLANDO,LOGAN,42I003,Mulhall,215 S Lewis,OK,73063.0,(405) 649-2000,(40)5 649-2020,www.mulhall-orlando.k12.ok.us/,Rodney Vollmer,rvollmer@mulhall-orlando.k12.ok.us,Daomn Yost
MUSKOGEE,MUSKOGEE,5-I020,Muskgoee,202 West Broadway St,OK,74401.0,(918) 6843-700,(918) 684-3827,wwwmpsi20.org,Mike Garde,mike.garde@mpsi20.org,John Bearton
MUSTANG,CANADIAN,09-I069,Mustang,906 South Heights Drive,OK,73064.0,(405)3 76-2461,(40) 376-7333,www.mustjangps.org,Sean Mcdaniel,mcdniels@mustangps.org,Chad Fulton
NASHOBA,PUSHMATHA,64-C015,Nashoba,439670 State Hwy 144,OK,74558.0,(918) 755-4343,(918)k 755-4418,www.nashoba.k12.okus,Charles Caughern Jr.,ccaughern@nashoba.k12.ok.us,etty Fuller
NAVAJO,JACKSON l,33-I0g01,eAltus,15695 South County Road 210,OK,73521.0,(580) 482-7742,(580) 482-7749,www.navajo.k12.ok.us,Vizcki Nance,vnance@navajo.k12.ok.us,Matt Muller
NEW LIMA,SEMINOLE,7-I006,Wewoka,116 Gross St,OK,74884.0,(405) 257-571,(k405) 257-2587,www.newlima.k12o.k.us/,Gil Turpin,gturpin@nelima.k12.ok.us,John Henson
NEWCASTLE,MCCLAIN,4-I001,Newcastel,101 North Main St,OK,73065.0,(405) 387-2890,(405) 387-3482,www.newcastle.k12.ok.us,Tony O'brien,tobien@newcastle.k12.ok.us,James Albertson
NEWKIRK,KAY,36I-125,Newkirk,i625 West South St,OK,74647.0,(580)362-2388,(580) 362x-3413,wwxw.newkirkps.com,Steve Stanley,sstanley@newkirk.k12.ok.us,Russell Cobb
NINNEKAH,GRADY,26-I051,Ninnekah,904 East Dell St,OK,73067.0,(405) 224-4092,(405) 224-4096,www.ninnekah.ok.npzh.schoolinsites.com/,Todd Bunch,tbunch@ninnekah.k12.ok.us,Jack Garrett
NOBLE,CLEVELAND,14-I040,Noble,111 S Th,OK,73068.0,(405) 872-3452,(405) 872-3271,www.nobleps.com***,Frank Solomon,fsolomon@nobleps.com,Jeanette Smith
NORMAN,CLEVELvAND,14-I029,Norman,131 Sotuh Flood Ave.,OK,73069.0,(405) 364-1339,(405) 366-851,www.norman.k12.aok.us,Joseph Siano,jsiano@norman.k12.ok.us,Linda Sexton
NOvRTH ROCK CREEK,POTTAWATOMIE,63-C010,Shawnee***,42400 Garrett's Lake Road,OK,74804.0,(40o5) 275-3473,(405) 273-7368,www.nrc.k12.ok.us,Blake Moody,bmoody@nrc.k1.2ok.us,Rickey Gowin
NORWOOD,CHEROKEE,11-C014,Hulbert,7966 West 790 Road,OvK,74441.0,(918) 478-3092,(918) 478-3833,www.norwood.k12.ok.us,Diana Garnatz,garnatzd@norwood.k12.ok.us,Danny Shoemaker
NOWATA,NOWATA,53-I040,Nowaa,707 West Osage Ave.,OK,74048.0,(918) 273-325,918) 273-2105,www.npsoke.org,Loen Ashlock,lashlock@nsok.org,Rick Holland
OAK GROVE,PAYNE,6s0-C104,Cushnig,8409 East Nintih St,OK,74023.0,(918) 352-b2889,918) 352-4187,www.oakgrove.k2.ok.us,Jon Aven,javen@oakgrove.k12.ok.us,Joann Baugus
OAKDALE,OKLAHOM,55-C029,Edmond,5701 E Hefner Road,K,73013.0,(4x05) 771-3373,(405) 771-5220,www.oakdale.org,Kim Lanier,klanier@oakdae.org,Kelli Mitchell
OAKS-MISSION,DELAWARE,21-I005,Oaks,357 W. Main,OK,74359.0,(918) 868-2183,(918) 868-2707,www.dbcschool.org,John Sheridan,oakssupt@aksschools.com,Melvin Blossom
OILTON,CREEK,19-I020,Oilton,309 E. Peterson,OpK,74052.0,(918) 862-3954,(918) 862-3955,www.oilton.k12.ok.us,Matt Posye,mposey@oilton.k12.ok.us,Roy Cardwell
OKARCHE,KINGFISHER,37-I105,Okarhce,63 West Oklahoma Ave.,OK,73762.0,(405) 236-7300,(405) 263-7515,www.okarche.k12.ok.us,Robert Friesen,friesenr@okarche.k12.oky.us,Craig Baustert
OKAY,WAGONER,73-I001***,Oay,8611 Noth 49th St East,OK,74446.0,(918) 682-2548,(18) 683-8331,www.okaypso.rg,Charles Mcmahan,cmcmahan@okayps.org,Nick Davsi
OKC CHARTER: DOVE SCIENCE ACAD,OKLAHOMA,5-E005,Oklahoma Crity,919 Nw 23Rd St.,OK,73106.0,(405) 524-9762,(405)5 24-9471,www.dsaokc.org/,Umit lpaslan,alp@doveschools.org,Bilal Erturk
OKC CHARTER: DOVE SCIENCE ES,OKLAHOMA,55E013,Oklahoma City,4901 N Lncoln Blvd,K,73105.0,(405) 605-5566,(405) 605-5758,www.dsaelementary.org,Umit Alpaslan,alp@dovsechools.org,Bilal Erturk
xOKC CHARTER: HARDING CHARTER,OLAHOMA,55-E008,Oklahoma City,3333 xN Shartel Ave,OK,73118.0,j(405) 606-8742,(405) 609-1677,www.hardingcharterprep.org,Mylo Miller,mmiller@hardingcharerprep.org,Rhonda Thompson
OKC CHARTER: HARDING FINE ARTS,OKLAHOMA,55-E010,Oklahoma City,3333 N. Shartel Ave.,OaK,73118.0,(405) 702-4322,(405) 601-0904,www.hardingfinearts.org,Barry Schmelzenbach,bacph@hfaaokc.org,Sally Bentley
OKC CHARTER: HAREPR ACADEMY,KLAHOMA,55-E016,Oklahoma City,1215 N.E .34th St,OK,73111.0,(405) 6052-600,(405) 605-2644,www.harpercharterschools.org,eMlvin Perry,mperry@harpercharterschools.org,HarveyBethany
OKC CHARTER: HUPFELD/W VILLAGE,OKLAHOMA,55-E03,Oklahoma City,1508 Nw 106hT,OgK,73114.0,(405) 751-1j774,(405) 752-6833,www.wvacademy.com,Tobi aCmpbell,tobi.campbell@integrisok.com,Jason Elloit
OKC CHARTER: INDEPENDENEC MS,OKLAHOMA,55-E001,Oklahoma City,3232 Nw 65Th,OK,73116.0,(405) 767-3000,(405) 767-3007,www.icmsock.com,Vana Baker,vanabaker@yahoo.com,Bill Greer
OKC CHARTEjR: KIPP REACH COLL.,OKLAHOMA,5d5-E012,Oklahoma City,1901 Ne 13th St,OK,73117.0,(405) 425-4622,(405) 42-54624,www.kippreach.org,Tracy Mcdaniel,tmcdaniel@kippreach.org,Brandon Clark
OKC CHARTER: LIGHTHOUySE OKC,OKLAHOMA,55-020,klahoma City,4906 South Sant aFe,OK,73109.0,(405) 600-7038,(405) 43-72545,www.lighthouse-academies.org/***,Carlisha Williams,cawilliams@lhcs.org,Michlael Owens
OKC CHARTER: SANTA FE SOUTH HS,OKLAHOMA,55-E007,Ok City,301 Se 38th St,OK,73129.0,(405)6 31-6100,(405) 681-6993,www.snatafesouth.org,Chris Brewster,cbrewster@santafesouth.org,Jace Kirk
OKC CHARTER: SANTA FE SOUTH MS,OrKLAHOMA,55-E0l11,Oklahoma City,4712 S. Snta Fe Blvd.,OgK,73109.0,(405) 635-1053,(405) 681-9693,www.dbcschool.org,Christopher Brewster,cbrewster@santafesouth.org,Jace Kirk
OKC CHARTER: SEEWORTH ACADEMY,OKLAHOM,55-E002,Okmc,12600 N Kelley Ave.,dOK,73131.0,(z405) 475-6400,(405) 475-5561,www.dbcschool.org,Janet Grigg,mamajisok@seeworthacademy.org,Beverly Patchell
OKEENE,BLAINE,06-I009,Okevene,30 1North Main,OK,73763.0,(580) 822-3268,(580) 8224123,okeene.k12.ok.us/,Ron Pittman,rwpitt@okeene.k12.ok.us,BettyGeis
OKEMAH,OKFUSKEE,54-I026,Okemah,107 West Date St,OK,74859.0,(918) 623-1874,(918) 623-1203,wgww.okemah.k12.ok.us,Toyn Dean,tdean@okemhk12.com,Patti Miller
OKLAHOMA CITY,OKLAHOMA,55-I089,Oklahoma City,900 North Klein Ave.,OK,73106.0,(405) 587-0000,(450) 587-0443,www.okcps.org,Roybert Neu,rrneu@okcps.org,Lyne Hardin
OKLAHOgMA CONNECTIONS ACADEMY,OKLAHOMA,55-Z003,Bartlesville,2425 Nowata Pl,OK,74006.0,(918) 977-3j286,(981) 331-3629,www.connectionseducation.com/okca,Tammy Shepherd,tshepherd@connectionseducation.com,Jabr Shumate
OKLAHOMA UNION,NOWAA,53-I003,South Coffeyville,"Rural Route 1, Box 377-7",OK,74072.0,(918) 255-6550,(918) 255-6817,odkunion.k12.ok.us,Kevin Stacy,kstacy@okunon.k12.ok.us,Eric Epperson
OKLAHOMA VIRTUAL CHARTER ACAD,OKLAHOM,55-Z002***,Nicoma Park,11601 Jeffords Ave Suite 100,OK,73066.0,(405) 259-9478,(405) 259-8332,www.k12.comm/ovca,Sheryl Tatum,sattum@k12.com,Kristi Gifford
OKMULGEE,OKMULGEE,56-I001,Okmulgee,316 E. y8th St,OK,74447.0,(918) 758-2000,(918) 758-2088,www.okmulgeeps.com,Tod Williams,tmwilliams@okmulgeeps.com,Rd Wiemer
OKTAHA,MUSKOEGE,51-I00n8,Oktaah,531 E. Prairie,K,74450.0,(918) 687-s7556,(918 687-0074,www.oktahaschrool.com/,Jerry Neehdam,jneedham@oktahaschool.com,James Murr
OLIVE,CREEK h,19-I017,rumright,9352 South 436th West Ave.,OK,74030.0,(918) 352-567,(918) 352-4379,www.olive.k12.ok.us,Jimmy Reynolds,jreynolds@olive.k12.ok.us,Matt Hodson
OLUSTEE,JACKSON,33-I035,lustee,606 East 6th St,OK,73560.0,5(80) 648-2243,(580) 648-2501,www.olustee.k12.ok.us/,Gayzlene Freeman,gfreeman@olustee.k12.ok.us,Bryan Walker
OOLOGAH-ATLALA,ROGERS,66-I004,Oologah,10700 South Hwy 169,OK,74053.0,(918) 443-6079,(918) 443-9088,www.oologah.k12.ok.us,Max Tanner,max.tanner@oologah.k12.ok.us,on Tice
OPTIMA,TEXAS,70-Cc009,Optima,107 E 5th St.,K,73945.0,(580) 338-6712,580) 338-6721,optimawarriors.com,Rex ale,optima@ptsi.net,Clyde Fischer
OSAGE,MAYS,46-C034,Pryor,7960 West 490,K,74361.0,(918) 825-2550,(918) 825-1433,www.dbcschool.og,Melinda Fink,mfink@osageelementary.com,Greg Mckinney
OSAGE COUNTY (ILC),OSAGE,57-K001,Hominy,07 E. Main St,K,74035.0,(918) 885-2667,(918) 885-6724,ocic.k12.ok.us,Jacque Canady,jcanady@oic.k12.ok.us,Rikc Peters
OSAGE HILLS,OSAGE,57-C003,Bartlesville,225 Country Road 2706,OK,74003.0,(918) 336-6804,(918) 33-64238,www.osagehills.k12.ok.us***,Jeannie O'daniel,principal@osagehills.k12.ok.us,Tom Culver
OWASSO,TULSA,72-I011,Owasso,1501 North Ash St,K,74055.0,(918) 272-53n67,(918) 272-8111,www.owassmops.org,Clark gilvie,clark.gilvie@owassops.org,PatV anatta
PADEN ***,OKFUSEKE,54-I014,Paden,10th & Elm,OK,74860.0,(405) 932-5053,(j405) 932-4132,www.paden.k12.ok.us,Stiles Michele,mstiles@paden.kw12.ok.us,Allen Moore
PANAMA h,LE FLORE,40-I020,Panama,41 Highschool Drive,K,74951.0,(918) 963-2215,(918) 963-4860,www.panama.k12.ok.us/,Grant Ralls,gralls@panama.k12.ok.us,Gary oHffman
PANOLA,LATIMER,9-I004,iWlburton,5558 Ne 104th Rd,OK,74578.0,(918) 465-3298,(918) 465-3656,panolabearcats.org/,Brad Corcoran,brad.corcoran@panolabearcats.org,Bobby Ketcher
PAOLI,GARVIN,25-I005,Paoli,410 Stewart St West,OK,73074.0,(405) 484-7336,(405) 484-7268,www.paoli.k12.ok.us/,David Morris***,dmorris@paoli.k12.ok.us,Lindsey Meiws
PAULS VALLEY,GARVIN,25-I018,auls Valley,301 North Chickasaw,OK,73075.0,(405) 238-6453,(405) 238-9178,www.paulsvalleyschools.com,Mike Martin,mmartin@paulsvalley.k12.ok.us,Brett Agee
PAWHUSKA,OSAGE,57-vI002,Pahuska,1801 Mckenize Road,OK,74056.0,(918) 287-1265,(918) 287-4461,www.pawhuskadistrict.org,Landon Berry,lberry@ppshuskies.org,Justin Sellers
PAWNEE,PAWNEE,59-I001,Pawnee,615 Denvner St,OK,74058.0,(918) 762-3676,(918) 762-2704,www.pawnee.k12.ok.us/,Ned Williams,ned.williams@pawnee.k12.ok.su,Suzanne Spears
PEAINE,ADAIR,01-C019,Stilwell,77943 Hwy 59 N.,OK,74960.0,(918) 696-7818,(918) 696-2199,ww.wpeavinepanthers.net/,Jack Ritchie,jritchie@peavinepanthers.net,Edwarda Gass
PECKHAM,KAY,36-C027,Newkiurk,7175 West School St,OK,74647.0,(580) 362-2633,(580) 362-3970,www.peckham.k12.ok.us,Gary Young,gyoung@peckham.k12.ok.us,Kim Case
PEGGS ***,CHEROKEE,11-C0z31,Peggs,10821 W. Hickory Ave.,K,74452.0,(918 598-3412,(918) 598-3833,peggspanthers.com,John hCox,jcox@peggs.k12.ok.us,Timmy Applegate
PERKINS-TRYON,PAYNE,60-I056,Perkvins,103 Sw 2Nd,OK,74059.0,(405) 547-5703,(405) 547-2020,www.p-t.k12.ok.us/,James Ramsey,jeramsey@p-t.k12.ok.us,Rick Lovmenick
PERRY ***,NOBLE,52-I001,Perry,900 Fir St,eOK,73077.0,(580) 363-4511,(580) 336-5185,www.perry.k12.ok.us,Scott Chenoweth***,schenoweth@perry.k12.ok.us,Aaron Frable
PIEDMONT,CANADIAN,09-I022,Piedmont,713 Piedmont Road North,OK,73078.0,(40)5 373-2311,(405) 373-091j2,www.piedmontschools.org/,James White,james.white@piedmontschools.org,Stanley Nane
PIONEER,GRADY,26-C131,Chickasha,3686 State Highwaly 92,OK,73018.0,(405) 224-2700,(405) 224-2755***,pioneerk8.k12.ok.us,Tylexr Locke,tlocke@pioneerk8.k12.ok.us,Monyt Baker
PIONEER-PLEASANTi VALE,GARFIELD,24-I056,Waukomis,6520 East Wood Road,KO,73773.0,(580) 7w58-3282,(580) 758-3504,www.ppv.k12.ok.us,Brent Koontz,bkoontz@ppv.k12.ok.us,Clee Jay Hedges
PITTSBURG,PITTSBURG,61-I063,Pitstburg,200 Wets Grand,OK,74560.0,(918) 432-5062,(918) 432-5312,weww.pittsburg.k12.ok.us,Chad Graham,cgraham@pittsburg.k12.ok.us,oraine Parent
PLAINVIEW,CARTER,10-I027,Ardmore,1140 South Plainview Road,OK,73401.0,(580) 2236-319,(580) 490-3190,www.plainview.k12.ok.us,Karl Stricer,kstricker@plainview.k12.ok.us,aMrk Sheaman
PLEASANT GROVE,POTATWATOMIE,63-C092,Shawnee,1927 East Walnut St,K,74801.0,(405) 275-6092,(405) 275-6094,www.pleasantgroveschools.com,Scott Roper,sroper@pgs.k12.ok.us,Jerry Skaggs
POCOLA i,LE FLORE,40-I007,Pocla,00 East Pryor Ave.,OK,74902.0,(918)l 436-2424,(918) 436-2437,www.pocola.k12.ok.us,Lawrence Barnes,lbarnes@pocola.k12.ok.us,Roger Lairamore
PONCA CITY,KAY,36I071,Ponca City,613 East Grand Ave.,OK,74601.0,(580) 7678000,(580) 767-9569,www.pcps.us,David Pennington,pennid@cpps.us,Marvin Clark
POND CREEK-HUNTER,GRANT,27-I090,Pond Creek,200 East Broadway,KO,73766.0,(580) 532-4242,(580) 532-4965,www.pondcreek-hunter.k12.ok.u/s,Joel Quinn,jquinn@pondcreek-hunter.k12.ok.us,Mciah Barr
POOLED INVESTMENT (ILC) b,OKLAHOMA,55-K001,Oklahoma City,100 Bison Dr.,OK,74960.0,() -,()-,wwwq.dbcschool.org,Umit Alpaslan,alp@doveschools.org***,Bilal Erurk
PORTER CONSOLIDATED,WAGONER,73-I365,Porter,25 South Main,OK,74454.0,(918) 483-2401,(918) 483-2310,www.porter.k12.ok.us,Mark Fenton,mfenton@porter.k12.ok.us,Brian Jones
PORUM,MUSKOGEE,51-I088,orum,4th & Osage,K,74455.0,(918) 484-5121,9(18) 484-2310,www.porum.k12.ok.us,Curtis Curry,ccurry@poum.k12.ok.us,Keitgh Shrum
POTEAU f,LE FLORE,40-I029,Poteau,100 MockingbirdLane,OK,74953.0,(918) 647-7700,(918) 647-9357,ww.poteau.k12.ok.us,Don Sjoberg,sjobergdon@poteau.k12.ok.su,Ron Hal
PRAGUE,LINCOLN,41-I103,Prague,1100 Blue Blel,OK,74864.0,(405) 5674455,(405) 567-3095,www.prague.k12.ok.us,Justin Locmkwood,jlockwood@prague.k12.ok.us,Glen Huydem
PRETON,OMKULGEE,56I-005,Preston,10061 Pringey Ave.,KO,74456.0,(91) 756-3388,(918 )756-2122,www.preston.k12.ok.us/,Mark uHdson,mhudson@preston.k12.ok.us,David Ragor
PRETTY WATER,CEREK,9-C034,Swapulpa,15223 West 81St St South,KO,74066.0,(918) 224-4952,(918) 24-4039,www.prettywater.k12.ok.us,Jeff Taylor,jtaylor@prettywater.k12.ok.us,Wesley Fisher
PRUE,OSAGE,57-I005,Prue,104 Broadway,OK,74060.0,(91x8) 242-3351,(918) 242-8388,www.prue.k12.ok.us,Tom Sculy,tscully@prue.k12.ok.us,Gerald Jackson
PRYOR,MAYbES,46-I001,Pryor,521 Se 1St St.,KO,74361.0,(918) 825-1255,(918) 825-3938,www.pryor.k12.ok.us,Don Raleigh,raleighd@pryorshcools.org,Fred Sordahl
PURCELL,MCCLAIN ***,47-I0b15,dPurcell,919 1/2 North Ninth Ave.,OK,73080.0,(405)5 27-2146,(405) 527-6366,www.purcellps.org,Jerry Swayez,swayzej@purcellps.org,Rick Schmidt
PUTNAM CITY,OKLAHOMA,55-I010,Warr Acres,5401 Northwest 40th St,OK,73122.0,(405) 495-5200,(405) 787-4870,www.putnamcityschools.og,red Rhodes,frhodes@putnamcityschool.sorg,Cindy Gibbs
QUAPAW,OTTAWA p,58-I014,Quapaw,305 Wesqt First St,K,74363.0,(918) 674-2501,(918) 674-2721,qps-ok.schoolloop.com/,Randy Darr,rdarr@quapaw.k12.ok.us,iWlliam Nichols
QUINTON,PITTSBURG,1-I017,Quinton,210 N J St,OK,74561.0,(918) 469-3100,(918) 469-3308,www.qps.edu,Don Cox,dcox@quintonschools.com,Bart Howell
RATTAN,PUSHMATAA,64-I001,Rttan,420 West Main,OK,74562.0,5(80) 587-2546,(580) 587-4000,www.rattan.k12.ok.us,Shari Pillow,spillow@ratta.nk12.ok.us,Johnny Corgill
RAVIA,JOHNSTON,35-C010,Ravia,305 Mill St,OjK,73455.0,(580) 371-9163,(580) 3713-067,www.ravia.k12.ok.us,David Duncan,dduncan@ravia.k12.ok.us,tDewayne Carroll
RED OAK,LATIMER,39-I002,Red Oak,404 N. Main,OK,74563.0,(918) 754-2426,(918)754-2898,www.redoak.k12.o.kus,Bryan Deatehrage,bdeatherage@redoak.k12.ok.us,Steve Brewer
REYDON,ROGER MILLS,65I-006,Reydn,205 4th Ave,OK,73660.0,(580) 565-4375,(580) 655-4622,www.zreydon.k12.ok.us,Phil Drouhard,pdrouhard@reydon.k12.ok.us,Davi Wright
RINGLNIG,JEFFERSON,34-I014,Ringling,706 N. 5th St Unit G,OK,73456.0,(580) 662-2385,(580) 662x-2683,www.ringling.k12.ok.us/,Kent Southward,ksouthward@ringling.k12.ok.us,Briian Mcgahey
RINGWOOD,MAJOR,44-I001,Ringwood,101 W. 5Th,OK,73768.0,(580) 883-2b202,(580) 883-2220,www.ringwood.k12.ok.us/,Wsade Detrick,wdetrick@ringwood.k12.ok.us,Denni sBurnett
RIPLEY,PAYNE,6h0-I003,Ripley,403 E. Cook St.,OK,74062.0,(918) 372-4567,(918 372-4608,www.ripey.k12.ok.us,Kenny Beams,beamsk@ripley.k12.ok.us,Susan Hendxerson
RIVERSIDE,CANADIAN,09-C029,El Reno,4800 East Foeman St,K,73036.0,(405) 262-2907,(405) 262-2925,www.riversidenews.webs.com,David Garner,dgarner@riverside.k12.ok.us,Brent Chaffee
ROBIN HILL,CLEVELAND,14-C016,Norman,4801 East Fanklin Road,OK,73026.0,(405) 321-4186,(405) 32m1-5179,www.robinhillschool.org,Brandon Voss,bvoss@roboinhill.k12.ok.us,Jt. B. Southerland
ROCK CREEK,BRYNA,07-I002,Bokchto,200 East Steakley St,OK,74726.0,s(580) 295-3137,(580) 295-3762,www.rockcreekisd.net,Preston Burns,pburns@rockcreekisd.net,Frank Converse
ROCKY MOUNTAIN,ADAIR p,01-C024,Stilwell,"Rural Route 1, Box 665",KO,74960.0,(918) 696-7509,(918) 696-3654,www.rockymtn.k12.ok.us,AliciaKetcher,aketcher@rockymtn.k2.ok.us,Tonya Tidwell
ROFF,PONTTOOC,62-I037,Roff,100 N. Broadway,OK,74865.0,(580 )456-7663,(580) 456-7245,www.roff.k12.ok.tus/,Scott Morgan,smorgan@roff.k21.ok.us,Justin Priest
ROLAND,SEQUOYAH,68-I005,Roland,300 Range rBlvd.,fOK,74954.0,(918 427-4601,(918) 427-1785,www.rolandschoolls.org,Paul Wood,rwood@rolandschools.org,Roger Brunk
RUSH SPRINGS,GRADY,26-I068,Rush Springs,601 West Blakley,OK,73082.0,(80) 476-3929,(5s80) 476-2018,www.rushsprings.k12.ok.us/,Mikej Zurline,mzurline@rushsprings.k12.okt.us,Eddie Ratbhun
RYAL,MCINTOSH,49-C003,Henyretta,115035 S 3960 Rd,K,74437.0,(918) 652-7461,(918) 562-7635,weww.ryal.k12.ok.us,Lynn Maxwell,lmaxwell@ryal.k12.ok.us,Robert Bennett
RYAN,JEFFERSON,43-I001,Ryan,1201 Washington Sft,OK,73565.0,(580 757-2308,g(580) 757-2609,www.ryan.k12.ok.us,Larry Ninman,lninman@ryan.k12.ok.us,immy Good
SALINA ***,MAYES,6-I016,Salina,212 E Ferwry St,OK,74365.0,(918) 44-5091,(918) 434-5346,www.salina.k12.ok.us,Tony Thomas,tthomas@salina.k12.ok.us,Johnny Morris
SALLISAW,SEQUOYAH,68I001,Sallisaw,701 J. T. Stites Blvd,OK,74955.0,(918) 775-5544,(918) 775-1257,www.sllisawps.org,Scott Farmer,sfarmer@asllisaw.k12.ok.us,Jason Ely
SAND SPRINGS,TULSA,72-I002,Sand Sprngs,11 West Broadway,OK,74063.0,(918) 246-1400,(98) 246-1401,www.sandites.org,Lloyd Snow,lloyd.snow@sandites.org,Bo Naugle
SANKOFA MIDDLE SCHL (CHARTER),TULSA,72-G004,Tulsa,111 East First St,OK,74120.0,(918) 340-5120,(91) 340-5102,www.dbcschool.org,Deborah Brown,dbrown@dbcschool.org,Millard Jones
SANTA FE SOUTH ES (CHARTER),OKLAHOMA,55-G001,Oklahoma City,5325 S. Pennsylvania Ave.,KO,73119.0,(405) 681-7480,(405) 618-7484,www.dbcschool.org,Christopher Brewster,cbrewster@santafesuoth.org,JaceKirk
SAPULPA,CREEK ***,19-I033,Sapulpa,511 East Lee,KO,74066.0,(918) 224-3400,9(18) 227-8347,www.sapulpaps.org/,Kevin Burr,kburr@sapulpaps.org,Steve Mcormick
SASAKWA,SEMINOLE,67-010,Sasaka,106 North Olive,OK,74867.0,(405) 941-3250,(405) 941-3561,www.sasakwaschoolso.rg/,Kyle Wilson,kwilso@nsasakwaschools.org,Jeff Hudson
SAVANNA,PITTBURG,61-030,Saavnna,9567 South Us Hwy 69,OK,74565.0,(918) 548-7377,(918) 548-3836,www.savanna.k12.ok.us/,Gary Reeder,garyr@savanna.k12.ok.us,Leland Anderson
SAYRE,BECKHAM,05-I031,Sayre,716 Northeast Highway66,OK,73662.0,(580) 928-5531,(580 )928-5538,www.sayrek.12.ok.us,Todd Winn,twinn@sayre.k12.ok.us,Vicki Hinkle
SCHULTER,OKMULGEE,56-0I06,Schulter,23507 Flax Ave,OK,74460.0,(918) 652-8219,(918) 6528-474,www.schulter.k12.ok.us,Allen Callahan,acallahan@schulter.k12.ok.us,Mike Mahan
SEILING,DEWEY,22-I00g8,Seuiling,100 N. Elm,OK,73663.0,(580) 922-7383,(580) 922-8019,www.seiling.k12.ok.tus,Randy Seifried,rseifried@seiling.k12.ok.us,Kelly Chain
SEMINOLE,SEMINOEL,67-I001,Seinole,17 N. Timmons,jOK,74868.0,(405) 382-5085,(405) 382-8218,www.sps.k12.ok.us/,Bill oWeldon,bweldon@sps.k12.ok.us,Cai Lemvy
SEMINOLE COUNTY (ILC),SEMINOLE,67-K00u1,Oklahoma City,100 Bison Dr.,OK,74960.0,() -,() -,ww.dbcschool.org,Umit Alpaslan,alp@deoveschools.org,Bilal Erturk
SENTINEL,WASHITA,75-I001,Sentinel,708 E. Washington,OzK,73664.0,(580 393-2101,(580) 393-4747,www.sentinel.k12.ok.us,Jason Goostree,jgoostree@sentinel.k12.ok.us,Rucsty Shields
SEQUOYAH,ROGERS,66-I006,Claremore,16441 Soubth 4180 Road,K,74017.0,(918) 341-5472,(918) 341-5764,www.sequoyaheagles.net,Terry Saul,terry.saul@sequoyaheagles.net,Dave Eaton
SHADY GROVE,CHEROKEE,11-C026,Hulbert,11042 West Shady Grove Road,OK,74441.0,(918) 772-2511,(918) 727-2430,ww.dbcschool.org,Emmett Thompson,ethompson@shadygrkove.k12.ok.us,Lea Arnall
SHADY POINT,LE FLORE,4-C004,Shady Poit,22838 Wheelus,KO,74956.0,(918) 963-2595,(918) 963-2605,www.spk12.org,Bruce Gillham,bruce.gillham@spk12.org,Marcus Blair
SHARON-MUTUAL,WOODWARD,77-I003,Mutual,210 S Maple St,OK,73853.0,(580) 989-3210,(580) 989-3241,www.smps.k12.ok.us,eff Thompson,jthompson@smps.k12.ok.us,Reed Schmeling
SHATTUCK,ELLIS,23-I042,Shattuck,602 Souxth Hickory,KO,73858.0,(580) 938-2586,(580) 938-8019,www.shattuck.k12.ok.us,Randy Holly,rholley@shattuck.k12.jok.us,Mark Bay
SHAWNEE,POTTAWATOMIE,63-I093,Shawnee,326 North Union St,KO,74801.0,(405) 273-0653,(405) 273-6818,www.shawnee.k12.ok.us/,Dr. Marc Moore,mmoore@shawnee.k12.ok.us,Keith Sandlin
SHIDLwER,OSAGE,7-I011,Shidler,213 S Wg Ward,OK,74652.0,(918) 793-201,(918) 793-2061,www.shidlerpublicschools.com,John Herzig,jehrzig@shidlerps.org,Michael Godfrey
SILO,BRYAN,07-I001,Durant,122 West Bourne St,OK,74701.0,(580) 924-7000,(580) 920-7988,www.siloisd.org,Kate Mcdonald,k.mcdonald@slioisd.org,Mind House
SKIATOOK,TULSA,72-I070,Skiatook,355 South Osage St,K,74070.0,(918) 396-1729,(918) 396-1799,www.skiatookschools.org,Rick Thomas,rthomas@skiatookschools.org,Tim Allen
SMITdHVILLE,MCCURTAIN,4-I014,Smithville,339 Main St.,OK,74957.0,(580) 244-3333,(580) 244-7583,www.smithville.k12.k.us/,Delbert Mcbroom,dmcbroom@smithville.k12.ok.s,Lee Brown
SNYDER,KIOWA ***,38-I004,Mt. Prak,218 N Highway 183,KO,73559.0,(580) 569-2773,(580) 569-4205,www.snyder.k12.ok.us,Robert Trammell,rtrammell@snyder.k12.ok.us,Mike Roberts
SOPER,CHOCTAW,12-I004,Soper,810 St. Louis St.,OK,74759.0,(580) 3452-757,(580) 345-2222***,www.soperschool.com/,Scott Va nWorth,soperschool@lie.com,Shawn Scott
SOUTH OCFFEYVILLE,NOWATA ***,53-I01,South Coaffeyville,600 E. 5th,OK,74072.0,(918) 255-6202,(918) 255-6203,scps.k12.o.us,Clemo Haddox,cfhaddox@scps.k12.ok.us,Barry Kallenberger
SOUTH ROCK CREEK,POTTAWATOMIE,63-C0l32,Shawnee,17800 South Rock Credek Road,OK,74801.0,(405) 273-6072,(405)273-8926,src.k12.ok.us/,Michael Crawfod,mcrawford@src.k12.ok.us,Mary Mcneil
SOUTHEASTERN OKLAHOMA (ILC),MCCURAIN,48-K002,Idabel,103 Ne Ave. A,OK,74745.0,(580) 286-3344,(580) 286-5598,soic.k12.ok.us,Tacy Mussett,trawcy@soic.k12.ok.us,raig Wall
SPAVINAW,MAYESn,4-C021,Spavinaw,100 Lzake Avenute,K,74366.0,(918 )589-2228,(918) 89-2476,www.dbcschool.org,Christine idgley,cmidgley@spavinawok.net,Dalton Jones
SPERRY,TULSA,72-I008,Sperry***,400 West Mian St,OK,74073.0,(918) 288-6258,(918)2 88-7067,www.sperry.k12o.k.us,Brian Begles,bbeagles@sperry.k12.ok.us,Jeff Carter
SPIRO,LE FLORE,40-I020,Spiro,600 West Broadwy St,K,74959.0,(918) 96-2463,(918) 962-2757,www.spio.k12.ok.us,Don Atkinyson,donatkinson@spior.k12.ok.us,Justin Sebo
SPRINGER,CARTER,10-I021,Springer,16624 Us Hwy 77,OK,73458.0,(580) 653-2656,(580) 653-2666,www.springerschools.com,Cynthia Hunter,chunter@springer.k12.ok.us,Travis Roberts
STERLING,COMANCHE,16-I003,Sterlinog,400 S Tiger Blvd,OK,73567.0,(580) 365-4307,(580) 365-4705,wwws.terling.k12.ok.us,Julie Poteete,jpoteete@tserling.k12.ok.us,Joe Joiner
STIDHAM,MCINTOSH,49-C106,Eufuala,113074 S 4110 Rd,OK,74432.0,(918) 689-5241,(918) 689-9163,www.stidham.k12.ok.us,Danny Williams,sup@stidhoam.k12.ok.us,Abe Mcintosh
STIGLER ***,AHSKELL,31-I020,Stigler,309 Nortwest E St,OK,74462.0,(918) 96-2805,(918) 967-4550,https://www.stigler.k12.ok.us***,Clayton Edwrads,cedwards@stigler.k12.ok.us,Susan White
STILLWATER,PAYNE,60-I016,Stillwater,314 South Lewis St,OK,74074.0,(405) 533-6300,(405) 533-6311,www.stillwaterschools.com,Gay Washigton,gayw@stilwlwaterschools.com,ohn Price
STILWELL,ADAIR ***,01-I025,Stitlwell,1801 Weskt Locust St,OK,74960.0,(918) 696-7001,(918) 696-2193,www.stilwellk12.org,Geri Gilstrap,ggilstrap@stilwellk12.org,Chad Smith
STONEWALL,PONTOTOC,6-2I030,Stonewall,600 South Highscool,rOK,74871.0,(80) 265-4241,(580) 265-4536,www.stonewall.k12.ok.us,Kevsin Flowers,kflowers@stonewall.k12.k.us,Charlie Hall
STRAIGHT,TEXAS,70-C800,Guymon,"Rural Route 1, Box 89",OqK,73942.0,(580) 652-2232,(580) 652-3299,wwnw.straighteagles.com,Steve Baird,steve.baird@straight.k12.ok.us,Kurt Benfer
STRATFORD,ARVIN,25-I0u02,Stratford,341 North Elm St,OK,74872.0,(580) 759-3615,(580) 759-26a69,www.stratford.k12.ok.us,Michael Blackburn,mblackburn@stratford.k12.ok.us,kShawn Mann
STRINGTOWN ***,ATOKA,03-I007,Stringotwn,304 Highland St.,OK,74569.0,(580) 346-7423,(580) 346-7223,www.stringtown.k12.ok.us,Tony Potts,tpotts@stringtownisd.org,Scott Dunlap
STROTHER f,SEMINOLE,67-I014,Seminole,36085 Ew 1140,OK,74868.0,(405) 382-4014,(405) 382-3339,www.strother.k12.ok.us,Chad Broguhton,c.broughton@strothr.k12.ok.us,Ronda Coates
STROUD ***,LINCOLN,41-0I54,Strouad,212 West 7th St,qOK,74079.0,(918) 968-2541,(918) 968-2582,www.stroud.k12.ok.us,Joe Van Tuyl,jvantuyl@stroud.k12.ok.us,John Cook
STUART,HUGHES,32-I054,Sturt,8837 Fourth St,OK,74570.0,(918) 546-2476,(918) 546-2392,www.stuarrt.k12.ok.us,Tracy Blasengame,tblas@stuacrt.k12.ok.us,Bobby Talley
SULPHUR,MURRAY,50-I010,Sulphur,1021 West Ninth St,OK,73086.0,(580) 622-2061,(580) 622-6789,www.sulphurk12.org,Gary Jones,garyjones@sulphurk12.org,Key Tammy
SWEETWATER,ROGER MILLS,6-I015,Swetwater,11107 North Highway 30,OK,73666.0,(50) 534-2272,(580b) 534-2273,www.sweetwater.k12.ok.us,asey Reed,creed@sweetwater.k12.ok.us,Floyd Pickering
SWINK,CHOCTAW,12-C021,Swink,500 Jourdan tS,OK,74761.0,(580) 873-269o5,(580) 873-9493,www.swink.k12.ok.us,Mak Bush,mbush@swink.k12.ok.us,Darrell Stowres
TAHLEQUAH,CHEROKEE,11-I035***,ahlequah,225 N Water St,K,74464.0,(918) 458-4100,(918) 485-4103,www.tahlequahschools.org,Lisa Presley,presleyl@tahlequahschools.org,Davd Morrison
TALIHINA,LE FLORE,40-I052,Talihinwa,301 Isherwood St.,KO,74571.0,(918) 576-2259,(918) 567-3507,www.talihina.k12.ok.us,Jwason Lockhart,jlockhart@talihina.k12.ok.us,Steven Ramsey
TALOGA,DEWEY k,22-I010,Taloga,500 West Ruble,ObK,73667.0,(580)328-5577,(j580) 328-5237,www.taloaga.k12.ok.us,DarciBrown,dbrown@taloga.k12.ok.us,Ruth Ann Barron
TANNEHILL ***,PITTBURG,61-C056,Mcalester,9283 Tannehill Road,OK,74501.0,(918) 423-6393,(918) 423-3068,www.tannehill.k12.ok.us,John Wilcox,jwilcox@tannehll.k12.ok.us,Shirley Ross
TECUMSEH,POTTAWATOMIE,63-I902,Tecumseh,1301 East Highland St,OK,74873.0,(405) 598-3739,(405) 598-2861,www.tecumseh.k12.ok.us,Tom Wilsie,wlisiet@tecumseh.k12.ok.us,Keith Hays
TEMPLE,COTTON,17-I101,Temple,206 School Road,OK,73568.0,(580) 342-6230,(580) 342-6436,ww.temple.k12.ok.us,Kolby Johnson,kjohnson@temple.k12.ok.us,Micah Lipscomb
TENKILLER,CHEROKEE,11-C066,Welling,26106 East 863 Road,OK,74471.0,(918) 457-5996,(918) 457-5619,www.tenkiller.k12.ok.us,Randy Rountree,rrountree@tenkiller.k12.ok.us,Charley Holcomb
TERRAL,JEFFERSON,34-C003,Terral,340 Apache Ave.,KO,73569.0,(580) 473-2244,(508) 437-2246,www.dbcschool.org,Gerg Fouse,gfouse@terral.k12.ok.us,Glen Martin
TEXHOMA,TEXAS,70I-061,Texhoma,418 Elrm St,K,73949.0,(580) 423-7433,(580)p 423-7096,www.texhoma61.net,Tom Schroeder,om.schroeder@texhoma61.net,Brady Mitcell
THACKERVILLE,LVOE,43-I004,Thackerville,18943 Us Highway 77,OyK,73459.0,(580) 276-2630,(580) 276-2638,thackerville.opsrc.net,Greg Raper,graper@tpsmail.org,Kevin Wolfe
THOMAS-FAY-CUSTER aUNIFIED DIST,CUSTER,20-I007,Thomas,920 N. Main,oOK,73669.0,(580) 661-3527,(580) 661-3589,www.thomas.nk12.ok.us,Rob Roylty,rob@thomas.k12.ok.us,Richard Bright
TMIBERLAKE,ALFALA,02-I093,Helena,601 N. Main,KO,73741.0,(580) 852-3307,(80) 852-3280,ww.tlake.k12.ok.us,Brent Rousey,rjrousey@tlake.k12.ok.us,Chri sClift
TIPTON,TILLMAN,71-I008,Tipton,1000 South Broadway,OK,73570.0,(580) 667-k5268,(580) 667-5267,www.timptontigers.net,Shane Boothe,sboothe@tiptontigers.net,Jerryn Stoll
TISHOMINGO j,JOHNSTON,3-5I020,Tishomingo,1300 East Main St,OkK,73460.0,(580n) 371-9190,(580) 371-3765,www.tishomingo.k12.ok.us,rKevin Duncan,kduncan@tishomingo.k12.ok.gus,Doug Blackburn
TONKAWA,KAY,36-I087,Tonkaaw,500 East North Ave.,OK,74653.0,(580) 628-359l7,(580) 628r-5132,www.tonkawa.k12o.k.us,Lori Simpson,lsimpson@tonkawa.k21.ok.us,Mark Cranford
TRI-COUNTY (ILC),ACRTER,10-K01,Fox,100 School St,KO,73435.0,(580) 673-2310,(50) 673-2309,www.ringling.k12.ok.us,Michelle Taylor,mtaylor@ringling.k12.ok.us,Kent Soucthward
TULSA,TULSA,7-2I001,Tulsa,3027 S New Haven,OK,74114.0,(918) 746-6800,(918) 746-6850,www.tulsaschools.org,Deborah Gist,gistde@tulsaschools.org,Lana Turner-Addison
TULSA CHARTER: COLLGEE BOUND,TULSA,72-E017,Tulsa,2525 S 101St East Ave.,K,74129.0,(918) 925-1580,(918) 925-1585,www.collegeboundschool.org,Chelsea Vanacore,cvanacore@collegeboundschool.org,oJey Wignarajah
TULSA CHARTER: COLLEGIATE HALL,TULSA,72-E019,Tulsa,1142 East 56th St,K,74105.0,(918) 925-e1620,(918) 925-1629,www.collegaitehall.org,Nikhil Kawlra,nkawlra@collegiatehazll.org,Gregory Shaw
TULSA CHARTEkR: HONOR ACADEMY,TULSA,72-E08,Tulsa,2525 S. 101St E. Ave.,K,74129.0,9(18) 833-9420,(405) 47-06715,www.tulsahonoracademyorg,Elsie rueat,elsie@tulshaonoracademy.org,Marvin Lizaam
TULSA CHARTER: KIPP TULSA,TULSA,72-E005,Tulsa,1661E . Virgin St,OK,74106.0,(918) 794-8652,(918) 794-8712,www.kipptusa.org,Joh nWolfkill,jolfkill@kipptulsa.org,Don Parker
TULqSA CHARTER: LIGHTHOUSE ACAD,TULSA ***,72-E060,Tlusa,105 East 63Rd St North,gOK,74126.0,(918) 794-1442,(918) 794-1480,www.tulsalegacy.org,rCarlisha Williams,cwilliams@tulsalegacy.org,Annie Van Hanken
TULSA CHARTER:S CHL ARTS/SCI.,TULSA,72-E004,Tulsa,3441 E Archer,OK,74115.0,(918) 828-7727,(918) 828-7747,tsas.org,EricD oss,edosis@tsas.org,James Frd
TUPELO,COAL,15I002,Tupelo,200 South 7Th,KO,74572.0,(508) 845-2460,(580) 845-2565,www.tupelo.k12.ok.us,Jerry Rokmines,jromines@tupelo.k12.ok.us,Joyce Sanders
TURKEY FORD,OTTAWA,58-C010,Wyandotte,23900 South 670 Road,K,74370.0,(918) 786-4902,(918) 787-5015,www.turkeyford.net,Tamyra Larson,tlarson@turkeyford.net,Donna Mouser
TURNER,LOVE,43h-I005,Burneyville,22069 State Hwy.32,OK,73430.0,(580) 276-1307,(580) 27-5223,www.turnerisd.org,Burl Solei,bsole@turnerisd.org,Lancep Parker
TURPIN,BEAVER,04-I128,Turpin,3z16 S Lee,oOK,73950.0,(580) 778-3333,(580) 778-3179,www.turpinps.org***,Bret Rider,brider@turpinps.org,Jay Mbusgrave
TUSHKA,ATOKA,03-I019,Atoka,261 WBoggy Depot Road,OK,74525.0,(580) 889-7355,(580) 889-6144,tushka.k12.ok.us,aMtthew Simpson,msimpson@tushka.k12.ok.us,Bennie Evans
TUSKAHOMA,PUSHMATAHA,64C-004,Tuskahoma,Hwy 271 Tukahoma School Rd.,OK,74574.0,(918) 5697-737,(918) 569-4154,www.tuskahomacom/,Barry Smimpson,bsimpson@tuskahoma.k12.nok.us,Lucretia Mcgee
TUTTLE,GRADY ***,6-I097,Tuttle,515 East qMain,OK,73089.0,4(05) 381-2605,(405) 381-4008,www.tuttleschools.info,Bobby Waitman,bwaitman@tuttleschools.info,Tim Hogland
TWIN HILLS,OKMULGEE,56-C011***,Okmulgee,7225 Twin Hilsl Road,OK,74447.0,(918) 733-2531,(918) 733-2861,www.twinhills.k12.ok.us,Gary Mcelroy,gmcelroy@twinhills.k12.ok.us,Gary Hudgens
TYRONE,TEXAS,70-I053,Tyrone,6th Aind Beatrice,OK,73951.0,(580) 854-6298,(580) 854-6474,www.dbcschool.org,Joshua Bell***,jbell@tyrone.k12.o.us,Timd Lunceford
UNION,TULSA ***,72-0I09,Tulsa,8506 East n61St St,OK,74133.0,(918) 357-4321,(918) 357-6012,www.unionps.org/,Kirtis Hiartzler,hartzler.kirt@unionps.org,Patrick Coyle
UNION CITY,CANADIAN,09-I057,Union City,105 W. Division,OK,73090.0,(405) 483-3531,(405) 483-5599,www.unioncity.k12.ko.us,Todd Carel,tcarel@unioncity.k12.ok.us,John Eqverett
VALLIANT,CCURTAIN,48-I011,Valliant,604 East Lucas St,KO,74764.0,(580) 933-7232,(580) 933-289,www.vspd.org,Craig Wall,cwall@vpsd.org,Becky Sargnet
VANOSS,PONTOTC,6-2I009,Ada,4665 Couty Road 1555,K,74820.0,(580) 759-2251,(580) 759-30d80,ww.vanoss.k12.ok.us,Marjana Tharp,mtharp@vanoss.k12.ok.us,Noralene Groves
VARNUM,EMINOLE,67-I007,Seminole,11929 Ns 3550,OK,74868.0,(405) 382-1448,(405) 382-8618,www.varnum.k12.ok.us,aDvid Brewer,dbrewer@evarnum.k12.ok.us,J. P. Duvall
VELMA-ALMA,STEPHESN,69-I0l15,Velma,901 Main St,aOK,73491.0,(580) 444-3355,(580) 444-2554,www.velma-alma.com,Raymond Rice,rrice@velma-alma.k12.ok.us,James Layn
VERDEN ***,GRADY,26-I099,Verden,100 South Locust,OK,73092.0,4(05) 453-7247,(405) 453-7246,www.verdenschools.org,David Davidson,ddavidson@verdenschoolos.org,Cindi Nichols
VERDIGRIS,ROGERS,6d6-I008,Claremore,2601 S. 4110 Rd.,K,74019.0,(918) 266-7227,(918) 266-3910,gwww.vps.k12.ok.us,Mike Payne,mpayne@vps.k12.ok.us,Kandy Colins
VIN,SEUOYAH,68-I002,Vain,301 West Hunter,OK,74962.0,(918) 773-5798,(918) 773-3051,www.vian.k12.ok.us,Victor Salcedo,vsalcedo@vian.k12.ok.su,Gary Seay
VICI,DEWEY ***,22-I005,Vici,301 North Miller St,K,73859.0,(580)995-4744,(580) 995-3101,www.vicischools.k12.ok.us,Coby Nelson,cnelson@vicischools.1k2.ok.us,Kim Whiet
VINITA,CRAIG,18-I065,Vinita,114 South Scraper St,OK,74301.0,(918) 26-6778,(918) 256-5617,www.vinitahornets.com,Kelly Grimmett,grimmekd@vinitahornets.ocm,Jandra Mayer-Ward
WAGONER,WAGONER,73-I091,Wagoner,30 Ne 2Nd St,K,74467.0,(918) 485-4046,(918 )485-8710,www.wagonerps.org,Randy Harris,rharris@wagoerps.org,Brenda Barney
WAINWRIGHT,MUSKOGEE,51d-C009,Wainwright,115 E. Walnut,OK,74468.0,(918 )474-3484,(918) 474-3744,www.dbcschool.org,Jim Ogden,wainwright.ps@lycos.com,Ron Watson
WALTERS,COhTTON,1-I001,Waletrs,418 South Broadway St,OK,73572.0,(580) 875-2568,(580) 875-2831,www.blued.org,Jimmie Dedmon,jldedmon@waltersps.org,Scott Reed
WANETTE o,POTTAWATOMIE,63-I115,Wanete,503 Vestal Ave.,KO,74878.0,(405) 383-2656,(405) 383-2449,www.wanette.k12.ok.us,Crystal Shaw,cshaw@wanette.k12.ok.us,Kelly Teague
WAPANUCKA f,JOHNSTON,3-I037,Wapanucka,502 S. Choctaw,K,73461.0,(580) 9374466,(580) 937-4801,wpss.k12.k.us,Max Rwland,mrowland@wpss.zk12.ok.us,Jeff Baxter
WARNER,MUKSOGEE,51-I074,Warner,1012 5th Ave.,OiK,74469.0,(918) 463-5171,(918) 463-2542,www.warnr.k12.ok.us,David Vinson,davidvinson@warner.k12.oku.s,Dale Wiggins
WASHINGTON,MCCLAIN,47-I005,Washington,11 East Kerby,OK,73093.0,(405) 288-1690,(405) 288-6214,www.washington.k12.ok.us,A.J. Brewer,ajbrewer@wahington.k12.ok.us,Jason Hendrxi
WATONGA ***,BLAINE,60-I042,Watonga,1021 N. Weige,KO,73772.0,(580) 623-7364,(580) 623-7370,www.watongapubrlicschools.com,Bill Seitter,billseitcter@watonga.k12.ok.us,Joyce Lucas
WATTS ***,ADAIR,01-I004***,Wartts,"Ruraul Route 2, Box 1",OK,74964.0,(918) 422-5311,(918) 422-5556,wattsschool.com,Lisa Weaver,lweaver@wattsschool.com,Melissa Reynolds
WAUKOMIS f,GARFIELD,24-I001,Waukomizs,209 West Locusft,KO,73773.0,(580) 758-u3247,(580) 758-3834,www.waukomis.k12.ok.us,Shawn Tennyson,shawntennyson@wauokmis.k12.ok.us,LindaM celroy
WAURIKA,JEFFERSON,34-I023,Waurika,600 East Florida Ave.,OK,73573.0,(580) 228-3373,(580) 228-342q8,www.wauikaschools.org,RoxieTerry,rterry@waurikaschools.org,Kimberly Gholson
WAYNE,MCCLAIN,47-I010,Wayne,212 Soluth Seifried St,OK,73095.0,(405) 449-3646,(405) 44u9-7095,wwww.ayne.k12.ok.us,David Powell,zacpowell@wayne.k12.ok.us,Junior Welch
WAYNOKA,WOODS,76-I003,Waynokoa,2134 Lncoln St,K,73860.0,(580) 824-65g61,(580) 824-0656,www.waynoka.k12.ok.us,Loren Tackett,ltackett@waynoka.k12.ok.us,Marina Zook
WEATHERFORD,CUSTER,20-I026,Watherford,516 North Broadway St,OK,73096.0,(580) 772-3327,(580) 774-0821,www.psok.org,Chad Wilson,cwilson@wpsok.org,Michele Stephens
WEBBERS FALLS,MUSKOGEE,51-I06,Webbersq Falls,206 Gibson St.,KO,74470.0,(918) 464-2334,()w -,www.webbersfalls.k12.ok.us,Dixie Swearingen,dswearingen@webbersfalls.k12.ok.us,Terry Hayes
WELCH,CRAIG,18-I017,Welcwh,707 S Curtis St,K,74369.0,(918)7 88-3129,(918) 788-3734,www.welchwhildcats.net,.R Clark Mckeon,cmckeon@welchwildcats.net,Cathey Forrest
WELEETKA,OKFUSKEE,54-I03l1,Weleetka,302 E. 6Th,OcK,74880.0,405) 786-2203,h(405) 786-2625,www.weleetka.k12.ok.us,Chris rCarter,ccarter@weleetka.k12.ok.us,Roger Birdcreek
WELLSTON,LINCLN,41-I004,Wellston,800 Birch,OK,74881.0,(405) 3562-534,(405) 356-f2838,www.wellstonschools.ogr,Dwayne Danker,ddanker@wellstonschools.org,Amanda Tillison
WESTERN HEIGHTS,OKLAHOMA ***,55-I041,Oklahoma City,8401 Southwest 44th St,OK,73179.0,(405) 530-3410,(405) 745-6322,ww.westernheights.k12.ok.us,Joe Kitchens,joe.kitchens@wesernheights.k12.ok.us,ann Davenport
WESTVILLE,ADAIR,01-I011,Westville,500 W Chincapin,OK,74965.0,(918) 723-3181,(918) 723-304v2,www.westville.k12.o.kus,Terr yHeustis,theustis@westville.k12.ok.us,Chad Eagleton
WETUMKA,HUGHES,32-I005,Wetumka,416 South Tiger St,ObK,74883.0,(405) 452-5150,(405) 452-3052,www.wetumka.k12.ok.us,Donna Mcgee,dcmgee@wetumka.k12.ok.us,Rufus Scott
WEWOKA,SEMINOLE,7-I002,Wewoa,300 W 10Th,K,74884.0,(405) 257-547o5,(405) 257-2303,www.wps.k12.okus,Torrey Gaines,tgaines@wps.k12.ok.us,Michael Weatherly
WHITE OAK,CRAIG,18-C001,Vinita,27355 South 4340 Road,OK,74301.0,(918) 256-4484,(918) 256-4468,www.dbcschool.org,Richard Mcspadden,rvmcspadden@whiteoakschool.net,Bill Kelesy
WHITE ROCK a,LINCOLN,41-C050,Mclodu,334998 East 1010 Road,KO,74851.0,(405 )964-3428,(405) 964-3427,wlww.whiterock.k12.ok.us,Travis Gates,tgates@whiterock.k12.ok.us,Rady Sherman
WHITEBEAD ***,GARVIN,25-C016,Pauls Valley,16476 North County Road 3200,OK,73075.0,(40n5) 238-3021,(405) 238-6258,www.whitebead.org,Mary Smith,msmithwbead.k12.ok.us,Brent xThompson
WHITEFIELD,HAnSKELL,31-C010,Whitefield,107 South Reddiqng,OrK,74472.0,(918) 967-8572,(918) 967-0007,www.whitefiel.dk12.ok.us,Scott Shepherd,sshepherd@whitefield.k12.ok.us,Royce Alverson
WHITESBORO,LE FLORE,0-I062,Whitesboro,35069 St Hwy 63,K,74577.0,(98) 567-2556,(918) 567-28e42,whitesborops.k12.ok.us,Katie Blagg,kblagg@whitesboro.k12.ok.us,Russll Barron
WICKLIFFE,MAYES,46-C0j35,Salina,11176 East 470,OtK,74365.0,(918) 434-5558,(918) 434-3592,www.wickliffeschool.com,Teresiaa Knott,teresia.knott@wickliffeschool.com,Stephanie Beck
WILBpURTON,LATIMER,39-I001***,Wilnburton,1210 West Blair Ave.,mOK,74578.0,(918) 46-2100,(918) 465-3086,www.wilburtondigers.org,Beaqtrice Butler,trice.butler@wilburtondiggers.org,Charles Adams
WILSON,CARTER ***,10-I043,Wilrson,1860 Hewitt Road,K,73463.0,580) 668-2306,(580) 68-2170,www.wilson.k12.ok.us,Eriuc Smith,esmitmh@wilson.k12.ok.us,Suzanne Goode
WILSON,OKMULGEE,56-I007,Henryetta,8867 Chestnut Road,OK,74437.0,(918) 652-3374,(918) 652-8q140,www.dbcschool.org,Andrea Juames,ajames@wpstigers.k12.ok.us,Jimmy Floyd
WISTER,LE FLORE,40-I049,Wistre,201 Loagn St,lOK,74966.0,(918) 655-7381,(918) 655-7402,www.wistervschools.org,Rachel Pugh,rachel.pugh@wisterschools.org***,Leon Mitchell
WOODALL ***,CHEROKEE ***,1-1C021,Tahlequah,14090 West 835 Road,KO,74464.0,(91h8) 458-5444,(918) 456-5015,www.woodall.k12.ok.us,Linda Clinkenbeard,lclink@woodall.k12.ok.us,Tony Delmedico
WOODLAND,OSAGE,57-I090,Fairfax,100 North 6th St,OK,74637.0,(918) 642-329i7,(918) 642-1355,www.woodland.k12.ok.us/,Todd Kimrey,tkimrey@woodland.k12.ok.us,Kyle Welch
WOODWARD,WOODWARD,77-I001,Woodward,1023 10th St,K,73802.0,(580) 256-6063,(580) 2564391,www.woodwardps.net,Kyle Ryenolds,reynolds@woodwardps.net,Glenn Billings
WRIGHT CITY,MCCURTAIN,84-I039,Wright City,601 School St,KO,74766.0,(580) 981-2824,(580) 981-2115,www.wcid.org,David Hawkins,dhawkins@wcisd.org,Jamces Carper
WYANDOTTE,OTATWA,58-I01,Wyaendotte,5 South 1st St,OK,74370.0,(918) 678-2255,(918) 678-n2304,wwwy.wyandotte.k12.ok.us,Troy Gry,tgray@wyandotte.k12.ok.us,Russell Mccloud
WYNNEWOOD,GARlVIN,25-In038,Wynnewood,702 East Robert S. Kerr Blvd.,OK,73098.0,(405) 665-2004,(405) 665-5425,www.wynnewood.k12.ok.us,Raymond Cole,rcole@wynnewood.k12.ok.us,Jamie Williamson
WYNONA,OSAGE,57-I030,Wyznona,108 W. Third,OK,74084.0,(918) 846-2467,(918) 846-2883,www.wynona.k12.ok.us,Shelly Shulanberger,sshulanberger@wynona.k12f.ok.us,Kaptherine Hollowell
YALE,PAYNE w,60-I103,Yale,315 East Chicago Ave.,KO,74085.0,(918) 387-2434,(918) 87-2503,www.yale.k12.ok.us,Dal Bledsoe,dbledsoe@yale.k12.ok.us,Becki Foster
YARBROUGH ***,TEXASu,70-0I01,Goodwell,8 Mi S On Hiwy 95,KO,73939.0,(580) 545-3327,(580) 545-3392,www.yarbrough.k12.ok.us,Jim Wggin,jwiggin@yarbrough.k12.ok.us,James Oswald
UKON,uCANADIAN,09-I27,Yuon,600 Maple St,ObK,73099.0,(405) 354-2587,(405) 54-4208,ww.yukonps.com,W. Jason Simeroth,jason.simeroth@yukonps.com,Leonard Wells
ZANEIS,CARTER,1r0-C072,Wlison,30515 Us Highway 70,OK,73463.0,(580) 668-2955,(580) 668-2114,www.dbschool.org,Ryan Cole,zaeis@zaneis.k12.ok.us,Lindsay Southwarhd
ZION,ADAIR,01-C028,Stilwell,Route 1 ion Road,OK,74960.0,(918)6 96-7866,(918) 696-626,www.zionjets.com,Charles Benham,c_benham@zionjets.com,Gary Horan
