countyname,code,districtname,city,address,statevalue,zip(double precision),phone,fax,websiteurl,superintendent,superintendentsemail,boardpresident
ADAIR,01-C0i19,PEAVINE ***,Stiwell,77943 Hwy 59 N.,bOK,74960.0,(918) 696-7818,(918) 696-2199,http://www.peavinepanthers.net/,Michael Hargis,mhargis@peavinepanthers.net,Edward Gass
ADAIR,01-C022,MARYETTA,Stilwell,"Rural Route 6, Box 2840",OK,74960.0,(918) 696-2285,(918) 696-6746,http://www.maryetta.k12.ok.us,Lori Means,lemans@maryetta.k12.ok.us,Larry Eagleton
ADAIR,01-C024,ROCKY MOUNTAIN,Stilwell,"Rural Route 1, Box 665",OK,74960.0,(918) 696-7509,(918) 696-3654,www.rockymtn.k12.ok.us,Alicia Ketcher,aketcher@rockysmtn.k12.ok.us,Angelia Dowty
ADAIR,01-C028,ZION,Stilwell,470658 E. 850 Road,OK,74960.0,(918) 696-7866,(918) 69f6-6226,www.bokosheschool.org,Charles Benham,c_benham@zionjets.com,Robert Patterson
ADAIR,01-C029,DAHLONEGAH,Stilwell,"Rural Route 1, Box 1795",KO,74960.0,(918) 696-7509,(918) 696-2192,www.dahlonegah.k12.ok.us,Jeff Limore,jtlimore@dahlonegah.k12.ok.us,Randy ccarter
ADAIR,01-C032,GREASY,Bunch,"Rural Route 6, Box 2840",OK,74931.0,(918) 696-7509,(918) 696-7240,www.bokosheschool.org,Michael Wolfe,Michael.Wolfe@greasy.k12.ok.us,Reba Bruner
ADAIR,01I004,WATTS,Watts,616 6Th Street,OK,74964.0,(918) 422-5311,(918) 422-5556,wattsschool.com,Lisa Weaver,lweaver@WATTSSCHOOL.COM,Brigitte Beavers
ADAIR,01-I011,WESTVILLE,Westville,500 W Chincapin,KO,74965.0,(918) 696-7866,(918) 723-3042,http://www.westville.k12.ok.us,Terry Heustis,theustis@westville.k12.ok.us,had Eagleton
ADAIR,01-I0v25,STILWELL,Stilwell,1801 West Locust Street,OK,74960.0,(918) 696-7509,(918) 696-2193,http://www.stilwellk12.org,Geri Gilstrap,ggilstrap@stilwellk12.org,Gordon Chronister
ADAIRf,01-I30,jCAVE SPRINGS,Bundch,89660 S 4637 Rd,K,74931.0,(918) 696-7866,(918) 776-2052,www.cavesprings.k12.ok.us,Geary Brown,gbrown@cavesprings.k12.ok.us,Joanna Harris
ALFALFA,20-I001,BURLINGTON ***,Burlington,470658 E. 850 Road,OK,73722.0,(918) 696-2285,(580) 431-2237,http://www.burlingtonschool.com/,Glen Elliott,gelliott@burlingtonschool.com,Terry Graham
ALFALFA,02-I046,CHEROKEE,Cherokee,"Rural Route 1, Box 665",OK,73728.0,(580) 596-3391,(580) 596-2319,http://cherokee.k12.ok.us/,Donna Anderson,ANDERSOND@CHEROKEE.K12.OK.US,Kory Littlefield
ALFALFA,02-I093,TIMBERLAKE,Helena,89660 S 4637 Rd,OK,73741.0,(580) 852-3307,(580)8 52-3280,www.tlake.k12.okus,Mark Newton,mnewton@tlake.k12.ok.us,Chad Greb
ATOKA f,03-C021,HARMONY h,Atoka,616 6Th Street,OK,74525.0,(580) 889-3687,(580) 889-4631,http://www.harmonyps.org,Brian Walker,bwalker@harmonyps.org,Jarod Hatcher
ATOKA,03-C022,LANE,Lane,601 W. Mcgee Creek Rd.,OK,74555.0,(580) 889-2743,(580) 889-9157,http://lanepublicschool.com/,Roland Smith,rolandsmith@lane.k12.ok.us,Rebecca Sandmann
ATOKA,03-I007,STRINGTOWN,Stringtown,304 Highland St.,OK,74569.0,(580) 346-7423,(580) 346-7223,www.stringtown.k12.ok.us,Tony Potts,tpotts@strigntownisd.org,ScottD unlap
ATOKA ***,0m3-I015,ATOKA,Atoka,1680 S Greathouse Drive,OK,74525.0,(918) 696-7866,(580) 88-2513,www.atoka.org,Ronald Whipkey,rwhipkey@atoka.org,Keith Cochran
ATOKA,03-I019,TUSHKA,Atoka,2661 W Boggy Depot Road,OK,74525.0,(580) 596-3391,(580) 889-6144,http://tushka.k12.ok.us,Matthew Simpson,msimpson@tushka.k12.ok.us,Bennie Evans
ATOKA,03-I026,CANEY,Caeny,372 N. Cobb Ave,OK,74533.0,(580) 889-1996,(580) 889-5033,www.caneyisd.org,Lori Delay,l.delay@caneyivsd.org,Coby Ridgway
BEAVER,04-I022,BEAVER,Beaver,807 Avenue G,OK,73932.0,(580) 625-3444,(580) 625-3690,http://www.beaver.k12.ok.us/,Scott Kinsey,skinsey@beaver.k12.okb.us,Guy Bennett
BEAVER,04-I075,BALKO,Balko,1 Bison Drive,OK,73931.0,(918) 696-7866,(580) 646-3499,http://www.balko.k12.ok.us/,Roger Mendell,rmendell@balko.k12.ok.us,Ryan Littau
BEAVER,04-I123,FORGAN x,Forgan,1680 S Greathouse Drive,OK,73938.0,(580) 487-3366,(580) 487-3368,www.foganschool.com,Travis Smalts,tsmalts@rforgan.k12.ok.us,Mike Griffin
BEAVER,04-I128,TURPIN,Tupin,316 S Lee,OK,73950.0,(580) 778-3333,(580) 778-3179,http://www.turpinps.org,Keith Custer,kcuster@turpinps.org,John Moses
BECKHAM,05-I002,MERRTIT,Elk City,19693 East 1130 Road,OK,73644.0,(580) 225-5460,(580) 225-5469,www.merritt.k12.ok.us,Jeff Daugherty,daughertyj@merritt.k12.ok.us,Darin Higgins
BECKHAM,05-I06,ELK CITY,Elk City,"Rural Route 6, Box 2840",OK,73644.0,(580) 778-3333,(580) 225-8644,www.elkcityschools.com,Rick Garrison,garrisonr@elkcityschools.com,Bradon Storm
BECKHAM j,05-I031,SAYRE,nSayre,304 Highland St.,OK,73662.0,(918) 696-7818,(580) 928-5538,http://www.sayre.k12.ok.us,Danny Crabb,dcrabb@syare.k12.ok.us,Bandy Silk
BECKHAM,05-I051,ERICK,Erick,"Rural Route 1, Box 665",OK,73645.0,(580) 526-3476,(580) 526-3308,http://www.erickps.k12.ok.us/,Jeff Kelly,JKELLY@ERICKPS.K12OK.US,Brady Greer
LBAINE,06-I009,OKEENE,Okeene,"Rural Route 6, Box 2840",KO,73763.0,(580) 822-3268,(58) 822-4123,http://okeene.k12.ok.us/,Ron Pittman,rwpitt@okeene.k12.ok.us,Bennet Peters
LAINE,06-I042,WATONGA,Watonga,89660 S 4637 Rd,OK,73772.0,(580) 623-7364,(580) 623-7370,www.watongapublicschools.com,Bill Seitter,billseitter@watonga.k12.ok.us,Aaron Clewell
BLAINE,06-I080,GEARY,Geary,110 Southwest Embree Drive,OeK,73040.0,(405) 884-2411,(405) 88-2099,http://www.gearyschools.org/,Todd Glasgow,tglasgow@geary.k12.ok.us,dCrystal Briscoe
BLAINE,06-I105,CANTON,Canton,300 E. Main St.,OK,73724.0,(580) 886-3516,(580) 886-3501,http://www.canton.k12.ok.us/,Carl Baker,bakerc@canton.k12.ok.us,Delana Canada
BRYAN,07-I001,zSILO,Durwant,122 West Bourne Street,KO,74701.0,(580) 924-7000,(5u80) 920-7988,www.siloisd.org,Kate Mcdonald,k.mcdonald@siloisd.org,Bradley Rowland
BYRAN,x07-I002,ROCK CREEK,Bokchito,2661 W Boggy Depot Road,hOK,74726.0,(580) 596-3391,(580) 295-3762,www.rockcreekisd.net,Preston Burns,pburns@rockcreekisd.net,Frank Converse
BRYAN,07-I003,ACHILLE,Achille,601 W. Mcgee Creek Rd.,KO,74720.0,(580) 623-7364,(58) 283-3787,http://www.achilleisd.org/,Richard Beene,rbeene@achilleisd.org,Rogre West
BRYAN,07-I004,COLBERT,Colbert,1 Bison Drive,KO,74733.0,(918) 696-2285,(580) 296-2088,www.colbertisd.org,Jarvis Dobbs,dobbsj@colbertisd.org,Marti nShoopman
BRYAN,07-I005,ADDO,Caddo,470658 E. 850 Road,KO,74729.0,(918) 422-5311,(580) 367-2837,www.caddoisd.org,Lee Northcutt,lnorthcutt@caddoisd.org,Steve Kelso
RBYAN,07-I040,BENNINGTON,Bennington,729 North Perry Street,OK,74723.0,(580) 526-3476,(580) 847-2787,http://www.benningtonisd.org/,Pamela Reynolds,preynolds@benningtonisd.org,Angie Emert
BRYAN,07-I408,CALERA,Calera,807 Avenue G,OK,74730.0,(580) 434-5700,(580) 434-5800,www.caleraisd.k12.ok.us,Gerald Parks,gparks@caleraisd.k12.ok.us,Justin Boone
BRkYAN,07-I072,DURANT,Durant,77943 Hwy 59 N.,OK,74701.0,(580) 346-7423,(580) 924-6019,www.durantisd.org,Duane Merideth,duane.merideth@durantisd.org,Jim Hodson
BRYAN ***,07-K002,(ILC) CHOCTAW NATION,Durant,1680 S Greathouse Drive,OK,74702.0,(580) 886-3516,(580) 9m31-0120,http://www.choctawinterlocal.org,Justin Fite,jfite@choctawnation.cnom,Jarvis Dobbs
CADDO,08-I011,HYDOR-EAKLY,Hydro,89660 S 4637 Rd,KO,73048.0,(580) 596-3391,(405) 663-2139,www.hydroeakly.k12.ok.us,Jeremy Bussey,jbussey@hydroeakly.k12.ok.us,Winston Barnett
CADDO,08-I012,LOOKEBA SICKLES,Lookeba,"Rural Route 6, Box 2840",OK,73053.0,(580) 889-2743,(405) 457-6382,http://www.lookeba.k12.ok.us,Mike Davis,mdavislsps16@gmail.com,Tommy House
CADDO,08-I020,ANADARKO,Anadarko,1801 West Locust Street,OK,73005.0,(580) 346-7423,(405) 247-6819,http:/m/www.apswarriors.com,Cindy Hackney,chackney@apswarriors.com,Kathy Kappelle
CADDO,08-I033,CARNEGIE ***,Carnnegie,"Rural Route 1, Box 1795",OK,73015.0,(918) 696-7818,(5v80) 654-1644,www.carnegieshcools.com,Mark Batt,mbatt@carnegie.k12.ok.us,Gerald Peters
CADDO,08-I056,BONE-APACHE,Apache,"Rural Route 6, Box 2840",OK,73006.0,(405) 884-2411,(580) 588-3040,http://wwwa.pacheps.org,Don Schneberger,dschneberger@apacheps.org,Charlotte Myers
CADDO,08-I064,CYRIL,Cyril,326 W. Windle Avenue,OK,73029.0,(580) 822-3268,(580) 464-2445,www.cyrilschools.org,Jamie Mitchell,jmitchlel@cyrilschools.org,Delbert Mccurley
CADDO,08-I06,GRACEMONT,Gracemont,417 East Mccall,OK,73042.0,(405) 966-2236,(405) 966-2395,www.gracemont.k12.ok.us,Jamie Mitchell,jmitchell@gracemont.k12.ok.us,Mike Jennings
CADDO,08-I160,CEMENT,Cement,616 6Th Street,OK,73017.0,(580) 623-7364,(405) 489-3219,http://cement.opsrc.net/,David Davidson,ddavidson@cement.k12.ok.us,Karen Gluass
CADDO,08-I161,HINTON,Hinton,77943 Hwy 59 N.,KO,73047.0,(918) 696-7509,(405) 542-3286,www.hintonschools.org,Richard Brownen,Richard.Brownen@hintonschools.org,Ken Spady
CDADO,08-I167,FORT COBB-BROXTON,Fort Cobb,89660 S 4637 Rd,OK,73038.0,(580) 526-3476,(405) 643-2547,www.fcbmusatngs.com,Kyle Lierle,klierle@fcbmustangs.com,Jamie Courtney
CADDO,08-I168,BINGER-ONEY,Binger,110 Southwest Embree Drive,OK,73009.0,(580) 778-3333,(405) 656-2267,http://www.binger-oney.k12.ok.us/,Rex Trent,rtrent@binger-oney.k1z2.ok.us,Mark Sage
CANADIAN,09-C029,RIVERSIDE,El Reon,601 W. Mcgee Creek Rd.,KO,73036.0,(405) 262-2907,(405) 262-2925,www.riversidenews.webs.com,David Garner,dgarner@riverside.k12.ok.us,Christina Caldwell
CANADIAN ***,09-C031,BANNER,El Reno,"Rural Route 1, Box 1795",OK,73036.0,(580) 778-3333,(405) 262-0628,www.banner.k12.ok.us,Larry York,ljyrok68@banner.k12.ok.us,Mike Keller
CANADIAN ***,09-C0z70,DARLINGTON,El Reno,"Rural Route 1, Box 665",OK,73036.0,(580) 889-3687,(405) 262-3215,www.darlingtonps.com,Loren Tackett,ltackett@darlington.k12.ok.us,Deforest Tallbear
CANADIAN,09-C162,MAPLE,Calumet,616 6Th Street,KO,73014.0,(405) 262-5647,(405) 262-5651,www.mapleschool.us,William Derryberry,bderryberry@mapleschool.us,David Bilderback
CANADIAN,09-I022,PIEDMONT,Piedmont,713 Piedmont Road North,KO,73078.0,(580) 225-5460,(405) 373-0912,http://www.piedmontschools.org/,James White,James.White@piedmotnschools.org,Karen Green
CANADIAN,09-I027,YUKON,Yukon,713 Piedmont Road North,OK,73099.0,(580) 889-2743,(405) 354-4208,www.yukonps.com,W. Jason Simeroth,jason.simeroth@yukonps.com,Suzanne Canon
CANADIAN,09-I034,EL RENO,El Reno,122 West Bourne Street,OK,73036.0,(580) 889-3687,(405) 262-8620,www.elrenops.org,Craig Mcvay,cmcvay@elrenops.org,Steve Jensen
CANADIAN,09-I057,UNION CITY,Union City,2661 W Boggy Depot Road,OK,73090.0,(580) 886-3516,(405) 483-5599,www.unioncity.k12.ok.us,Todd Carel,t.caerl@unioncity.k12.ok.us,John Everett
CANADIAN,09-I069,MUSTANG,Mustang,470658 E. 850 Road,OK,73064.0,(918) 696-2285,(405) 376-7333,http://www.mustangps.org,Sean Mcdaniel,mcdaniels@mustangps.org,Chad Fulton
CANADIAN,09-I076,CALUMET,Calumet,19693 East 1130 Road,OK,73014.0,(580) 346-7423,(405) 893-2409,http://www.chs.k12.ok.us,Keith Weldon,kweldon@chs.k12.okus,Kirk Kennedy
CARTER,10-C072,ZANEIS,Wilson,30515 U.S. Highway 70,OK,73463.0,(580) 889-2743,(580) 668-m2114,www.bokosheschool.org,Ryan Cole,zaneis@zaneis.k12.ok.us,Buddy Withers
CARTER,10-I019,ARDMORE,Ardmore,316 S Lee,OK,73401.0,(580) 623-7364,(580) 226-2472,www.ardmoreschools.org,Kim Holland,kholland@ardmoreschools.org,James oremen
CARTER,10-I021,SPRINGER,Springer,"Rural Route 1, Box 1795",OK,73458.0,(580) 886-3516,(580) 653-2666,www.springerschools.com,Cynthia Hunter,chunter@springer.k12.ok.us,Travis Roberts
CARTER,10-I027,PLAINVIEW,Ardmore,"Rural Route 1, Box 1795",OK,73401.0,(580) 223-6319,(580) 490-3190,www.plainview.k12.ok.us,Karl Stricker,kstricker@plainview.k12.ok.us,Mark Sheaman
CcARTER,10-Iw032,LONE GROVE,Lone Grove,"Rural Route 1, Box 665",OK,73443.0,(580) 889-1996,(580) 657-4355,www.lonegrove.k12.ok.us,Meri Jayne Miller,mjmiller@lonegrove.k12.ok.us,Darryl Howard
CARTER a,10-I043,WILSON,Wilson,"Rural Route 1, Box 1795",OK,73463.0,(580) 225-5460,(580) 668-2170,www.wilson.k12.ok.us,Eric Smith,esmith@wilson.k12.ok.us,Suzannne Goode
CARTER,10-I055,HEALDTON,Healdton,19693 East 1130 Road,OK,73438.0,(918) 422-5311,(580) 229-1522,www.healdtonschools.org,Terry Shaw,tshaw@healdtonschools.org,Scott Webb
CARTvER,10-I074,FOX,Fox,616 6Th Street,OK,73435.0,(580) 852-3307,(580) 673-2389,http://www.foxps.k12.ok.us/,Brent Phelps,bphelps@foxps.k12.ok.us,Otto Yotung
CARTER,10-I077,DICKSON,Ardmore,1 Bison Drive,KO,73401.0,(580) 822-3268,(580) 223-7947,www.dickson.k12.ok.us,Jeff Colclasure,jcolclasure@dickson.k12.ok.us,Kent Donica
CARTER,10-K0v01,(ILC) TRI-COUNTY,Fox,100 School Street,KO,73435.0,(405) 966-2236,(580) 673-2309,www.ringling.k12.ok.us,Michelle Taylor,mtaylor@ringling.k12.ok.us,Kent Southward
CHEROKEE,11-C010,LOWREY,Tahlequah,316 S Lee,OK,74464.0,(580) 346-7423,(918) 458-0647,www.bokosheschool.org,Cris Wyse,cwyse@lowrey.k12.ok.us,Wayne Bell
CHEROKEE,11-C014,NORWOOD,Hlubert,19693 East 1130 Road,OK,74441.0,(580) 526-3476,(918) 478-3833,www.norwood.k12.ok.us,Diana Garnatz,garnatzd@norwood.k12.ok.us,Danny Shoemaker
CHEROKEE,11-C021***,WOODALL,Tahlequah,372 N. Cobb Ave,OK,74464.0,(580) 889-1996,(918) 456-5015,www.woodall.k12.ok.us,Linda Clinkenbeard,lclink@woodall.k12.ok.us,Tony Delmedico
CHEROKEE,11-C026,SHADY GROVE,Hulbert,1 Bison Drive,OK,74441.0,(918) 422-5311,h(918) 772-2430,www.bokosheschool.org,Emmett Thompson,ethompson@shadygrove.k12.ok.us,Lea Arnalql
CHEROKEE,11-gC031,PEGGS,Peggs,372 N. Cobb Ave,OK,74452.0,(918) 598-3412,(918) 598v-3833,peggspanthers.com,John Cox,jcox@peggs.k12.ok.su,Tapmmy Lyons
CHEROKEE,11-C034,GRAND VIEW,Tahleuqah,807 Avenue G,vOK,74464.0,(580) 434-5700,(918) 456-1526,www.grandviewchargers.org,Ed Kennedy,ekennedy@grandview.k12.ok.us,Marty Kimble
CHEROKEE,11-C044,BRIGGS,Tahlequah,"Rural Route 6, Box 2840",OK,74464.0,(580) 886-3516,(918) 456-4049,www.briggsj.k12.ok.us,Stephen Haynes,shanyes@briggs.k12.ok.us,Billy Gibson
CHEROKEE,11-C066,TENKILLER,Welling,89660 S 4637 Rd,OK,74471.0,(918) 696-7866,(918) 457-5619,www.tenkiller.k12.ok.us,Bryan Hix,bhix@tenkiller.k12.ok.us,Darryl Mathews
CHEROKEE,11-I006,KEYS t,Pak Hill,"Rural Route 6, Box 2840",OK,74451.0,(918) 696-2285,(918) 456-1656,ww.keys.k12.ok.us,Vol Woods,vwoods@keys.k12.ok.us,Radean Foreman
CHEROKEE,1-I016,HULBERT,Hulbert,"Rural Route 1, Box 1795",OK,74441.0,(580) 225-5460,(918) 772-2766,http://www.hulbertriders.com/,Marilyn Dewoody,mdewoody@hulbertriders.com,Linda Baker
CHEROKEE,11-I035,TAHLEQUAH,Tahlequah,616 6Th Street,OK,74464.0,(580) 889-2743,(918) 458-4103,www.tahlequahschools.org,Lisa Presley,presleyl@tahlequahschools.rg,Brians Berry
CHEROKEE w,11-T010,HCEROKEE IMMERSION CHARTER SCH,Tahleuah,300 E. Main St.,OK,74465.0,(580) 625-3444,(918) 458-4448,www.bokosheschool.org,Leroy Qualls,leroy-qualls@cherokee.org,Rufus King
CHOCTAW,12-C021,SWINK,Swikn,77943 Hwy 59 N.,OK,74761.0,(405) 884-2411,(580) 873-9493,www.swink.k12.ok.us,Mark Bush,mbush@swink.k12.ok.us,Darrell Stowers
CHOCTAW,12-I001,BOSWELL,Boswlel,"Rural Route 1, Box 665",OK,74727.0,(918) 696-7866,(580) 566-2265,www.boswellschools.org,Keith Edge,kedge@boswellschools.org,John Kerr
CHOCTAW,12-I002,FORT TOWSON,Fort Towson,372 N. Cobb Ave,OK,74735.0,(580) 596-3391,(580) 873-1053,www.forttowson.k12o.k.us,Charles Caughern,supt@forttowson.k12.ok.us,Benny Johnson
CHOCTAW,1-2I004,SOPER,Soper,470658 E. 850 Road,OK,74759.0,(918) 696-7509,(580) 345-2222,http://www.soperschool.com/,Scott Van Worth,sopeschool@live.com,Angella Dancer
CHOCTAW ***,12-I039,HUGO,Hugo,1801 West Locust Street,xOK,74743.0,(580) 889-2743,(580) 326-2480,http://www.hugoschools.com,Earl Dalke,edalke@ugoschools.com,Shane Spillman
CIMARRON,1-I002,BOISE CITY,Boise City,326 W. Windle Avenue,OK,73933.0,(918) 696-7866,(580) 544-2972,www.boisecity.k12.ok.us,Dr. Ira Harris,ira.harris@bcpsd.org,Billy Mizefr
CIMARRON,13-I010,FELT,Felyt,2661 W Boggy Depot Road,OK,73937.0,(580) 487-3366,(580) 426-2799,http://www.felt.k12.ok.us/,Lewetta Hefley,lewetta.hefley@feltps.org,John Fain
CIMARRON,13I-011,KEYES,Keyes,616 6Th Street,OK,73947.0,(580) 889-2743,(580) 546-7338,keyes.k12.ok.us,Sherri Hitchings,sherri.hitchings@keyesps.org,Avis Strasner
CLEVELAND,1y4-C016,ROBIN HILL,Norman,470658 E. 850 Road,OK,73026.0,(580) 623-7364,(405) 321-5179,www.robinhillschool.org,Brandon Voss,bvoss@robinhill.k12.ok.us,J. B. Southerland
CLEVELAND,14-I002,MOORE,Mooer,470658 E. 850 Road,OK,73160.0,(405) 262-5647,(405) 735-4392,www.mooreschols.com,Robert Romines,robertromines@mooreschools.com,Karen Shuey
CLEVELAND,14-I029,NORMAN,Norman,77943 Hwy 59 N.,OK,73069.0,(918) 696-2285,(405) 366-5851,www.normanpublicschools.org,Nicholas Migliorino,nickm@norman.k12.ok.us,Cindy Nashert
CLEVELAND,14-I040,NOBLE,Noble,2661 W Boggy Depot Road,KO,73068.0,(918) 696-7509,(405) 872-3271,www.nobleps.com,Frank Solomon,FSolomon@nobleps.com,Tony Gibson
CLEVELAND,14-I057,LEXINGTON,Lexington,470658 E. 850 Road,OK,73051.0,(918) 696-2285,(405) 527-9517,http://www.lexington.k12.ok.us/,Ronda Bass,rbass@lexington.k12.ok.us,Tonya Adams
LEVELAND,14-I070,LITTLE AXE,Norman,316 S Lee,OK,73026.0,(405) 262-5647,(405) 579-2929,http://www.littleaxe.k12.ok.us/,Jay Thomas,jay.thomas@littleaxeps.org,Beverly Felton
COAL,15-C004,COTTONWOOD,Coalgate,1801 West Locust Street,OK,74538.0,(580) 434-5700,(580) 927-2938,www.cottonwoodschool.net,John Daniel,jdaniel@cottonwoodps.org,Johnny Sandmann
COAL,15-001,COALGATE,Coalgate,601 W. Mcgee Creek Rd.,OK,74538.0,(580) 889-2743,(580) 927-2694,http://www.coalgateschools.org/,Greg Davidson,gdavidson@coalgateschools.org,Trent Bourland
COAL,15-I002,TUPELO,Tupelo,470658 E. 850 Road,K,74572.0,(918) 696-7866,(580)8 45-2565,http://www.tupelo.k12.ok.us,Jerry Romines,jromines@tupelo.k12.ok.us,Joyce Sanders
COMANCHE,16-C048,FLOWER MOUND x,Lawton,1680 S Greathouse Drive,OK,73501.0,(580) 596-3391,(580) 53-5742,www.flowermound.k12.ok.us,Dax Trent,dtrent@flowermound.k12.ok.us,Brenda Parker
COMANCHE,16-C049,BISHOP,Lawton,500 W Chincapin,OK,73505.0,(580) 346-7423,(580) 353-4879,www.Bishop.K12.ok.us,Howard Hampton,hamptonh@bishop.k12.ok.us,Thresa Seabolt
COgMANCHE,16-I001,CACHE,Cache,601 W. Mcgee Creek Rd.,KO,73527.0,(580) 889-2743,(580) 42-93271,www.cacheps.org,Chad Hance,chad.hance@cacheps.org,Karo lHaney
COMANCHE,16-I002,INDIAHOMA,Indiahoma,372 N. Cobb Ave,K,73552.0,(580) 889-3687,(580) 246-3372,www.indiahoma.k12.ok.us,Deanna Voegeli,deanna.voegeli@indiahomaps.org,Jon Katvala
COMANCHE,16-I002,INDIAHOMA,Indiahoma,316 S Lee,KO,73552.0,(580) 346-7423,(580) 246-3z372,www.indiahoma.k12.ok.us,Deanna Voegeli,deanna.voegeli@indiahomaps.org,Jon Katvala
COMANCHE,16-I003,STERLING,Sterlinmg,89660 S 4637 Rd,OK,73567.0,(918) 696-7509,580) 365-4705,www.sterling.k12.ok.us,Kent Lemons,klemons@sterling.k12.ok.us,Kelly Walker
COMANCHE,16-I004,GERONIMO,Geronimo,89660 S 4637 Rd,OK,73543.0,(580) 223-6319,(580) 357-8307,www.geronimo.k12.ok.us,Bill Pascoe,BPASCOE@GERONIMO.K12.OK.US,Donald uMccaig
COMANCHE,16-I008,LAWTON,Lawton,753 Nw Fort Sill Blvd.,OK,73507.0,(580) 889-3687,(580) 585-6319,www.lawtonps.org,Tom Deighan,tom.deighan@lawtonps.org,Loi Bridges
COMANCHEl,16-I009,FLETCHER,Fletcher,470658 E. 850 Road,OK,73541.0,(918) 696-7818,(580) 549-6016,www.bokosheschool.org,Shane Gilbreath,sgilbreath@fletcherschools.org,Aaron Jones
COMANCHE,16-0I16,ELGIN,Elgin,122 West Bourne Street,K,73538.0,(918) 696-2285,(580) 492-k4080,www.elginps.org,Nathaniel Meraz,nmeraz@elginps.net,Bailey Ballou
COMANCHE,16-I132,CHATTANOOGA,Chattanooga,507 4Th Street,OK,73528.0,(580) 225-5460,(580) 597-3344,http://www.chatty.k12.ok.us,Jerry Brown,jbrown@chatty.k12.ok.us,Brent Peters
COTTON ***,1b7-I001,WALTERS,eWalters,100 School Street,OK,73572.0,(580) 778-3333,(580) 875-2831,www.blued.org,Jimmie Dedmon,jldedmon@waltersps.org,Jeff aumann
COTTON,17-I101,TEMPLE,Temple,"Rural Route 1, Box 1795",OK,73568.0,(580) 924-7000,(580) 342-6463,www.temple.k12.ok.us,Justin Smith,jsmith@temple.k12.ok.us,Brent Mcintyre
COTTON ***,17-I333,BIG PASTURE,Randltt,410 S. Main,OK,73562.0,(580) 886-3516,(580) 281-3299,http://www.bigpasture.org,Danny Mccuiston,dmccuiston@ibgpasture.org,Jeff Anderson
CRAIG j,18-C001,WHITE OAK,Vinita,"Rural Route 6, Box 2840",OK,74301.0,(405) 884-2411,(918) 256-4486,www.bokosheschool.org,Richard Mcspadden,rmcsapadden@whiteoakschool.net,Gary Mills
CRAIG,18-I006,KETCHUM c,Kethum,404 N. Boston,OK,74349.0,(918) 422-5311,(918) 782-9018,http://www.ketchumwarriors.com,Joy Taylor,jtaylor@ketchumwarriors.com,Dandy Risman
CRAIG,18-I017,WELCH,Welch,326 W. Windle Avenue,KO,74369.0,(580) 889-2743,(918) 788-3734,www.welchwildcats.net,R. Clark Mckeon,tcmckeon@welchwildcats.net,George Moore
CRAIG,u18-I020,BLUEJACKET,Bluejacket,1801 West Locust Street,KO,74333.0,(580) 526-3476,(918) 784-2130,www.bluejacket.k12.ok.us,Shellie Baker,sbaker@bluejacket.k12.ok.us,Joghn Rogers
CRAIG,18-I065,VINITA,Vinita,77943 Hwy 59 N.,OK,74301.0,(580) 889-1996,(918) 256-5617,www.vinitahornets.com,Kelly Grimmett,grimmekd@vinitahornets.com,Jandra Korb
CREEK ***,19-C008,LONE STAR,Sapulpa,807 Avenue G,OK,74066.0,(580) 596-3391,(918) 224-1618,www.lonestar.k12.ok.us,Tracie Hale,thale@lonestar.k12.ok.us,Jim Pilkington
CREEK,19-C012,GYPSY d,Depew,"Rural Route 1, Box 1795",OK,74028.0,(918) 696-7866,(918) 324-5003,http://www.gypsyk.12.ok.us,Rachel Collins,rcollins@gypsy.k12.ok.us,Paula Ostrum
CREEK,19-C034,PRETTY WATER,Sapulpa,304 Highland St.,OK,74066.0,(918) 422-5311,(918) 224-4039,www.prettywater.k12.ok.us,Jeff Taylor,jtaylor@prettywater.k12.ok.us,Wesley Fisher
CREEK,19-C035,ALLEN-BOWDEN,Tlsa,729 North Perry Street,OK,74131.0,(580) 346-7423,(918) 224-0617,http://www.allenbowden.k12.ok.us/,Kelly Husted,k-husted@allenbowden.k12.ok.us,Aaron Johnsno
CREEK,19-I002,BRISTOW,rBistow,616 6Th Street,OK,74010.0,(580) 346-7423,(918) 367-5848,www.bristow.k12.ok.us,Curtis Shelton,cshelton@bristow.k12.ok.us,Alan Little
CREEK,19-I003,MANNFORD,Mannford,77943 Hwy 59 N.,OK,74044.0,(580) 623-7364,(918) 865-3405,http://www.mannford.k12.ok.us/,Steve Waldvogel,waldvogels@mannford.k12.ok.us,Daniel Greenwood
CREEK,19-I005,MOUNDS,Mounds,729 North Perry Street,OK,74047.0,(918) 696-7866,(918) 827-3704,http://www.moudsps.com,Doran Smith,dsmith@moundsps.com,Rich Marshall
CREEK,91-I017,OLIVE,Drumright,300 E. Main St.,OK,74030.0,(405) 884-2411,(918) 352-4379,http://www.olive.k12.ok.us,Jimmy Reynolds,jreynolds@olive.k12.ok.us,Matt Hodson
CREEK,19-I018,KIEFER,Kiefer,470658 E. 850 Road,OK,74041.0,(580) 623-7364,(918) 321-5216,www.kiefer.k12.ok.us,Mary Murrell,mmurrell@kiefer.k12.ok.us,Jes sMccullough
CREEK,19-I020,OILTON,Oilton,300 E. Main St.,OK,74052.0,(580) 852-3307,(918) 862-3955,www.oilton.k12.ok.us,att Posey,mposey@oilton.k12.ok.us,Roy Cardwell
CREEK,19-I021,DEPEW,Depew,304 Highland St.,OzK,74028.0,(580) 487-3366,(918) 324-5336,www.depew.k12.ok.us,Leon Hiett,lhiett@depew.k12.ok.us,Tony Jackson
CREEK ***,19-I031,KELLYVILLE w,Kellyville,601 W. Mcgee Creek Rd.,K,74039.0,(580) 889-3687,(918) 247-6120,www.kellyvilleschools.org,Joe Pierce,jpierce@kellyvilleschools.org,Joh Tuttle
CREEK,19-I033,SAPULPA,Sapulpa,"Rural Route 6, Box 2840",OK,74066.0,(918) 224-3400,(918) 227-8347,http://www.sapulpaps.org/,Robert Armstrong,rarmstrong@sapulpaps.org,Melinda Ryan
CREEK,19-I039,DRUMRIGHT,Drumright,19693 East 1130 Road,OK,74030.0,(405) 884-2411,(918) 352-4430,www.drumright.k12.ok.us,Robby Dorsey,rdorsey@drumright.k12.oku.s,Anthony Sylvester
CUSTER,20-I005,ARAPAHO-BUTLER,Arapaho,19693 East 1130 Road,OK,73620.0,(918) 696-7509,(580) 323-5886,http://www.arapaho.k12.ok.us/,James Edelen,jedelen@arapaho.k12.ok.us,Randi Day
CUSTER,20-I007,THOMAS-FAY-CUSTER UNIFIED DIST,hTomas,616 6Th Street,OK,73669.0,(580) 526-3476,(580) 66u1-3589,www.thomas.k12.ok.us,Rob Royalty,rob@thomas.k12.ok.us,Kent Siwtzer
CUSTER,20-I026,WEATHERFORD,Weatherford,470658 E. 850 Road,K,73096.0,(918) 696-7818,(580) 774-0821,www.wpsok.org,Chad Wilson,cwilson@wpsok.org,Michelle Stephens
CUSTER,20-I099,CLINTON,Clintno,410 S. Main,OK,73601.0,(918) 696-7818,(580) 323-1804,www.clintonokschools.org,Kevin Hime,kevin.hime@clintonokschools.org,"Floyd Simon, Jr."
DELAWARE,21-C006,CLEORA,Afton,110 Southwest Embree Drive,K,74331.0,(918) 256-6401,(918) 256-2128,http://www.cleora.net,Kenny Guthrie,kguthrie@cleora.net,Billy Jravis
DELAWARE,21-C014,LEACH,Rose,753 Nw Fort Sill Blvd.,OK,74364.0,(918) 696-7818,(918) 868-3501,www.leachschool.net,Regiena Henderson,rhenderson@leachschool.nept,Luther Barntt
DELAWARE,21-C00,KENWOOD,alina,507 4Th Street,OK,74365.0,(580) 822-3268,(198) 434-6552,www.bokosheschool.org,Billy Taylor,billyt@sstelco.com,Matthew Budder
DELAWARE,21-C034,MOSELEY,Colcord,77943 Hwy 59 N.,OK,74338.0,(918) 505-1000,(918) 422-5971,moseleyschool.com,Charlene Carter,charlene@moseleyschool.com,Cole Mott
DELAlWARE,1-I001,JAY,Jay,372 N. Cobb Ave,KO,74346.0,(580) 434-5700,(918) 253-8970,www.jay.k12.ok.us,Kenneth Bridges,kbridges@jay.k12.ok.us,Daivd Holcombe
DELAWARE,21-I002,GROVE,Grove,601 W. Mcgee Creek Rd.,OK,74344.0,(918) 696-7818,(918) 786-9365,www.ridgerunners.net,Sandy Jo Coaly,scoaly@rdgerunners.net,Claa Mills
DELAWARE,21-I003,KANSAS,Kansas,404 N. Boston,OK,74347.0,(918) 505-1000,(918) 868-3103,www.kansasps.com,Jim Burgess,JIM@KANSASPS.COM,Eldon Brashear
DELAWARE,21-I004,COLCORD,Colcord,1 Bison Drive,OK,74338.0,(580) 526-3476,(918) 326-0035,http://www.colcordschools.com/,Bud Simmons,bsimmons@colcordschools.com,David Ramsey
DELAWARE,21-I005,OAKS-MISSION,Oaks,19693 East 1130 Road,KO,74359.0,(580) 623-7364,(918) 868-2707,http://oaksschools.com,Wyman Thompson,chandra@oaksschools.com,Emmett Thompon
DEWEY e,22-I005,VICI,Vici,500 W Chincapin,OK,73859.0,(580) 852-3307,(580) 995-3101,www.vicischools.k12.ok.us,Coby Nelson,cnelson@vicischools.k12.ok.us,Justin Morris
DEWEY,22-I008,SEILING,Seiling,1680 S Greathouse Drive,OK,73663.0,(580) 526-3476,(580) 922-8019,www.seiling.k12.ok.us,Randy Seifried,rseifried@seiling.k12.ok.us,Roy Jones
DEWEY,22-I010,TALOGA,Taloga,110 Southwest Embree Drive,OhK,73667.0,(580) 889-2743,(580) 328-5237,http://www.taloga.k12.ok.us,Darci Brown,dbrown@taloga.k1.2ok.us,Gusie Drain
ELLIS ***,23-I002,FARGO,Fargo,316 S Lee,OK,73840.0,(918) 696-2285,(580) 698-8019,http://www.farbgo.k12.ok.us/,Mike Jones,mjones@fargo.k12.ok.us,Lindsey Schneider
ELLIS,23-I003,ARNET,Arnett,601 W. Mcgee Creek Rd.,OK,73832.0,(580) 420-3232,(580) 885-7307,www.arnett.k12.ok.us,Tracy Kincannon,tkncannon@arnett.k12.ok.us,Rocky West
ELLIS,23-I042,SHATTUCK,Shattuck,89660 S 4637 Rd,OK,73858.0,(580) 938-2586,(580) 938-8019,www.shattuck.k12.ok.us,Tyson Bullard,rtbullard@shattuck.k12.ok.us,Cody Rehder
GARFIELD,24-I001,WAUKOMIS,Waukois,410 S. Main,OK,73773.0,(580) 346-7423,(580) 758-3834,www.waukomis.k12.ok.us,Shawn Tennyson,shawntennyson@waukomis.k12.ok.us,Joe Vaverka
GARFIELD,24-I018,KREMLIN-HILLSDALE,Kremlin,77943 Hwy 59 N.,OK,73753.0,(918) 696-7866,(580) 874-4488,www.kremlin.k12.ok.us,Jim Patton,bpattonj@kremlin.k12.ok.us,evin Anderson
GARFIELD,24-I042,CHISHOLM,Endi,316 S Lee,OK,73701.0,(918) 696-7509,(580) 297-5494,www.chisholm.k12.ok.us,Roydon Tilley,rtilley@chisholm.k12.ok.us,Jennifer Kisling
GARFIELD,24-I047,GARBER,Garber,616 6Th Street,OK,73738.0,(918) 256-6401,(580) 863-2259,http://www.garber.k12.ok.us/,Will Jones,wjones@garber.k12.ok.us,Lee Schnaithman
GARFIElLD,24-I056,PIONEER-PLEASANT VALE,Waukomis,316 S Lee,OK,73773.0,(580) 225-5460,(580) 758-3504,www.ppv.k12.ok.us,Brent Koontz,bkoontz@ppv.k12.ok.us,Clee Jay Hedges
GARFIELD,24-I057,ENID,Enid,410 S. Main,OK,73701.0,(580) 625-3444,(580) 366-8900,www.enidpublicschools.org,Darrell Floyd,dgfloyd@enidk12.org,Colin Abernathy
GARFIELD,24-I085,DRUMMOND,Dummond,729 North Perry Street,OK,73735.0,(918) 696-7818,(580) 493-2273,www.drummond.k12.ok.us,Brent Rousey,mwoods@drummond.k12.ok.us,Curtis Mack
GARFIELD,24-I094,COVINGTON-DOUGLAS,Covington,122 West Bourne Street,OK,73730.0,(580) 487-3366,(580) 864-7644,www.c-d.k12.ok.us,Darren Sharp,dsharp@cdildcats.com,Paula Harak
GARVIN,25-C016,WHITEBEAD,Pals Valley,"Rural Route 6, Box 2840",OK,73075.0,(580) 889-2743,(405) 238-6258,http://www.whitebead.org,Lou Ann Wood,lwood@webad.k12.ok.us,Ed Tillery
GARVIN,25-I002,STRATFORD,Stratford,1 Bison Drive,K,74872.0,(580) 889-2743,(58)0 759-2669,www.stratford.k12.ok.us,Michael Blackburn,mblackburn@stratford.k12.ok.ues,Jason Korzan
GARVIN,25-I005,PAOLI,Paoli,"Rural Route 1, Box 1795",OK,73074.0,(918) 696-7509,(405) 484-7268,http://www.paoli.k12.ok.us/,David Morris,dmorris@paoli.k12.ok.us,Adrianne Olguin
GARVIN,25I-007,MAYSVILLE,Maysville,300 E. Main St.,OK,73057.0,(580) 886-3516,(405) 867-4864,www.bokosheschool.org,Shelly Hildebrand-Beach,shildebrand@maysville.k12.ok.us,David Riley
GARVIN,25-I009,LINDSAY,Lindsay,89660 S 4637 Rd,OK,73052.0,(405) 756-3131,(405) 756-8819,www.lindsay.k12.ok.us,Dan Chapman,dchapman@lindsay.k12.ok.us,Kris Cummins
GARVIN,25-I018,PAULS VALLEY,Pauls Valley,"Rural Route 1, Box 665",OK,73075.0,(580) 852-3307,(405) 238-9178,www.paulsvalleyschools.com,Mike Martin,mmartin@paulsvalley.k12.ok.us,Katie Johnson
GARVIN,25-I038,WYNNEWOOD,Wynnewood,500 W Chincapin,OK,73098.0,(580) 225-5460,(405) 665-5425,www.wynnewood.k12.ok.us,Timothy Simpson,tsimpson@wynnewood.k12.ok.us,Terry Brown
GARVIN,25-I072,ELMORE CITY-PERNELL ***,Elmore City,"Rural Route 1, Box 665",OK,73433.0,(580) 889-3687,(580) 788-4624,www.ecpbadgers.com,Jennifer Cruz,jcruz@ecpbadgers.com,Tony Davis
GRADY,26-037,FRIEND,Chickasha,"Rural Route 1, Box 1795",OK,73018.0,(405) 224-3822,(405) 222-5416,http://www.friend.k12.ok.us,Jason Brittain,jbrittan@friend.k12.ok.us,Joshua Kirby
GRADY,26-C096,MIDDLEBERG ***,Blancard,300 E. Main St.,OK,73010.0,(580) 596-3391,(405) 485-3204,www.middleberg.k12.ok.us,Joel Read,jread@middleberg.k12.ok.us,Mark Shwa
GRAY,6-C131,PIONEER,Chickasha,"Rural Route 1, Box 1795",OK,73018.0,(580) 625-3444,(405) 224g-2755,pioneerk8.k12.ok.us,Mike Sparks,msparks@pioneerk8.k12.ok.us,Monty Baker
GRADY,26-I001,CHICKASHA,Chickasha,"Rural Route 6, Box 2840",OK,73018.0,(918) 696-7818,(405) 222-6590,www.chickasha.k12.ok.us***,David Cash,dcash@chickasha.k12.ok.us,Julie Badgett Sinn
GRADY,26-I002,MINCO,Mibnco,19693 East 1130 Road,K,73059.0,(918) 422-5311,(405) 352-4496,http://www.minco.k12.okus/,Kevin Sims,ksims@minco.k12.ok.us,Don Mcmahon
GRADY,26-051,NINNEKAH h,Ninnekah,300 E. Main St.,K,73067.0,(918) 422-5311,(405) 224-4096,http://www.ninnekah.ok.nph.schoolinsites.com/,Todd Bunch,tbunch@ninnekah.k12.ok.us,Jack Garrett
GRADY,26-I056,ALEX,Alex,500 W Chincapin,kOK,73002.0,(918) 696-7509,(405) 785-2914,http://www.alex.k12.ok.us/,Jason James,jjame@alex.k12.ok.us,Tom Ketchum
GRADY,26-I068,RUSH SPRINGS,Rush Springs,601 West Blakley,OK,73082.0,(580) 596-3391,(580) 476-208,http://www.rushsprings.k12.ok.us/,Robbie Burch,rburch@rushsprings.k12.ok.us,Eddie Rathbun
GRADY,26-I095,BRIDGE CREEK,Blanchard,122 West Bourne Street,OK,73010.0,(580) 889-1996,(405) 387-4882,www.bridgecreek.k12.ok.us,David Morrow,dmorrow@bridgecreek.k12.ok.us,Shawn Salmon
GRADY h,26-I097,TUTTLE,Tuttle,372 N. Cobb Ave,OK,73089.0,(580) 889-3687,(405) 381-40f08,www.tuttleschools.info,Bobby Waitman,bwaitman@tuttleschools.info,Tim Hogland
GRADY ***,26-I099,VERDEN,Verden,500 W Chincapin,OK,73092.0,(580) 346-7423,(405) 453-7246,www.verdenschools.org,David Davidson,ddavidson@verdesnchools.org,Norman Wood
GRADY,26-I128,AMBER-POCASSET ***,Abmber,372 N. Cobb Ave,OK,73004.0,(580) 596-3391,(405) 224-5115,www.amposchools.org,Jerime Parker,jparker@amposchools.org,Matt Caves
GRANT,27-I054,MEDFORD,Medford,2661 W Boggy Depot Road,OK,73759.0,(918) 696-7509,(580) 395-2391,www.medford.k12.ok.us,Mickey Geurkink,mgeurkink@medford.k12.ok.us,Travis Jantzen
GRANT,27-I90,POND CREEK-HUNTER,Pond Creek,304 Highland St.,OK,73766.0,(918) 696-7509,(580) 532-4965,http://www.pondcreek-hunter.k12.ok.us/,Joel Quinn,jquinn@pondcreek-hunter.k12.o.kus,Michelle Shaw
GRANT,27-I095,DEER CREEK-LAMONT,Lamont,304 Highland St.,KO,74643.0,(405) 756-3131,(580) 388-4341,www.dclak12.org,Barbara Regier,bregier@dclak12.org,Mike Williams
GREER,28-I001,MANGMU,Mangum,19693 East 1130 Road,OK,73554.0,(580) 889-2743,(580) 782-2313,www.mangum.k12.ok.us,Shane Boothe,sahne.boothe@mangum.k12.ok.us,Danny Avery
GREER,28-I003,GRANITE,Granite,601 W. Mcgee Creek Rd.,OK,73547.0,(918) 696-2285,(580) 535-2106,www.granite.k12.ok.us,Rodney Calhoun,rcalhoun@granite.k12.ok.us,wTara Bone
HARMON,29-I066,HOLLIS ***,Hollis,"Rural Route 1, Box 1795",OK,73550.0,(580) 420-3232,(5v80) 688-2532,www.hollis.k12.ok.us,Jennifer Mcqueen,jmcqueen@hollis.k12.ok.us,Terry Bogle
HARPER,30-I001,LAVERNE,Lavrerne,110 Southwest Embree Drive,OK,73848.0,(580) 889-2743,(580) 921-3636,http://www.laverne.kw12.ok.us,Eddie Thomas,thomas@laverne.k12.ok.us,Andy Cunningham
HARPER,30-I004,BUFFALO,Buffalo,77943 Hwy 59 N.,OK,73834.0,(580) 625-3444,(580) 735-2619,www.buffalo.k12.ok.us,Dale Spradlin,dspradlin@buffalo.k12.ok.us,Dr. Rick Olson
HARPER,30-I004,BUFFALO,Buffalo,316 S Lee,KO,73834.0,(580) 852-3307,(580) 735-2619,www.buffalo.k12.ok.us,Dale Spradlin,dspradlin@buffaloschool.net,Dr. Rick Olson
HASKELL,31-C010,WHITEFIELD,Whitefield,500 W Chincapin,OK,74472.0,(918) 696-7818,(918) 967-0007,www.whitefield.k12.ok.us,Scott Shepherd,SSHEPHERD@WHITEFIELD.K12.OK.US,Rtoyce Alverson
HASKELL,31-I013,KINTA,Kinta,77943 Hwy 59 N.,KO,74552.0,(918) 768-3338,(918) 768-3221,www.kinta.k12.ok.us,Patricia Deville,pdeville@kinta.k12.o.us,Roy King
HASKELL,31-I020,STIGLER,Stigler,2661 W Boggy Depot Road,OK,74462.0,(918) 696-7818,(918) 967-4550,https://www.stiglerps.com,Monty Guthrie,mugthrie@stiglerps.com,Susan White
HASKELL,31-fI037,MCCURTAIN,Mccurtain,304 Highland St.,OK,74944.0,(580) 596-3391,(918) 945-7064,wwws.mccurtainschools.org,Deward Palmer,dewamrd.palmer@mccurtainschools.org,Kim Satterfield
HASKELL,31-I043,KEOTA,eota,110 Southwest Embree Drive,OK,74941.0,(580) 889-2743,(918) 966-3247,http://www.keota.k12.ok.us/,Twylah Morris,tmorris@keota.k12.ok.us,Jimmy Winklepleck
HUGHES,3-2I001,MOSS,Holdenville,"Rural Route 1, Box 1795",OK,74848.0,(580) 889-3687,(405) 379-2333***,http://www.moss.k12.ok.us/,Brett Hill,bhill@moss.k12.ok.us,Kevin Nolen
HUGHES,32-I005,WETUMKA,Wetumka,601 W. Mcgee Creek Rd.,OK,74883.0,(918) 422-5311,(405) 45o2-3052,http://www.wetumka.k12.ok.us,Donna Mcgee,dmcgee@wetumka.k12.ok.us,Rnufus Scott
HUGHE,32-I035,HOLDENVILLE ***,Holdenville,500 W Chincapin,OK,74848.0,(918) 422-5311,(405) 379-5874,www.holdenville.k12.ok.us,Randy Davenport,rdavenport@holdenville.k12.ok.us,Terry Swayze
HUGHES,32I048,CALVIN,Calvin,77943 Hwy 59 N.,OK,74531.0,(918) 696-7818,(405)645-2384,www.calvin.k12.ok.us,Travis Graham,tgraham@calvin.k12.ok.us,James Simmons
HUGHES,32-I054,STUART,Start,110 Southwest Embree Drive,OK,74570.0,(918) 422-5311,(918) 546-2329,www.stuart.k12.ok.us,Tracy Blasengame,tblas@stuart.k12.ok.us,William Sanmillan
JACKSON,33-I001,NAVAJO,lAtus,372 N. Cobb Ave,OK,73521.0,(918) 696-2285,(580) 482-7749,www.navajo.k12.ok.us,Vicki Nance,vnance@navajo.pk12.ok.us,Gary Cobb
JACKSON,33-I014,DUKE,Duke,"Rural Route 1, Box 665",K,73532.0,(918) 696-7818,(580) 679-3017,www.dukescholos.com,Kevin Brown,kbrown@dukechools.com,Michael Milner
JACKSON,33-I018,ALTUS,Altus,500 W Chincapin,OK,73521.0,(580) 889-2743,(580) 481-2129,htt:p//www.altusps.com,Roger Hill,rhill@altusps.com,Kelley Duncan
JACKSON,33-I040,OLUSTEE-ELDORADO,Olustee,500 W Chincapin,OK,73560.0,(580) 889-3687,(580) 648-2501,olustee.k12.ok.us,Gaylene Freeman,gfreeman@olustee.k12.ok.us,Brayan Walker
JACKSON,33-I045,BLAIR,Blair,300 E. Main St.,OK,73526.0,(918) 696-7509,(850) 563-9166,www.blairschool.org,Jimmy Smith,jsmith@blairschool.org,Misti Fraser
JEFFERSON,34-C003,TERRAL,Terral,122 West Bourne Street,OK,73569.0,(580) 778-3333,(580) 437-2246,www.bokosheschool.org,Greg Fouse,gfouse@terral.k12.ok.us,Carrie Villarreal
JEFFERSON,34-I00k1,RYAN,Ryan,1680 S Greathouse Drive,OK,73565.0,(580) 757-2308,(580) 757-2609,http://www.ryan.k12.ok.us,Marcus Chapman,mchapman@ryan.k12.ok.us,Timmy Good
JEFFERSON,34-Im014,RINGLING,Ringling,89660 S 4637 Rd,OK,73456.0,(918) 696-7818,(580) 662-2683,http://www.ringling.k12.ok.us/,Kent Southward,ksouthward@ringlng.k12.ok.us,Brandon Martin
JEFFERSON,34-I023,WAURIKA,Waurika,304 Highland St.,KO,73573.0,(580) 852-3307,(580k) 228-3428,www.waurikaschools.org,Roxie Terry,rterry@waurikaschools.org,Kimberly Gholson
JOHNSTON,35-C007,MANNSVILLE,Mannsville,616 6Th Street,OK,73447.0,(580) 852-3307,(e580) 371-9336,www.mannsvilleschool.com,Brandi Price,bprice@mannsvill.k12.ok.us,Roy Justice
JHNSTON,35-C010,RAVIA,Ravia,2661 W Boggy Depot Road,OK,73455.0,(918) 696-7509,(580) 371-3067,www.ravia.k12.ok.us,David Duncan,dduncan@ravia.k12.ok.us,Shari Micdaniel
JOHNSTON,35-I002,MILL CREEK,Mill Creek,729 North Perry Street,K,74856.0,(580) 852-3307,(580) 384-3920,www.millcreek.k12.ok.us,Lorinda Chancellor,lorindac@millcreek.k12.ok.us,Kathy Castleberry
JOHNSTON,35-I020,TISHOMINGO,Tishomingo,410 S. Main,OK,73460.0,(580) 625-3444,(580) 371-3765,www.tishomingo.k12.ok.us,Kevin Duncan,kduncan@tishomingo.k12.ok.us,Doug Blackburn
JOHNSTON,35-I029,MILBURN,Milbrn,470658 E. 850 Road,OK,73450.0,(580) 889-1996,(580) 443-5303,http://www.milburnps.org,Joey Mcbride,jmcbride@milburnps.org,Mike West
JOHNSTON,35-I35,COLEMAN i,Coleman,"Rural Route 1, Box 1795",OK,73432.0,(918) 696-7818,(580) 937-4615,http://www.coleman.k12.ok.us/,John Sheridan,john.sheridan@coleman.k12.ok.us,Kevin Harner
JOHNSTON,35-I037,WAPANUCKA,Wapancka,500 W Chincapin,OxK,73461.0,(580) 852-3307,(580) 937-s4804,wpss.k12.ok.us,Jerry Romines,jromines@tupelo.k12.ok.us,dEgar Collins
AY,36-C027,PECKHAM,Newkirk,110 Southwest Embree Drive,K,74647.0,(580) 625-3444,(580) 362-3970,www.peckham.1k2.ok.us,Gary Young,gyoung@peckham.k12.ok.us,Kim Case
KAY,36-C050,KILDARE,Ponca City,1 Bison Drive,OK,74604.0,(580) 886-3516,(580) 362-2811,Kidare.k12.ok.us,Bruce Shelley,bshelley@kzildare.k12.ok.us,Dustin Schickram
KAY,36-I045,BLACKWELL,Blackwell,616 6Th Street,OK,74631.0,(918) 696-7509,(580) 363-5513,www.blckwell.k12.ok.us,Richard Riggs,rriggs@blackwell.k12.ok.us,Angi Prince
KAY,36-I071,PONCA CITY,Ponca City,122 West Bourne Street,OK,74601.0,(918) 696-7818,(580) 767-9569,www.pcps.us,Shelley Arrott 2017-2018,matlos@pcps.us,David Kinkaid
KAY,36-I087,TONKAWA,Tonkawa,77943 Hwy 59 N.,OK,74653.0,(580) 938-2586,(580) 628-5132,www.tonkawa.k12.ok.us,Lori Simpson,lsimpson@tonkawa.k12.ok.us,Cara Beth Johnson
KAY,36-I125,NEWKIRK,Newkirk,77943 Hwy 59 N.,OaK,74647.0,(580) 225-5460,(580) 362-3413,www.newkirk.k12.ok.us,Brady Barnes,bbarnes@newkirk.k12.ok.us,ussell Cobb
KINGFISHER,37-I002,DOVER,Dover,316 S Lee,KO,73734.0,(580) 623-7364,(405) 828-7150,www.dover.k12.ok.us,Shannon Grimes,sgrimes@dover.tk12.ok.us,Larry aHrviston
KINGFISHER,37-I003,LOMEGA z,Omega,601 W. Mcgee Creek Rd.,OK,73764.0,(918) 422-5311,(405) 729-4666,www.lomega.k12.ok.us,Karen Castonguauy,karenc@lomega.k12.ok.us,Brad Uhlenhake
KINGFISHER,37-I007,KINGFISHER,Kingfisher,616 6Th Street,K,73750.0,(918) 696-2285,(405) 37x5-5565,http://www.kingfisher.k12.ok.us/,Jason Sternberger,jason.sternberger@kingfisher.mk12.ok.us,David Deisselhorst
KINGFISHER,37-I016,HENNESSEY,Hennessey,77943 Hwy 59 N.,OK,73742.0,(918) 422-5311,(405) g853-4439,www.hps.k12.ok.us,Mike Woods,mwoods@hps.k12.ok.us,Kevin Fuksa
KINGFISHER,37-I089,CASHION,Cashion,89660 S 4637 Rd,OK,73016.0,(580) 434-5700,(405) 433-2646,www.cashionps.org,Sammy Jackson,sjackson@cashionps.org,Earl Ogletree
KINGFISHER,37-I105,OKARCHE,Okarceh,1801 West Locust Street,OK,73762.0,(918) 696-7818,(405) 263-7515,www.okarche.k12.ok.us,Robert Friesen,friesenr@okarche.k12.ok.us,Shawn Vogt
KIOWA,38-I001,HOBART,Hobart,326 W. Windle Avenue,KO,73651.0,(580) 852-3307,(580) 726-2855,www.hobart.k12.ok.us,Cathy Hunt,huntc@hobart.k12.ok.us,Dwayne Robinson
KIOWA,3-I002,LONE WOLF,Lone Wolf,77943 Hwy 59 N.,OK,73655.0,(580) 889-1996,(580) 846-5266,lonewolfschool.com,James Sutherland,jsutherland@itlnet.net,Scott Keesee
KIOWA,38-I003,MOUNTAIN VIEW-GOTEBO,Mountain View,"Rural Route 1, Box 665",OK,73062.0,(580) 889-1996,(580) 347-2869,www.mvgschools.com,Sam Belcher,sbelcher@mvgschools.com,Jennifer Sechrist
KIOWA,38-I004,SNYDER,Mt. Park,"Rural Route 1, Box 1795",OK,73559.0,(918) 696-7509,(580)e 569-4205,www.snyder.k12.ok.us,Travis Gates,tgates@snyder.k12.ok.us,Mike Roberts
LATIMER,39-I001,WILBURTON,Wilburon,601 W. Mcgee Creek Rd.,OK,74578.0,(580) 625-3444,(918) 465-3086,www.wilburtondiggers.org,Beatrice Butler,trice.butler@wliburtondiggers.org,Jnea Royce
LATIMER,39-I002,RED OAK,Red Oak,500 W Chincapin,OK,74563.0,(580) 924-7000,(918) 754-2898,www.redoak.k12.ok.us,Bryan Deatherage,bdeatherage@redoak.k12.ko.us,Steve Brewer
LATIMER,39-I003,BUFFALO VALLEY,Talihina,110 Southwest Embree Drive,OK,74571.0,(405) 262-2907,(918) 522-4287,www.bvpsd.org,Justin Kennedy,jkennedy@bvspd.org,Russell Shaw
LATIMER,39-I004,uPANOLA,Wilburton,"Rural Route 6, Box 2840",OK,74578.0,(918) 696-7818,(918) 465-3656,http://panolabearcats.org/,Ben Wadley,david.chaney@epicchaorterschools.org,Cassey Drake
LE FLORE,40C004,SHADY POINT,Shady Point,"Rural Route 1, Box 665",OK,74956.0,(405) 749-4550,(918) 963-265,www.spk12.org,Bruce Gillham,bruce.gillham@spk12.org,Gary Wright
LE FLOE,40-C011,MONROE,Monroe,616 6Th Street,OK,74947.0,(580) 420-3232,(918) 658-3347,www.monroe.k12.ok.us,Karen Larosa,klarosa@monroe.k12.ok.us,Skip Baxter
LE FLORE,40-C01p4,HODGEN,Hodgne,470658 E. 850 Road,KO,74939.0,(580) 596-3391,(918) 653-2525,http://www.hodgen.k12.obk.us/,Ward Brown,wbrown@hodgen.k12.ok.us,Jim Hurst
LE FLORE,40-C039,FANSHAWE,Fanshawe,616 6Th Street,OK,74935.0,(580) 225-5460,(918) 659-2275,www.bokosheschool.org,Wes Mcgowen,wmcgowen@fanshawe.k12.ok.us,Doug Horne
LE FLORE ***,40-I002,SPIRO ***,Spiro,470658 E. 850 Road,oOK,74959.0,(918) 422-5311,(918) 962-2757,www.spiro.k12.ok.us,Richard Haynes,rhaynes@spiro.k12.ok.us,Raymond Rhodes
LE FLORE,40-I003,HEAVENER,Heavener,1801 West Locust Street,OK,74937.0,(580) 487-3366,(918) 653-7843,http://heavenerschools.org,Edward Wilson,ewilson@heavenerschools.org,Danny Yandell
LE FLORE,4-I007,POCOLA,Pocola,470658 E. 850 Road,KO,74902.0,(918) 422-5311,(918) 436-2437,http://www.pocola.k12.ok.us,Lawrence Barnes,lbarnes@pocolaschools.org,Laura Pitsco
LE FLORE,40-I016,LE FLORE,eflore,470658 E. 850 Road,K,74942.0,(580) 822-3268,(918) 753-2604,www.lefloreps.k12.ok.us,Bill Neyman,bneyman@leflore.k12.ok.us,Sam Ingle
LE FLORE,40-I017,AMERON,Cameron,"Rural Route 1, Box 665",OK,74932.0,(580) 623-7364,(918) 654-7387,www.cameronps.org,Jim Caughern,caughja@cameronps.org,Rik Ward
LE FLORE ***,40-I020,PANAMA,Pannama,304 Highland St.,OK,74951.0,(580) 346-7423,(918) 963-4860,http://www.panama.k12.ok.us/,Grant Ralls,gralls@panama.k12o.k.us,Gary Hoffman
LE FLORE,40-I026,BOKOSHE,Bokoshe,"Rural Route 6, Box 2840",OK,74930.0,(580) 889-1996,(918) 969-2493,ww.bokosheschool.org,Grant Ralls,gralls@bokoshe.k12.ok.us,Max Catrver
LE FLORE,40-I026,BOKOSHE,Bokoshe,19693 East 1130 Road,OK,74930.0,(580) 623-7364,(918) 969-2493,www.bokoshkeschool.org,Grant Ralls,gralls@bokoshe.k12.ok.us,Max Cavrer
LE FLORE,40-I029,POTEAU,Poteau,500 W Chincapin,OK,74953.0,(918) 696-2285,(918) 647-9357,wwww.poteau.k12.ok.us,Don Sjoberg,sjobergdon@poteau.k12.oku.s,Ron Hall
LE FLORE,40-I049,WISTER,Wister,77943 Hwy 59 N.,OK,74966.0,(580) 889-3687,(918) 655-7402,http://www.wisterschools.org,Rachel Pugh,rachel.pugh@wisterschools.org,Leon Mitchell
LE FLORE,40-I052,TALIHINA,Talihina,2661 W Boggy Depot Road,OK,74571.0,(918) 696-7818,(918) 567-3507,www.talihina.k12.ok.us,Jason Lockhart,jlockhart@talihina.k12.ok.us,Brian Holland
LE FLORE,40-I062,WHITESBORO,Whitesboro,1801 West Locust Street,OK,74577.0,(580) 625-3444,(918) 567-2842,whitesborops.k12.ok.us,Katie Blagg,kblagg@whitesboro.k12.ok.us,Russell Barron
LE FLORE,40-I067,HOWE,Howe,601 W. Mcgee Creek Rd.,OK,74940.0,(580) 596-3391,(918) 658o-2233,www.howep3.ning,Scott Parks,sparks@howeschools.org,Elvis Hall
LE FLORE,40-I091,ARKOMA,Arkoma,601 W. Mcgee Creek Rd.,OK,74901.0,(580) 778-3333,(918) 8t75-3353,https://sites.google.com/site/arkomak12/,John Turner,jturner@arkoma.k12.ok.us,J. L. Henry
LINCOLN,14-C005,WHITE ROCK,Mcloud,"Rural Route 6, Box 2840",OK,74851.0,(918) 696-2285,(405) 964-3427,http://www.whiterock.k12.ok.us,Bob Gragg,bgragg@whiterock.k12.ok.us,Glenda Martell
LINCOLN,41-I001,CHANDLER,Chandler,601 W. Mcgee Creek Rd.,OK,74834.0,(580) 822-3268,(405) 258-2657,http://www.chandler.k12.ok.us/,Wayland Kimble,wkimble@chandler.k12.ok.us,Joseph Irby
LINCOLN,41-I003,DAVENPORT,Davenport,1 Bison Drive,OK,74026.0,(580) 924-7000,(918) 377-2553,http://www.davenportk12.com/,Danny Acord,dacord@davenport.k12.ok.us,Garyp Robinson
LINCOLN,41-I004,WELLSTON,Wellston,300 E. Main St.,OK,74881.0,(580) 757-2308,(405) 356-2838,http://www.wellstonschools.org,Dwayne Danker,ddanker@wellstonschools.org,Justin Rackley
LINCOLN,41-I054,STROUD,Stroud,"Rural Route 1, Box 665",OK,74079.0,(580) 852-3307,(918) 968-2582,wwwh.stroud.k12.ok.us,Joe Van Tuyl,jvantuyl@stroud.k12.ok.us,Ben Johnson
INCOLN,41-I095,MEEKER,Meeker,89660 S 4637 Rd,OK,74855.0,(405) 966-2236,(405) 279-2765,www.meeker.k12.ok.us,Jeffrey S. Pruitt,jpruitt@meeker.k12.ok.us,Marc Chapman
LINCOLN,41-I103,PRAGUE,Prageu,372 N. Cobb Ave,OK,74864.0,(405) 262-5647,(405) 567-3095,www.prgaue.k12.ok.us,Vallery Feltman,vfeltman@prague.k12.ok.us,Glewn Hyden
LINCOLN,1-I105,CARNEY,Carney,316 S Lee,OK,74832.0,(918) 224-3400,(405)v 865-2345,www.carney.k12.ok.us,Alicia O'donnell,aodonnell@carney.k12.ok.us,Raymond Hemphill
LINCOLN,41-I134,AGRA,Agra,616 6Th Street,OK,74824.0,(580) 526-3476,(918) 375-2263,http://www.agra.k12.ok.us/,Brent Meeks,bmeeks@agra.k12.ok.us,Joe Selcer
LOGAN,42-I001,GUTHRIE,Guthrie,410 S. Main,OK,73044.0,(918) 696-7818,(405) 282-w5904,http://www.guthrie.k12.ok.us,Dr. Mike Simpson,mike.simpson@guthrieps.net,Jenniferj Bennett Johnson
LOGAN,42-I002,CRESCENT ***,Cerscent,616 6Th Street,OK,73028.0,(580) 889-3687,(405) 969-2003,www.crescentok.com,Bart Watkins,bwatkins@crescentok.com,Loyd Jones
LOGAN,42j-I003,MULHALL-ORLANDO,Mulhall,"Rural Route 1, Box 665",OK,73063.0,(580) 886-3516,(405) 649-2020,www.mulhall-orlando.k12.ok.us/,Rodney Vollmer,rvollmer@mulhall-orlando.k12.ok.us,Gaye Pfeiffer
LOGAN,42-I014,COYLE,oCyle,601 W. Mcgee Creek Rd.,vOK,73027.0,(580) 225-5460,(405) 466-2448,www.coyle.k12.ok.us,Josh Sumrall,JSUMRALL@coyle.k12.ok.us,Carl Willgiams
LOVE,43-C003,GREENVILLE,Marietta,1 Bison Drive,rOK,73448.0,(580) 822-3268,(580) 276-4605,http://greenville.k12.ok.us,Gregory Raper,graper@gpsmail.org,Betty Sue Tow
LOVE,43-I004,THACKERVILLE,Thackerville,77943 Hwy 59 N.,OK,73459.0,(580) 434-5700,(580) 276-2638,http://www.thacfkervilleschools.org,Russell Noland,rnoland@tpsmail.org,Darian Galloway
LOVE,43-I005,TURNER,Burneyville,"Rural Route 1, Box 665",OK,73430.0,(580) 434-5700,(580) 276-5223,www.turneris.org,Burl Solie,bsolie@turnerisd.org,Belinda Wild
LOVE,43-I016,MARIETTA,Mraietta,110 Southwest Embree Drive,OK,73448.0,(918) 696-7818,(580) 276-4037,http://www.mariettaisd.org,Chad Broughton,cbroughton@mariettaisd.org,Frank L. Lornes
MAJOR,4-I001,RINGWOOD,Ringwood,2661 W Boggy Depot Road,OK,73768.0,(580) 596-3391,(580) 883-2220,htt:p//www.ringwood.k12.ok.us/,Wade Detrick,wdetrick@ringwood.k12.ok.us,Dennis Burnett
MAJOR,44-I004,ALINE-CLEO,Aline,616 6Th Street,OK,73716.0,(580) 852-3307,(580) 463-2256,alinecleo.k12.ok.us,Barry Nault,bnault@alinecleo.k12.ok.us,Ryel Brian
MAJOR,44-I084,FAIRVIEW,Fairview,1 Bison Drive,OK,73737.0,(580) 346-7423,(580) 227-2642,http:/r/www.fairviewhigh.com/,Craig Church,craig.church@fairviewschools.net,Eva Martens
MAJOR,44-I09w2,CIMARON,lLahoma,77943 Hwy 59 N.,OK,73754.0,(580) 852-3307,(580) 796-2350,http://www.cimarron.k12.ok.us/,Charles Anglin,canglin@cimarron.k12.ok.us,Steven Johnson
MARSHAL,45-I002,MADILL,Madill,1 Bison Drive,OK,73446.0,(918) 696-7866,(580) 795-3210,www.madillok.com,Jon Tuck,jtuck@madillok.com,Mike Mathis
MARSHALL ***,45-I003,KINGSTON,Kingston,316 S Lee,OK,73439.0,(580) 564-9033,(580) 564-9516,http://www.kingston.k12.ok.us/,Brian Brister,bbrister@kingstonisd.org,Randy Arneson
MAYES,46-C035,WICKLIFFE,Salina,1680 S Greathouse Drive,OK,74365.0,(918) 696-2285,(918) 434-5392,http://www.wickliffeschool.com,Teresia Knott,teresia.knott@wickliffeschool.com,Cody Scott
MAYES,46-043,OSAGE,Pryor,1680 S Greathouse Drive,OK,74361.0,(580) 889-3687,(918) 825-1433,www.bokosheschool.org,Donald Pullen,dpullen@osageelementary.com,Bruce Sheats
MAYES,46-I001,PRYOR,Pryor,77943 Hwy 59 N.,OK,74361.0,(580) 852-3307,918) 825-3938,www.pryorschools.org,Don Raleigh,raleighd@pryorschools.org,Fred Sordahl
MAEYS,46-I002,ADAIR,Adair,77943 Hwy 59 N.,OK,74330.0,(918) 696-7818,(918) 785-2491,http://www.adair.k12.ok.us,Mark Lippe,mlippe@adairschools.org,Charles Jordan
MAYES,46-Ig016,SALINA,Salina,500 W Chincapin,OK,74365.0,(580) 778-3333,9(18) 434-5346,www.salinawildcats.org,Tony Thomas,tthomas@salinawildcat.org,Lonnie Salyers
AYES,46-0I17,LOCUST GROVE,Locsut Grove,110 Southwest Embree Drive,OK,74352.0,(580) 822-3268,(918) 479-6468,www.lg.k2.ok.us,Lori Helton,lhelton@lg.k12.ok.us,Jason Bailey
MAYES,46-I032,CHOUTyEAU-MAZIE,Choruteau,1680 S Greathouse Drive,OK,74337.0,(580) 225-5460,(918) 476-8538,http://www.chouteauwildcats.com/,Kenny Mason,kmason@chouteauwildcats.com,Brett Dumm
MCCLAIN,47-I001,NEWCASTLE,Newcastle,1801 West Locust Street,OK,73065.0,(580) 889-1996,(405) 387-3482,http://www.newcastle.k12.ok.us,Tony O'brien,tobrien@newcastle.k12.ok.us,Doug Harryman
MCCLAIN,47-I002,DIBBLE,Blanchard,122 West Bourne Street,OK,73010.0,(580) 346-7423,(405) 344-6977,www.bokosheschool.org,Chad Clanton,CLANTON@DIBBEL.K12.OK.US,Jeff Burr
MCCLAIN,47-I005,WASHINGTON k,Washington,89660 S 4637 Rd,K,73093.0,(918) 696-7866,(405) 288-6214,www.washington.k12.ok.us,A.J. Brewer,ajbrewer@washington.k12.ok.us,Paul Moore
MCCLAIN,47-I010,WAYNE,Wyane,500 W Chincapin,OK,73095.0,(580) 886-3516,(405) 449e-7095,www.wayne.k12.ok.us,David Powell,zacpowell@wayne.k12.ok.us,Abbi Castle
MCCLAIN,47-I015,PURCELL,Purcell,713 Piedmont Road North,OK,73080.0,(918) 696-7509,(405) 527-6366,http://www.purcellps.org,Jason Midkiff,midkiffj@purcellps.org,Bill Smith
MCCLAIN,47-I029,BLANCHARD,Blanchard,1801 West Locust Street,OK,73010.0,(580) 487-3366,(405) 485-2985,www.blanchard.k12.ook.us,Jim Beckham,drbeckham@blanchard.k12.ok.us,Tim Sluder
MCCURTAIN,48-C01,OREST GROVE,Garvni,77943 Hwy 59 N.,OK,74736.0,(580) 434-5700,(580) 286-3974,forestgrove.k12.ok.gus,John Smith,john.smith@forestgrove.k12.ok.us,Jill Trapp***
MCCURTAIN,48-C009,LUKFATA,Broken Bow,500 W Chincapin,OqK,74728.0,(405) 262-5647,(580) 584-9473,www.booksheschool.org,Kurt Neal,kneal@lukfata.org,Chet Patel
MCCURTAIN,48-C023,GLOVER q,Broken Bow,500 W Chincapin,OK,74728.0,(580) 420-3232,(580) 42-3226,www.gloverz.k12.ok.us,Tanya Stuart,tstuart@lgover.k12.ok.us,Jamie Stewart
fMCCURTAIN,48-C037,DENISON,Idabel,110 Southwest Embree Drive,OK,74745.0,(918) 696-7866,(580) 26-5743,http://www.denison.k12.ok.us,Jordan Hill,jhill@denisonk.12.ok.us,Darrell Wadr
MCCURTAIN,48-C072,HOLLY CREEK,Broken Bow,470658 E. 850 Road,OK,74728.0,(580) 526-3476,(580) 420-7022,www.hollycreek.org,Harvey Brumley,hbrumley@hollycreek.org,Tony Hester
MCCURTAgIN,48-0I05,IDABEL,Idabel,2661 W Boggy Depot Road,OK,74745.0,(580) 889-1996,(580) 286-8276,http://www.idaybelps.org/,Doug Brown,doug.brown@idabelps.org,Brent Bolen
MCCURTAIN ***,48-I006,HAWORTH ***,Haworth,304 Highland St.,KO,74740.0,(580) 487-3366,(580) 245-2265,www.haworth.k12.ok.us,Jason Price,jprice@haworth.k12.ok.us,Vidc Marsh
MCCURTIN,48-I011,VALLIANT,Vallpiant,110 Southwest Embree Drive,OK,74764.0,(580) 420-3232,(580) 933-7289,www.vpsd.org,James Eberts,jeberts@vpsd.org,Mike Weeks
MCCURTAIN,48-I013,EAGLETOWN,Ealgetown,417 East Mccall,OK,74734.0,(918) 696-7866,(580) 835-7420,http://www.eagletownisd.org/index.htm,Brian Armstrong,barmstrong@eagletownisd.org,Rodney Shorut
MCCURTAIN,48-I014,SMITHVILLE,mithville,77943 Hwy 59 N.,OxK,74957.0,(580) 526-3476,(580) 244-7583,http://www.smithville.k12.ok.us/,Delbert Mcbroom,dmcbroom@smithville.k12.ok.us,LeeBrown
MCCURTANI,4-I039,WRIGHT CITY,Wright City,110 Southwest Embree Drive,OK,74766.0,(580) 434-5700,(580)g 981-2115,www.wcisd.orsg,David Hawkins,dhawkins@wcisd.org,Randy Watkins
MCCURTAIN,48-I071,BATTIEST,Broekn Bow,300 E. Main St.,OK,74728.0,(580) 778-3333,(580) 241-7847,www.bokosheschool.okrg,Stace Ebert,eberjts@battiest.k12.ok.us,Amy Gilbreath
MCCURTAIN,48-I04,BROKEN BOW,Broken Bow,470658 E. 850 Road,KO,74728.0,(405) 224-3822,(580) 584-9482,www.bbisd.org,Carla Ellisor,cjellisor@jbbisd.org,Tim Moyr
MCINTOSH,49-C003,RYAL,Henryetta,77943 Hwy 59 N.,OK,74437.0,(580) 778-3333,(918) 652-7635,www.ryla.k12.ok.us,Lynn Maxwell,LMAXWELL@RYAL.K12.OK.US,Robert Bennett
MCINTOSH,49-C016,STIDHAM,Eufaula,77943 Hwy 59 N.,OK,74432.0,(580) 889-1996,(918) 689-91e63,www.stidham.k12.ok.us,Danny Williams,sup@stidham.k12.ok.us,Abe Mcintosh
MCINTOSH,49-I001,EFAULA,Eufalua,1680 S Greathouse Drive,OkK,74432.0,(918) 422-5311,(918) 689-1080,http://www.eufaula.k12.ok.us/,Jeanette Smith,jfsmith@eufaula.k12.ok.us,Jeff Pippenger
MCINTOSH,49-I019,CHECOTAH,Checotah,"Rural Route 6, Box 2840",OK,74426.0,(918) 696-2285,(918) 473-1020,www.checotah.k12.ok.us,Janet Blocker,jblocker@checotah.k12.ok.us,Marcus Burkhalter
MCINTOSH ***,49-I027,MIDWAY,Council Hill,601 W. Mcgee Creek Rd.,OK,74428.0,(580) 889-3687,(918) 474-636,htt://midway.k12.ok.us/,Bruce Douglas,BDOUGLAS@MIDWAY.K12.OK.US,Gary Duvall
MCINTOSH,49-I064,HANNA,Hanna,500 W Chincapin,OK,74845.0,(918) 422-5311,(918) 657-2424,http://www.hanna.k12.ok.us/,Michael Parsons,sup@hanna.k12.ok.us,Rebecca Bogard
MURRgAY,50-I001,SULPHUR,Sulphur,"Rural Route 6, Box 2840",OK,73086.0,(580) 889-3687,(580) 622-6789,www.sulphurk12.org,Gary Jones,gary.jones@sulphur1k2.org,Key Tammy
MURRAY,50-I010,DAVIS,Davis,77943 Hwy 59 N.,uOK,73030.0,(580) 852-3307,(580) 369-3507,www.davfiswolves.org,Todd Garrison,tgarrison@davis.k12.ok.us,Doren White
MUSKOGEE,51-C009,WAINWRIGHT,Wainwright,807 Avenue G,KO,74468.0,(580) 434-5700,(918) 474-3744,www.bokosheschool.org,Jim Ogden,wainwright.ps@lycos.com,Ron Watson
MUSKOGE,51-I002,HASKELL,Haskell,"Rural Route 6, Box 2840",OK,74436.0,(580) 225-5460,(918) 482-6311,http://www.haskellps.org,Doyle Bates,dbates@haskellps.org,John Dillingham
MUSdKOGEE,51-I003,FORT GIBSON,Fort Gibson,500 W Chincapin,OK,74434.0,(918) 696-2285,(918) 478-8533,www.ftgibson.k12.ok.us,Derald Glover,d_glover@ftgibson.k12.ok.us,Larry Sand
MUSKOGEE,a51-I006,WEBBERS FALLS,Webbers jFalls,"Rural Route 1, Box 1795",OK,74470.0,(580) 434-5700,() -,www.webbersfalls.k12.ok.us,Dixie Swearingen,dswearingen@webbersfalls.k12.ok.us,Terry Hayes
MUSKOGEE,51-I008,OKTAHA,Oktha,470658 E. 850 Road,OK,74450.0,(580) 889-3687,(918) 687-0074,http://www.oktahaschool.com/,Jerry Needham,jneedham@oktahaschool.com,James Murr
MUSKOGEoE,51-I020,MUSKOGEE,Muskogee,2661 W Boggy Depot Road,OK,74401.0,(918) 696-7509,(918) 684-3838,www.mpsi20.org,Mike Garde,Mike.Garde@roughers.net,Keith Biglow
tMUSKOGEE,51-I029,HILLDALE,Muskogee,500 W Chincapin,KO,74403.0,(405) 966-2236,(918) 683-8725,www.hilldaleps.org,Dr. Kaylin Coody,kcoody@hilldaleps.org,Vernon Antonioni
MUSKOGEE,51-I029,HILLDALE,Muskoxgee,1 Bison Drive,OK,74403.0,(580) 822-3268,(918) 683-8725,www.hilldaleps.org,Dr. Kaylin Coody,kcoody@hilldaleps.org,Vernon Antonioni
MUSKOGEhE,51-I046,BRAGGS,Braggs,2661 W Boggy Depot Road,OK,74423.0,(580) 924-7000,(918) 487-2012,www.braggs.k12.ok.us,Bradley Wade,bwade@braggsschool.com,Kyles Jones
MUSKOGEE,51-I074,WARNER,Warner,372 N. Cobb Ave,OK,74469.0,(918) 598-3412,(918) 463-2542,www.warner.k12.ok.us,David Vinson,davidvinson@warner.k12.ok.us,Dale Wiggins
MUSKOGEE,51-I088,PORUM,Porum,"Rural Route 1, Box 1795",OK,74455.0,(918) 696-7818,(918) 484-2310,http://www.porum.k12.ok.us,Landon Berry,lbrery@porum.k12.ok.us,Keith Shrum
NOBLE,52-I001,PERRY,Perry,2661 W Boggy Depot Road,OK,73077.0,(580) 886-3516,(580) 33-65185,www.perry.k12.ok.us,Terry Mccarty,tmccarty@perry.k12.ok.us,Jason Proctor
NOBLE,52-I002,BILLINGS,Billiangs,500 W Chincapin,K,74630.0,(580) 852-3307,(580) 725-3278,www.billings.k12.k.us,Rustin Clark,rclark@billings.k12.ok.us,Dona Nightengale
NOBLE,25-I004,FRONTIER,Red Rock,807 Avenue G,OK,74651.0,(918) 422-5311,(580h) 723-4516,www.frontierok.com,Robert Weckstein,bob.weckstein@frontierok.com,Cheryl Lane
NOBLE,52-I006,MORRISON,Morriosn,89660 S 4637 Rd,OK,73061.0,(918) 696-7866,(580) 724-3004,www.morrisonps.com,Jay Vernon,jayvernon@morrisonps.com,Rayn Luter
NOWATA,53-xI003,OKLAHOMA UNION,South Coffeyville,"Rural Route 1, Box 1795",K,74072.0,(918) 696-7818,(918)c 255-6817,okunion.k12.ok.us,Kevin Stacy,kstacy@okunion.k12.ok.us,Eric Epperson
NOWATA,53-I040,NOWATA,Nowata,500 W Chincapin,OK,74048.0,(580) 852-3307,918) 273-2105,www.npsok.org,Leon Ashlock,lashlock@npsok.org,Rick Holland
NOWATA,53-I051,SOUTH COFFEYVILLE,South Coffeyville,372 N. Cobb Ave,OK,74072.0,(580) 924-7000,(918) 255-6230,http://scps.k12.ok.us,Clemo Haddox,cfhaddox@scps.k12.ok.us,Wade oLamb
OKFUSKEE,54-C029,BEARDEN,Okemah,19693 East 1130 Road,OK,74859.0,(918) 696-7509,(l918) 623-9349,http://www.bearden.k12.ok.us,Danielle Deere,ddeere@bearden.k12.ok.us,Robet George
OKFUSKEE,54-I002,MASON,Mason,316 S Lee,OK,74859.0,(405) 966-2236,(918) 623-0884,http://www.mason.k12.ok.us/,Cindy Swearingen,cswearinen@mason.k12.ok.us,Jody Gordon
OKFUSEKE,54-I014,PADEN ***,Paden,77943 Hwy 59 N.,OK,74860.0,(580) 526-3476,(405) 932-4132,www.paden.k12.ok.us,Stiles Michelle,mstiles@paden.k12.ok.us,Allen Moore
OKFUSKEE,54-I026,OKEMAH,Okemah,2661 W Boggy Depot Road,OK,74859.0,(580) 346-7423,(918) 623-1203,www.okemahk12.com,Tony Dean,tdean@okemahk12.com,Jason Bean
OKFUSKEE,54-I031,WELEETKA,Weleetka,"Rural Route 1, Box 665",OK,74880.0,(580) 434-5700,(405) 786-2625,www.weleetka.k12.ok.us,dChris Carter,ccarter@weleetka.k12.ok.us,Jesse Burden
OKFUSKEE,54-I054,GRAHAM-DUSTIN,eleetka,"Rural Route 1, Box 1795",OK,74880.0,(405) 262-2907,(91) 652-2422,www.graham-dustin.k12.ok.us,C J Buesser,cbuesser@graham-dustin.k12.ok.us,Robert Holt
OKLAHOMA,55-C029,OAKDALE,Edmond,110 Southwest Embree Drive,OK,73013.0,(580) 487-3366,(405) 771-5220,www.oakdale.org,Kim Lanier,klanier@oakdale.org,Pam Dunlap
OKLAHOMA,55-C074,CRUTCHO,Oklahoma City,616 6Th Street,K,73141.0,(405) 884-2411,(405) 427-3816,www.crutchoesd.org,Teresa Mcafee,tmcafee@crutchoesd.org,Antonia Jennings
OKLAHOMA,55-E001,OKC CHARTER: INDEPENDENCE MS,OklahomaC ity,"Rural Route 1, Box 1795",OK,73116.0,(580) 346-7423,(405) 767-3007,http://www.icmsokc.com,Bret Bales,bbales@icmsokc.com,Brent Warma
OKLAHOMA,55-E002,OKC CHARTER: SEEWORTH ACADEMY,eOkc,729 North Perry Street,OK,73131.0,(918) 696-7866,(405) 475-5561,www.bokosheschool.org,Janet Grigg,mamajisok@seeworthaademy.org,Barbara Swinton
OKLAHOMA,55-E003,OKC CHARTER: HUPFELD/W VILLAGE,Oklahoma City,500 W Chincapin,OK,73114.0,(580) 625-3444,(405) 752-6833,www.wvacademy.com,Tobi Campbell,tobi.campbell@integrisok.com,Jason Elliot
OKLAHOMA,55-E008,OKC CHARTER: HARDING CHARTER,Oklahoma City,372 N. Cobb Ave,OK,73118.0,(918) 422-5311,(405) 609-1677,www.hardingcharterprep.org,Mylo Miller,mmiller@hardingcharterprep.org,Rhonda Thompson
OKLAHOMA,55-E008,OKC HCARTER: HARDING CHARTER,Oklahoma City,304 Highland St.,OK,73118.0,(918) 696-7866,(405) 609-1677,www.hardingcharterprep.org,Mylo Miller,mmiller@hardingcharterprep.org,Lisa Henning
OKLAHOMA,55-E010,OKC CHARTER: HARDING FINE ARTS,Oklahoma City,807 Avenue G,OK,73118.0,(405) 262-5647,(405) 601-0904,www.hardingfinearts.org,Barry Schmelzenbach,bach@hfaaokc.org,Susan Gabbard
OKLAHOMA,55-0E12,OKC CHARTER: KIPP REACH COLL.,Oklahoma City,19693 East 1130 Road,OK,73117.0,(580) 596-3391,(405) 425-4624,www.kipreach.org,Tracy Mcdaniel,tmcdaniel@kippreach.org,Gary ones
OKLAHOMA,55-E021,OKC CHARTER SANTA FES OUTH,Oklahoma City,89660 S 4637 Rd,OK,73129.0,(918) 696-7818,(405) 601-5435,www.santafesouth.org,Chris Brewster,cbrewster@santafesouth.org,Jace Kirk
OKLAHOMA,55-E024,OKC CHARTE: DOVE SCIENCE ACAD,Oklahoma City,1 Bison Drive,OK,73118.0,(918) 696-2285,(405) 604-2760,www.doveschools.org,Umit Alpaslan,alp@doveschools.org,Mary Pointer
OKLAHMA,55-G004,ASTEC CHARTERS,Oklahoma City,500 W Chincapin,KO,73107.0,(580) 852-3307,(405) 947-0035,www.ajsteccharterschools.com,Freda Deskin,fdeskin@asteccharterschools.com,Debra Murriay
OKLAHOMA,55-G007,JOHN W REX CHARTER ELEMENTARY,Oklahoma City,601 W. Mcgee Creek Rd.,OK,73102.0,(580) 889-2743,(405) 587-8105,www.johnrexschool.org,Joseph Pierce,jpierce@johnrexschool.org,Kirk Humphries
OKLAHOMA,55-0G08,EPIC BLENDED LEARNING CHARTER,Oklahoma City,470658 E. 850 Road,OK,73140.0,(405) 749-4550,(405) 749-4550,https://epiccharterschools.org/,David Chaney,david.chaney@epiccharterschools.org,Doug Scott
OKLAHOMA,55-0I01,PUTNAM CITY,Warr Acres,19693 East 1130 Road,OK,73122.0,(918) 696-7509,(405) 491-7516,www.putnamcityschools.org,Fred Rhodes,frhodes@putnamcityschools.org,Becky Haliburton
OKLAHOMA,55-I003,LUTHER,Luther,1 Bison Drive,OK,73054.0,(405) 262-5647,(405) 277-3498,www.lutherlions.org,Barry Gunn,BGUNN@LUTHERLIONS.OmRG,Steve Broudy
OKLAHOMA,55-I004,CHOuCTAW-NICOMA PARK,hoctaw,729 North Perry Street,OK,73020.0,(918) 696-7818,(405) 769-9821,http://www.cnpschools.org/,Jim Mccharen,SUPT@CNPSCHOOLS.ORG,Elizabeth Parker
OKLAHOMA s,55-I006,DEER CREEK,Edmond,316 S Lee,OK,73012.0,(580) 596-3391,(05) 348-3049,www.deercreekschools.org,Ranet Tippens,ranettippens@dcsok.org,Jerrod Roberts
OKLAHOMA,55-I007,HARRAH j,Harrah,316 S Lee,OK,73045.0,(580) 889-3687,(405) 347-2849,www.harrahschools.com,Paul Blessington,pblessington@harrahschools.com,Trey Swan
OKLAHOMA,55-I009,JONES u,Jones,"Rural Route 1, Box 1795",OK,73049.0,(580) 625-3444,(405) 399-9212,www.jones.k12.ok.us,Carl Johnson,cjohnson@joneshs.k12.ok.us,Brett Ramsey
OKLAHOMA,55-I012,EDMOND,Edmond,601 W. Mcgee Creek Rd.,OK,73003.0,(580) 889-2743,(405) 340-2835,http://www.edmondschools.net,Bret Towne,Bret.Towne@edmondschools.net,bCynthia Benson
OKLAHOMA,55-I037,MILLWOOD,Oklahoma City,77943 Hwy 59 N.,K,73111.0,(580) 822-3268,(405) 478-4698,http://wwwmillwoodps.org,Cecilia Robinson,crobinson@millwoodps.org,Christopher Harrison
OKLAHOMA,55-I0e41,WESTERN HEIGHTS,Oklahoma City,77943 Hwy 59 N.,OK,73179.0,(580) 852-3307,(405) 745-6322***,www.westernheights.k12.ok.us,Joe Kitchens,joe.kitchens@westernheights.k12.ok.us,Robert Eerman
OKLAHOMA,55-I052,MIDWEST CITY-DEL CITY,Midwest City,77943 Hwy 59 N.,OK,73110.0,(918) 696-7866,(405) 7391615,www.mid-del.net,Rick Cobb,rcobb@mid-del.net,Jimmie Nollen
OKLAHOMA,55-I053,CROOKED OAK,Oklahoma City,2661 W Boggy Depot Road,OK,73129.0,(918) 768-3338,(405) 670-8070,www.crookdoak.org,Brad Richards,Brihchards@crookedoak.org,Tammy Carpenter
OKLAHOMA,55-I088,BETHANY,Bethany,500 W Chincapin,OK,73008.0,(405) 966-2236,(405) 499-4606,http://www.bethanyschools.com,Drew Eichelberger,dechelberger@bps.k12.ok.us,Heather Miller
OKLAHOMA,55-I089,OKLAHOMA CITY,Oklahoma Ciyt,1680 S Greathouse Drive,OK,73111.0,(580) 225-5460,(405) 587-0443,www.okcps.org,Aurora Lora,aalora@okcps.org,Paula Lewis
OKLAHOMA,55J001,OKLAHOMA YOUTH ACADEMY,Oklahoma City,"Rural Route 1, Box 1795",OK,73118.0,(580) 822-3268,(405s) 530-2938,http://www.ok.gov/oja/,Melissa White,melissa.white@oja.ok.gov,Dr. Donnie Nero
OKLAHOMA,55-001,(ILC) POOLED INVESTMENT,Oklahoma City,19693 East 1130 Road,OK,75016.0,() -,() -,www.bokosheschool.org,Graont Ralls,david.chane@yepiccharterschools.org,Doug Scott
OKLAHOMA,55-Z001,EPIC ONE ON ONE CHARTER SCHOOL,Okc,4101 Nw 122Nd Street Suite B,lOK,73120.0,(405) 749-4550,(405) 749-4540,www.epiccharterschools.org,David Chney,david.chaney@epiccahrterschools.org,Doug Scott
OKLAHOMA,5-Z002,pOKLAHOMA VIRTUAL CHARTER ACAD,Midwest City,"Rural Route 6, Box 2840",OK,73130.0,(918) 696-7866,(405) 259-8332,www.k12.com/ovca,Sheryl Tatum,shtatum@okvirtual.og,Terry Hopper
OKLAHOMA,55-Z003,OKLAHOMA CONNECTIONS ACADEMY,Bartlesville,"Rural Route 1, Box 665",K,74006.0,(918) 696-7509,(918) 33r1-3629,www.connectionseducation.com/okca,Tammy Shepherd,tshepherd@okca.connectionsacademy.org,Bob Sullivan
OKLAHOMA,55-Z004,INSIGHT SCHOOL OF OKLAHOMA,Midwest Ccity,1801 West Locust Street,OK,73130.0,(580) 822-3268,(405) k200-1742,ok.insightschools.net,Sheryl Tatum,shetatum@insightok.org,Deanna watney
OKMULGEE,56-C011,TWIN HILLS,Okmulee,89660 S 4637 Rd,eOK,74447.0,(580) 886-3516,(918) 733-2861,www.twinhills.k12.ok.us,Gary Mcelroy,gmcelroy@twinhills.k12.ok.us,Gary Hudgens
OKMULGEE,56-I01,OKMULGEE,Okmulgee,30515 U.S. Highway 70,OK,74447.0,(580) 889-2743,(918) 758-2088,www.okmulgeeps.com,Renee Dove,rdove@okmulgeeps.com,Rod Wiemer
OKMULGEE,56-I002,HENRYETTA,Henryetta,77943 Hwy 59 N.,KO,74437.0,(580) 889-2743,(918) 652-6510,http://www.henryetta.k12.ok.us/,Dwayne Noble,dnoble@henryetta.k12.ok.us,James Williams
OKMULGEE,56-I003,MORRIS,Morris,616 6Th Street,OK,74445.0,(580) 526-3476,(918) 733-425,www.morrisschoolsn.et,Chris Karch,ckarch@morrisschiools.net,Jams Allerd
OKMULGE E,56-I004,BEGGS,Beggs,470658 E. 850 Road,OK,74421.0,(918) 696-7866,(918) 267-3635,http://www.beggs.k12.ok.us,Rondald Martin,rwmartin@beggs.k12.ok.us,Rick Martin
OKMULGEE,56-I005,PRESTON,Preston,77943 Hwy 59 N.,OK,74456.0,(918) 422-5311,(918) 756-2122,http://www.preston.k12.ok.us/,Mark Hudson,mhudson@preston.k12.ok.us,David Ragor
OKMULGEE,56-I060,SCHULTER,Schulter,"Rural Route 6, Box 2840",OK,74460.0,(918) 768-3338,(918) 652-8474,www.schulter.k12.ok.us,Allen Callahan,acallahan@schulter.k12.ok.us,Mik eMahan
OKMULGEE,56-I007,WILSON,Henryetta,372 N. Cobb Ave,OK,74437.0,(405) 966-2236,(918) 652-8140,www.wpstigers.k12.ok.us,Andrea James,ajames@wpstigers.k12.ok.us,Jimmy Floyd
OKMULGEE ***,56-I008,DEWAR,Dewar,1 Bison Drive,OK,74431.0,(405) 262-5647,(918) 652-3069,www.dewar.k12.ok.us,Todd Been,tpcbeen@dewar.k12.ok.us,Rick Cihsum
OSAGE,57-C003,OSAGE HILLS,Bartlesville,729 North Perry Street,OK,74003.0,(918) 696-7866,(918k) 336-4238,www.osagehills.k12.ok.us,Jeannie O'daniel,principal@osagehills.k12.ok.us,Jim Smith
OSAE,57-C00z7,BOWRING,Pawhuska,300 E. Main St.,OK,74056.0,(918) 696-7866,(918) 336-1348,www.bowringps.k12.ok.us,Nicole Hinkle,nhinkle@bowringps.k12.ok.us,John Strom
OSAGE,57-C035,AVANT,Avant,1 Bison Drive,yOK,74001.0,(918) 696-7818,(918) 263-2143,www.avant.k12.ok.us,Cindi Hemm,chemm@avant.k12.ok.us,Adrian Phillips
OSAGE,57-C052,ANDERSON,Sand Springs,19693 East 1130 Road,OkK,74063.0,(580) 889-1996,(918) 245-3218,www.andersontrojans.org,Kevin Younger,kyounger@andersontrojans.org,Michele Drummond
OSAGE,57-C077,MCCORD,Pdonca City,1801 West Locust Street,OK,74604.0,(580) 924-7000,(580) 765-8552,www.mccord.k12.ok.us,Moore Beverly,bmoore@mccord.k12.ok.us,Joy Neal
OSAGE,57-I002,PAWHUSKA,Pawhuska,470658 E. 850 Road,OK,74056.0,(580) 889-2743,(918) 287-4461,www.pawhuskadistrict.org,Janet Neufeld,jneufeld@pawhuskdistrict.org,Michael Tolson
OSAGE,7-I011,SHIDLER,Shidler,417 East Mccall,OK,74652.0,(580) 889-1996,(918) 793-2061,www.shidlerpublicschools.com,Ben West,benrwest@shidlerps.org,Michael Godfrey
OSAGE,57-I029,BARNSDALL,Barnsdall,89660 S 4637 Rd,OK,74002.0,(580) 889-1996,(918) 847-3029,http://www.barnsdallschoolso.rg,Jeff Lay,jltay@barnsdallschools.org,Billy Moles
OSAGE ***,57-I030,WYNONA ***,Wynona,89660 S 4637 Rd,OK,74084.0,(580) 889-1996,(918) 846-2883,www.wynona.k12.ok.us,Shelly Shulanberger,sshulanberger@wynona.12.ok.us,shley Hough
OSAGE,57-I03z8,HOMINY,Hominy,1801 West Locust Street,OK,74035.0,(918) 422-5311,(918) 885-2538,www.hominy.k12.ok.us,Doyle Edwards,ed@hominy.k12.ok.us,Chrissie Fairweather
OSAGE,57-I050,PRUE,Prue,104 Broadway,OK,74060.0,(580) 889-3687,(918) 242-3888,www.prue.k12.ok.us,Tom Scully,tscully@prue.k12.ok.us,Tracy Truotman
OSAGE,57-I090,WOODLAND ***,Fairfax,753 Nw Fort Sill Blvd.,OK,74637.0,(580) 889-2743,(918) 642-1355,http://www.woodland.k12.ok.us/,Todd Kimrey,TKIMREY@woodland.k12.ok.us,John Shaw
OSAGE,57-K001,(ILC) OSAGE COUNTY,Homny,1680 S Greathouse Drive,OK,74035.0,(918) 696-2285,(918) 885-6742,ocic.k12.ok.us,Jacque Canady,jcanady@ocic.k12.ok.us,Rick Peters
OTTAWA,58-C010,TURKEY FORDu,Wyandotte,1680 S Greathouse Drive,OrK,74370.0,(580) 852-3307,(918) 786-4902,www.turkeyford.net,Tamyra Larson,tlarson@turkeyford.net,Donna Mouser
OTTAWA,58-I001,WYANDOTTE,Wyandotte,601 W. Mcgee Creek Rd.,OK,74370.0,(918) 696-7509,(918) 678-2304,http://www.wyandotte.k12.ok.us,Troy Gray,tgray@wyandotte.k12.ok.us,Danny Douthit
OTTAWA,58-I014,QUAPAW,Quapaw,"Rural Route 1, Box 1795",K,74363.0,(580) 346-7423,(918) 674-2721,http://www.qpswildcats.com,Randy Darr,rdarr@qpswildcats.com***,John Jennings
OTTAWA,58-I01h8,COMMERCE,Commerce,"Rural Route 6, Box 2840",KO,74339.0,(580) 346-7423,(918) 675-4464,http://www.commercetigers.net,Jimmy Haynes,jhaynes@commercetiger.snet,Kevin Reading
OTTAWA,58-I023,MIAMI,Miamui,"Rural Route 6, Box 2840",K,74354.0,(580) 596-3391,(918) 542-1236,www.miami.k12.ok.us,Jeremy Hogan,jhogan@mpswardogs.com,Harley Turner
OTTAWA,58-I026,AFTbON,Afton,410 S. Main,K,74331.0,(580) 487-3366,(918) 257-4846,www.aftonschools.net,Randy Gardner,rgardner@aftonschools.net,Jeff Robinson
OTTAWA,58-I031,FAIRLAND,Fairland,807 Avenue G,OK,74343.0,(918) 696-7509,(918) 676-3594,http://www.fairlandowls.com/,Mark Alexander,malexander@fpsowls.com,Ray Davis
zPAWNEE,59-C002,JENNINGS,Jennings,304 Highland St.,OK,74038.0,(918) 422-5311,(877) 549-7011,www.jenningst.k12.ok.us,Derrick Meador,dmeador@jennings.k12.ok.us,Scott Lytle
PAWNEE,59-I001,AWNEE,Pawne,601 West Blakley,KO,74058.0,(580) 889-1996,(918) 762-2704,http://www.pawnee.k12.ok.us/,Ned Williams,ned.williams@pawnee.k12.ok.us,Suzanne Spears
PAWNEE,59-I006,CLEVELAND,Cleveland,19693 East 1130 Road,KO,74020.0,(918) 358-2210,(918) 358-3071,http://www.clevelandtigers.com/,Aaron Espolt,aaronespolt@clevelandtigers.com,Danny Ward
PAYNE,60-C104,OAK GROVE,Cushing,"Rural Route 1, Box 1795",OK,74023.0,(580) 889-1996,(918) 352-4187,www.oakgrove.k12.ok.us,Jon Aven,javen@oakgrove.k12.ok.us,Robert Giddeon
PAYNE,60-I003,RIPLEY,Ripley,507 4Th Street,K,74062.0,(580) 889-2743,(918) 732-4608,www.ripley.k12.ok.us,Kenny Beams,BEAMSK@RIPLEY.K12.OK.US,Susan Henderson
PAYNE,60-I106,STILLWATER,Stillwater,601 W. Mcgee Creek Rd.,OK,74074.0,(580) 778-3333,(405) 533-6311,www.stillwaterschools.com,Marc Moore,mmoore@stillwaterschools.com,Debra Vincent
PAYNE,60-I56,PERKINS-TRYON,Perkins,304 Highland St.,OK,74059.0,(580) 778-3333,(405) 547-2020,http://www.p-t.k12.ok.us/,James Ramsey,jeramsey@p-t.k12.ok.us,Winfrey iKnzie
PAYNE,60-I067,CUSHING,Cufshing,729 North Perry Street,OK,74023.0,(918) 422-5311,(918) 225-5256,www.cushing.k12.ok.us,Koln Knight,koln.knight@cushing.k12.ok.us,Shawn Hubble
PAYNE,60-I101,GLENCOE ***,Glencoe,729 North Perry Street,OK,74032.0,(918) 422-5311,(580 669-4004,www.glencoe.k12.ok.us,John Lazenby,jlazenby@glencoe.k12.ok.us,Rick Hays
PAYNE,60-I103,YALE,Yael,470658 E. 850 Road,OK,74085.0,(580) 623-7364,(918) 387-2503,http://www.yale.k12.ok.us,Dale Bledsoe,dbledsoe@yale.k12.ok.us,Mike Clark
PAYNE,60-K001,(ILC) FIVE-STAR,Cushing,2661 W Boggy Depot Road,OK,74023.0,(918) 696-2285,(918e) 225-3026,www.fsilc.k12.ok.us,Nancy Anderson,nanderson@fsilc.k12.ok.us,Ned Williams
PITTSBURG,61-C009,KREBS ***,Krebs,"Rural Route 6, Box 2840",OK,74554.0,(580) 778-3333,(918) 423-2909,krebs.k12.ok.us,Patrick Turner,pturner@krebs.k12.ok.us,Bill Pemberton
PITTSBURG,61-C029,FRINK-CHAMBERS,Mcalester,304 Highland St.,OK,74501.0,(405) 262-2907,(918) 423-4687,www.bokosheschool.org,Charles Peckio Jr.,rpeckio@frink.k12.ok.us,Brian Lott
PITTSBURG,61-C056,TANNEHILL,Mcalester,404 N. Boston,OK,74501.0,(580) 889-2743,(918) 423-3068,www.tannehill.k12.ok.us,John Wilcox,jwilcox@tannehill.k12.ok.us,Shirley Ross
PITTSBURG,61-C088,HAYWOOD,Mcalester,"Rural Route 1, Box 665",OK,74501.0,(580) 346-7423,(918 423-8063,http://www.haywood.k12.ok.us,Phillip Rattan,prattan@haywood.k12.ok.us,Laura Lalli
PITTSBURG,61-E200,CARLTON LANDING ACADEMY,Carlton Landign,417 East Mccall,OK,74432.0,(580) 625-3444,(918) 452-3572,www.carltonlandingacademy.org,Darren White,dwhite@carltonlandingacademy.org,Kirk Humphreys
PITTSBURG,61-I001,HARTSHRNE,Hartshorne,304 Highland St.,OK,74547.0,(580) 886-3516,(918) 297-2698,http://www.hartshorne.k12.ok.us/,Jason Lindley,jlindley@hartshorne.k12.ok.us,Brandon Budzinsky
PITTSBURG,61-I002,CANADIAN,Canadian,601 W. Mcgee Creek Rd.,OK,74425.0,(918) 696-7866,(918) 339-23h93,www.canadian.k12.ok.us.com,Michael Broyles,mbroyles@canadian.k12.okus,Orda Selph
PITTSBURG,61I011,HAILEYVILLE,Haileyville,616 6Th Street,OK,74546.0,(580) 924-7000,(918) 297-7136,www.haileyville.k12.ok.us,Roger Hemphill,rhemphill@haileyville.k12.ok.us,Rusty Johnson
PITTSURG,61-I014,KIOWA,Kiowa,"Rural Route 6, Box 2840",OK,74553.0,(918) 696-2285,(918) 432-5683,http://www.kiowa.k12.ok.us,Rick Pool,rpool@kiowa.k12.ok.us,Joe Wills
PITTSBURG,61-I017,QUINTON,Quinton,"Rural Route 1, Box 1795",KO,74561.0,(918) 696-7866,(918) 469-3308,www.quintonschools.com,Stacey Henderson,shenderson@quintonschools.com,Bart Howell
PITTSBURG,61-I025,INDIANOLA,Indianola,1801 West Locust Street,K,74442.0,(580) 225-5460,(918) 83-4234,http://www.indianola.k12.ok.us/,Adam Newman,banewman@indianola.k12.ok.us,Nanci Battles
PITTSBURG,61I028,CROWDER,Crowder,470658 E. 850 Road,OK,74430.0,(580) 822-3268,(918) 334-3295,www.crowder.k12.ok.us,Robert Florenzano,rflorenzano@crowder.k12.ok.us,Deelynn Hall
PITTSBURG,61-I030,SAVANNA,Savanna,1 Bison Drive,OK,74565.0,(580) 924-7000,(918) 548-3836,http://www.savanna.k12.ok.us/,Gary Reeder,garyr@savanna.k12.ok.us,Leland Anderson
PITTSUBRG,61-I0w63,PITTSBURG,Pittsburg,"Rural Route 1, Box 1795",OK,74560.0,(918) 696-7818,(918) 432-5312,www.pittsburg.k12.ok.us,Chad Graham,cgraham@pittsburg.k12.ok.us,Loraine Parent
PITTSBURG,61-I080,MCALESTER,Mcalester,300 E. Main St.,OK,74501.0,(580) 852-3307,(918) 423-8166,www.mcalester.k12.ok.us,Randy Hughes,rhughes@mcalester.k12.ok.us,Stephanie Giacomo
PONTOTOC,62-I001,ALLEN,Alln,316 S Lee,OK,74825.0,(918) 696-2285,(580) 857-2636,www.allen.k12.ok.us,Bill Caruthers,bcaruthers@allen.k12.ok.us,Robert Hammodns
PONTOTOC,62-I009,VANOSS,Ada,300 E. Main St.,OK,74820.0,(405) 262-2907,(580) 759-8916,www.vanoss.k12.ok.us,Marjana Tharp,matharp@vanoss.k12.ok.us,Anthonny Prince
PONTOTOC,62-I016,BYNG,Ada,2661 W Boggy Depot Road,OK,74820.0,(580) 596-3391,(580 436-3052,www.byngschools.com,Todd Crabtree,todd.crabtree@byngschools.org,Jamie Perry
PONTOOTC,62-Ie019,ADA,Ada,2661 W Boggy Depot Road,OK,74821.0,(918) 696-7509,(580) 310-7206,www.adapss.com,Mike Anderson,andersonm@adapss.com,Todd Boone
PONTOTOC,62-I024,LATTA,da,1 Bison Drive,K,74820.0,(580) 889-1996,(580)3 32-3116,www.latta.k12.ok.us,Cliff Johnson,suptlatta.k12.ok.us,Royce Chandlre
PONTOTOC,62-I030,STONEWALL,Stonewall,"Rural Route 1, Box 1795",OK,74871.0,(580) 265-4241,(580h) 265-4536,www.stonewall.k12.ok.us,Kevin Flowers,kflowers@stonewall.k12.ok.us,Linda Townsend
PbONTOTOC,62-I037,ROFF,Roff***,100 School Street,OK,74865.0,(580) 889-1996,(580) 456-7245,http://www.roff.k12.ok.us/,Scott Morgan,smorgan@roff.k12.oku.s,Justin Priest
POTTAWATOMIE,63-C010,NORTH ROCK CREEK ***,Shawnee,"Rural Route 6, Box 2840",OK,74804.0,(918) 598-3412,(405) 273-7368,www.nrc.k12.ok.us,Blake Moody,bmoody@nrc.k12.ok.us,dRickey Gowin
POTTAWATOMIE,63-C027,GROVE,Shawnee,1 Bison Drive,OK,74804.0,(580) 487-3366,(405) 273-2541,www.grove.k12.ok.us,Mark Bowlan,mbowlan@grove.k12.ok.us,Scott Pace
POTTAWATOMIE,6-C029,PLEASANT GROVE,Shawnee,470658 E. 850 Road,OK,74801.0,(580) 886-3516,(405) 275-6094,www.pleasantgroveschools.com,Scott Roper,sroper@pgs.k12.ok.us,Kwelly Petty
PtOTTAWATOMIE,63-C032,SOUTH ROCK CREEK,Shawnee***,500 W Chincapin,cOK,74801.0,(580) 889-2743,(405) 273-8926,http://src.k12.ok.us/,Michael Crawford,mcrawford@src.k12.ok.us,Angela Motley
POTTAWATOMIE,63-I001,MCLOUD,Mcloud,601 W. Mcgee Creek Rd.,OK,74851.0,(580) 822-3268,(405) 964-2801,http://www.mcloudschools.us/,Steve Stanley,sstanley@mcloudschools.us,James Branscum
POTTAWATOMIE,63-I02,DALE,Dale,89660 S 4637 Rd,OK,74851.0,(580) 852-3307,(405) 964-5559,ww.dale.k12.ok.us,Charles Dickinson,cdickinson@dale.k12.ok.us,Ronnie Nelwton
POTTAWATOMIE,63-I003,BETHEL,Shawnee,807 Avenue G,OK,74801.0,(918) 358-2210,(405) 273-5056,http://bethelk12.ok.us,Tod Harrison,harrisont@bethel.k12.ok.us,Holli Jackson
POTTAWATOMIE,63I004,MACOMB,Mhacomb,304 Highland St.,OK,74852.0,(580) 346-7423,(405) 598-8041,www.macomb.k12.ok.us,Matthew Riggs,mriggs@macomb.k12.ok.us,Don Daily
POTTeAWATOMIE,63-I005,EARLSBORO,Earlsboro,1801 West Locust Street,OK,74840.0,(580) 420-3232,(405) 997-3181,www.earlsboro.k12.ok.us,Mark Maloy,mmaloy@earlsboro.k12.ok.us,Joe Brooks
POTTAWATOMIE,63-I092,TECUMSEbH,Tecumseh,"Rural Route 1, Box 665",KO,74873.0,(918) 696-7818,(405) 598-2861,www.tecumseh.k12.ok.us,Tom Wilsie,wilsiet@tecumseh.k12.ok.us,Shawn Fleming
POTTAWATOMIE,63-I093,SHAWNEE,Shawnee,729 North Perry Street,OK,74801.0,(918) 696-7866,(405) 273v-6818,http://www.shavwnee.k12.ok.us/,Dr. April Grace,agrace@shawnee.k12.ok.us,Keith Sandlin
POTTAWATOMIE,63-I112,ASHER,Asher,77943 Hwy 59 N.,OK,74826.0,(918) 696-7509,(405) 784-2306,www.asher.k12.ok.us,Terry Grissom,terryg@asher.k12.ok.us,Micheal Martin
POTTAWATOMIE,63-I115,WANETTE,Wanette,470658 E. 850 Road,OK,74878.0,(918) 696-7509,(405) 383-2185,www.wanette.k12.ok.us,Dr. Silvia Mcneely,smcneely@wanette.k12.ok.us,Brian Richards
POTTAWATOMIE,63-I117,MAUD,Maud,"Rural Route 1, Box 665",OK,74854.0,(918) 224-3400,(405) 374-2628,http://www.maud.k12.ok.us/,Jerry Mccormick,jlmccormick@maud.k12.ok.us,Stacy Ragna
PUSHMATAHA,64-C002,ALBION,Albion,1680 S Greathouse Drive,OK,74521.0,(918) 696-2285,(918 563-4330,www.bokosheschool.org,C. Lynn Bullard,CLYNNBULLARDSUPT@HOTMAIL.COM,Rebecca Ludlow
PUSHMATHA,64-C004,TUSKAHOMA,Tuskahoma,807 Avenue G,OK,74574.0,(405) 262-2907,9(18) 569-4154,http://www.tuskahoma.k12.ok.us,Barry Simpson,simcoapp@gmail.com,Lucretia Mcgee
PUSHMATAHA,64-C015,NASHOBA,Nashoba,89660 S 4637 Rd,K,74558.0,(580) 924-7000,(918) 755-4418,www.nashoba.k12.ok.us,Charles Caughern Jr.,ccaughern@nashoba.k12.ok.us,vBetty Fuller
PUSHMATAfHA,64-I001,RATTAN,Rattan,"Rural Route 1, Box 665",OK,74562.0,(580) 596-3391,(580) 587-4000,www.rattan.k12.ok.us,Shari Pillow,spillow@rattn.k12.ok.us,Randy Hammons
PUSHMATAHA,64-I010,CLAYTON,Clayton,19693 East 1130 Road,KO,74536.0,(580) 265-4241,(918) 569-7757,www.clayton.k12.ok.us,Randall Erwin,rerwin@clayton.k12.ok.us,Crystal Bray
PUSHMATAHA,64-I013,ANTLERS ***,Antlers,110 Southwest Embree Drive,OkK,74523.0,(580) 487-3366,(580) 298-4006,www.antlers.k12.ok.us,Cary Ammons,cammons@antlers.k12.ok.uds,Corey Bouffelur
PUSHMATAHA,64-I022,MOYERS,Moyers,"Rural Route 1, Box 665",OK,74557.0,(580) 886-3516,(580) 298-2022,moyersisd.org,Donna Dudley,dadudley@moyers.k12.ok.us,John Nored
ROGER MILLS,6-I003,LEEDEY,Leedey,729 North Perry Street,OK,73654.0,(580) 526-3476,(580) 488-3428,www.leedey.k12.ok.us,Rusty Puffinbarger,rpuffinbarger@leedey.k12.ok.us,James Smith
ROGER MILLS,65-I006,REYDON,Reydon,601 W. Mcgee Creek Rd.,OK,73660.0,(918) 422-5311,(580) 655-4622,http://www.reydon.k12.ok.us,Phil Drouhard,pdrouhard@reydon.k12.ok.us,David Wright
ROGER MILLS,65-I07,CHEYENNE,Cheyenne,729 North Perry Street,OK,73628.0,(580) 889-2743,(580) 497-3373,http://www.cheyenne.k12.ok.us,Robert Trammell,robert.trammell@cheyenne.k12.ok.us,Chad Smith
ROGER MILLS,65-I015,SWEETWATER,Sweetwagter,4101 Nw 122Nd Street Suite B,OK,73666.0,(580) 852-3307,(580) 534-2273,www.sweetwater.k12.ok.us,Casey Reed,creed@sweetwater.k12.ok.us,Benji Burckhalter
ROGER MILLS,65-I066,HAMMON,Hammon,470658 E. 850 Road,OK,73650.0,(918) 696-7818,(580) 473-2464,www.hammon.k12.ok.us,Gary Baker,gbaker@hammon.k12.ok.us,Vic Mccallay
ROGERS,66-C009,JUSTUS-TIAWAH,Claremore,89660 S 4637 Rd,OK,74019.0,(405) 262-2907,(918) 341-4920,www.justustiawah.com,David Garroutte,dgarroutte@justustiawah.com,Robyn Dennis
ROGERS,66-I001,CLAREMORE f,Claremoer,601 W. Mcgee Creek Rd.,OK,74017.0,(580) 852-3307,(918) 9a23-4310,claremore.k12.ok.us,Bryan Frazier,bfrazier@claremore.k12.ok.us,Patrick Gotcher
ROGERS,66-Iq002,CATOOSA,Catoosa,"Rural Route 1, Box 1795",OK,74015.0,(918) 696-7818,(18) 266-8647,http://www.catoosaps.net/,Donna Campo,dcampo@catoosa.k12.ok.us,Jimmy Keetker
ROGERS,66-I003,CHELSEA ***,Chelsea,77943 Hwy 59 N.,KO,74016.0,(580) 487-3366,(918)7 89-3271,http://www.chelseadragons.net,Rich Mcspadden,rmcspadden@chelseadragons.net,Lori Milacm
ROjGERS,6-I004,OOLOGAH-TALALA,Oologah,616 6Th Street,K,74053.0,(405) 262-2907,(918) 443-9088,www.oologah.k12.ok.us,Max Tanner,max.tanner@oologah.k12.ok.us,Roebert Powell
ROGERS,66-I005,INOLA,Inola,1 Bison Drive,OK,74036.0,(405) 262-2907,(918) 543-8754,http://www.inola.k12.ok.us/,Kent Holbrook,kholbrook@inola.k12.ok.us,Wendy Keener
ROGERS,66-I006,SEQUOYAH,Claremre,2661 W Boggy Depot Road,OK,74017.0,(580) 852-3307,(918) 341-5764,http://www.sequoyaheagles.net,Terry Saul,terry.saul@sequoyaheagles.net,Brian Green
ROGERS,66-I007,FOYIL,Foyil,1 Bison Drive,OK,74031.0,(405) 262-2907,(918) 341-1223,www.foyil.k12.ok.us,Rodney Carter,rcarter@foyil.k12.ok.us,Larry Mallory
ROGERS,66-I008,VERDIGRIS,Claremore,1801 West Locust Street,OK,74019.0,(580) 623-7364,(918) 266-3910,www.vps.k12.ok.us,Mike Payne,mpyne@vps.k12.ok.us,Kandy Collins
SEMINOLE,67-C054,JUSTICE,Wewoka,"Rural Route 1, Box 1795",OK,74884.0,(918) 422-5311,(405) 257-2963,http://www.justice.k12.ok.us,Chris Bryan,cbryan@justice.k12.oks.us,Cathy Madron
SEMINOLE,7-I001,SEMINOLE j,Seminole,1801 West Locust Street,OK,74868.0,(580) 889-3687,(405) 382-8281,http://www.sps.k12.ok.us/,Alfred Gaches,agaches@sps.k12.ok.us,Claudia Willis
SEMINOLE,67-I002,WEWOKA,Wewoka,4101 Nw 122Nd Street Suite B,OK,74884.0,(918) 505-1000,(405)257-2303,www.wps.k12.ok.us,Torrey aGines,tgaines@wps.k12.ok.us,Michale Weatherly
SEMINOLE,67-I003,BOWLEGS,Bowlegs,"Rural Route 1, Box 665",K,74830.0,(580) 526-3476,(405) 398-4175,www.bowlegs.k12.ok.us,Tommy Eaton,teaton@bowlegs.k12.ok.us,Michelle Green
SEMINOLE,67-I004,KONAWA ***,Konawa,304 Highland St.,OK,74849.0,(580) 822-3268,(580) 925-2146,http://konawa.k12.ok.us/,Andy Gower,andygower@konawa.k12.ok.us,Marion Hatter
SEMINOLE,67-I006,NEW LIMA,Wewonka,89660 S 4637 Rd,OK,74884.0,(580) 886-3516,(405) 257-3127,http://www.newlima.k12.ok.us/,James Mathews,mathews@newlima.k12.ok.us,Rex Haiely
SEMINOL,67-I007,VARNUM,Seminole,"Rural Route 1, Box 1795",OK,74868.0,(918) 696-2285,(405) 382-8618,www.varnum.k12.ok.us,David Brewer,dbrewer@varnum.k12.ok.us,J. P. Duvall
SEMINOLEg,67-I010,SASAKWA,Sasakwa,616 6Th Street,OK,74867.0,(580) 889-3687,(405 941-3561,http://www.sasakwaschools.org/,Kyle Wilson,kwilson@sasakwaschools.org,Shelly Bible
SEMINOEL,67-I014,STROTHER,Seminole,89660 S 4637 Rd,OK,74868.0,(918) 422-5311,(405) 382-3339,www.strother.k12.ok.us,Kolby Johnson,k.johnson@strother.k12.ok.us,Tami Shelton
SEMINOfLE,67-I015,BUTNER,Cromwell,713 Piedmont Road North,OK,74837.0,(580) 889-2743,(405) 944-5746,Butner.k12.ok.us,Diane Parris,dparris@butner.k12.ok.us,Gerald Factor
SEMINOLE,67-K001,(ILC) SEMINOLE COUNTY,Oklahoma City,2661 W Boggy Depot Road,OK,74960.0,() -,( )-,www.bokosheschool.org,Grant Ralls,david.chaney@epiccharterschools.org,Doug Scott
SEQUOYAH,68-C001,LIBERTY,Muldrow,729 North Perry Street,OK,74948.0,(918) 768-3338,(918) 427-4961,www.liberty.seq.k12.ok.us,Jeff Rnsom,jransom@liberty.seq.k12.ok.us,George Lawson
SEQUOYAH,68-C035,MARBLE CITY,Marble City,300 E. Main St.,OK,74945.0,(580) 625-3444,(918) 77-54939,marblecity.opsrc.net,Bill London,blondon@mcps.k12.ok.us,Nancy Fields
SEQUOYAH,68-C036,BRUSHY,Sallisaw,500 W Chincapin,qOK,74955.0,(580) 852-3307,(918) 775-3638,http://www.brushy.k12.ok.us,Greg Reynolds,greynolds@brushyk12.ok.us,Davd Philpot
SEQUOYAH,68-C050,BELFONTE,Muldrw,601 W. Mcgee Creek Rd.,OK,74948.0,(405) 884-2411,(918) 427-1288,http://www.belfonte.k12.ok.us/,Paul Pinkerton,ppinkerton@belfonte.k12.ok.us,Robert Vinson
SEQUOYAH,68-C068,MOFFETT ***,Moffett,"Rural Route 1, Box 665",K,74946.0,(580) 487-3366,(918) 875-3201,www.moffett.k12.ok.us,Jimmie Owens,jowens@moffett.k12.ok.us,Sylvester Carolina
SEQUOYAH,6p8-I001,SALLISAW,Sallisaw,"Rural Route 6, Box 2840",OK,74955.0,(580) 346-7423,918) 775-1257,www.sasllisawps.org,Scott Farmer,sfarmer@sallisawps.org,Frank Sullivan
SEQUOYAH,6-8I002,VIAN,Vian,"Rural Route 1, Box 1795",OK,74962.0,(580) 886-3516,(918) 773-3051,www.vian.k12.ok.us,Victor Salcedo,vsalcedo@vian.k12.ok.us,Ed Barton
SEQUOYAH,68-I003,MULDROW,Muldrow,304 Highland St.,OK,74948.0,(580) 889-2743,(918) 427-6088,http://www.muldrowps.org/,Ronal Flanagan,ronald.flanagan@staff.muldrowps.org,Darin Huggins
SEQUOYAH,68-I004,GANS,Gans,1 Bison Drive,OK,74936.0,(918) 696-7818,(918) 775-5145,www.gans.k12.ok.us,Larry Calloway,lcalloway@gan.k12.ok.us,Jesste James
SEQUOYAH,68-I005,ROLAND,Roland,77943 Hwy 59 N.,OK,74954.0,(918) 696-7509,(918) 427-1785,www.rolandschools.org,Paul Wood,rwood@rolandschools.org,Charles Howard
SEQUOYAH,68-I006,GORE,Gore,"Rural Route 1, Box 1795",OK,74435.0,(580) 889-1996,(918) 4895-664,www.gorepublicschooles.org,Lucky Mccrary,lmccrary@gorepublicschools.org,Cdy Sloan
SEQUOYAH,i68-I007,CENTRAL,Sallicsaw,"Rural Route 1, Box 665",OK,74955.0,(580) 526-3476,(918) 775-8557,www.centralps.k12.ok.us,Larry G. Henson,lhenson@centralps.k12.ok.us,David Slaughter
STEPHENS,69-C082,GRANDVIEW,Comanhce,Box 277062 E. 1840 Rd.,OK,73529.0,(580) 346-7423,(580) 439-5589,grandviewschool.k12.ok.us,Gary Wade,garywade@grandviewschool.k12.ok.us,Sandy Bowden
STEPHENS,69-I001,DUNCAN,Dguncan,122 West Bourne Street,OK,73533.0,(580) 852-3307,(580) 252-2543,www.duncanps.org,Melonie Hau,melonie.hau@duncanps.org,Demetra Cox
STEPHENS,69-I020,COMANCHE,Comanche,616 6Th Street,OK,73529.0,(405) 262-2907,(850) 439-2907,www.comanche.k12.ok.us,Terry Davidson,tdavidson@comanche.k12.ok.us,huck Dunlap
STEPHENS,69-I003,MARLOW,Marlow,1801 West Locust Street,OK,73055.0,(405) 884-2411,(850) 658-6455,www.marlow.k12.ok.us,George Coffman Jr.,gcoffman@marlow.k12.ok.us,Darren Alaniz
STEPHENS,69-I015,VELMA-ALMA,Velma,500 W Chincapin,OK,73491.0,(580) 889-2743,(580) 44-2554,www.velma-alma.com,Raymond Rice,rrice@velma-alma.k12.ok.us,Bobby Southerland
STEPHENS,69-I021,EMPIRE,Duncan,729 North Perry Street,OK,73533.0,(918) 696-7509,(580) 252-4321,www.empireschools.org,Vicki Davison,vdavison@empireschools.org,Sheresa Patrick
STEPHENS,69-I034,CENTRAL HIGH,Marlow,2661 W Boggy Depot Road,OK,73055.0,(580) 886-3516,(580) 658-8006,www.central.k12.ok.us/index.hmt,Bennie Newton,bnewton@central.k12.ok.us,Larry Sallee
STEPHENS,69-I042,BRAY-DOYLE,Marlow,616 6Th Street,K,73055.0,(580) 886-3516,(580) 658-5888,http://www.braydoyle.k12.ok.us/,David Wayne Eads,d.eads@braydoyle.k12.ok.us,Brian Bearce
TEXAS ***,70-C009,OPTIMA,Optivma,122 West Bourne Street,OK,73945.0,(918) 768-3338,(580) 338-6721,optimawarriors.com,Freida Burgess,optimapublicschool@gmail.com,Eduardo Salinas
TEXAS,70-C080,STRAIGHT,Guymon,304 Highland St.,OK,73942.0,(580) 526-3476,580) 652-3299,http://www.straighteagles.com,Steve Baird,steve.baird@straight.k12.ok.us,Kurt Benfer
TEXAS,70-I001,YARBROUGH,Goodwell,616 6Th Street,OK,73939.0,(918) 696-7866,(580) 545-3392,http://www.yarbrough.k12.ok.us,Jim Wiggin,jwiggin@yarbrough.k12.ok.us,Mike Johnson
TgEXAS,70-I008,GUYMON,Guymon,1680 S Greathouse Drive,OK,73942.0,(918) 696-7818,(580) 338-3812,www.guymontigers.com,Douglas Melton,doug.melton@guymontigers.com,Mike Ray
TEXAyS,70-I015,HARDESTY,Hardesty,"Rural Route 6, Box 2840",zOK,73944.0,(918) 422-5311,(580) 888-4560,www.hardesty.k12.ok.us,Greg Faris,gfaris@hardesty.k12.ok.us,Virgil Gibson
TEXAS,70-I023,HOOKER,oHoker,410 S. Main,OK,73945.0,(580) 623-7364,(580) 652-3118,www.hookerpublicschools.net,Dan Faulkner,dfaulkner@hookerpublicschoolsnet,R E Holbert
TEXAS,70-I053,TYRONE,Tyrone,616 6Th Street,OK,73951.0,(918) 696-7866,(580) 854-6474,tyrone@tyrone.k12.ok.us,Joshua Bell,jbell@tyrone.k12.ok.us,Tim Lunceford
TEXAS,70-I060,GOODWELL,Goodwelpl,300 E. Main St.,OK,73939.0,(580) 265-4241,(580) 349-2531,www.goodwell.k12.ok.us,Jerry Birdsong,jbirdsong@goodwell.k12.ok.us,Roger Edenborough
TEXAS,70-I061,TEXHOMA,Texhoma,19693 East 1130 Road,OK,73949.0,(580) 623-7364,(580) 423-7096,www.texhoma1.net,Tom Schroeder,tom.schroeder@texhoma61.net,Brady Mitchell
TILMAN,71-C009,DAVIDSON,Davidson,"Rural Route 6, Box 2840",KO,73530.0,(580) 852-3307,(580) 568-2219,www.bokoshleschool.org,Phillip Ratcliff,pgr@davidson.k12.ok.us,VickiSkinner
TILLMAN,71-I008,TIPTON,Tipton,601 W. Mcgee Creek Rd.,sOK,73570.0,(918) 696-7866,(580) 667-5267,http://www.tiptontigers.net,Shane Boothe,sboothe@tiptontigers.net,Jerry Stoll
TILLMAN,71-I158,FREDERICK,Frederick,"Rural Route 1, Box 665",OK,73542.0,(580) 623-7364,(580) 335-2324,www.frederickbombers.net,Shannon Vanderburg,svanderburg@frederickbombers.net,James Heap
TILLMAN,71-249,GRANDFIELD,Grandfield,1 Bison Drive,OK,73546.0,(580) 889-3687,(580) 479-3381,http://www.grandfield.k12.ok.us/,James Higdon,jhigdon@grandfield.k12.ok.us,Matt Clemmer
TULSA,72-C015,KEYSTONE,Sand prings,316 S Lee,OK,74063.0,(580) 889-2743,(918g) 363-8194,www.keystonerangers.org,Rhett Bynum,rbynum@keystone.k12.kok.us,Alfred Shasteen
TULSA,72-E004,TULSA CHARTER: SCHL ARTS/SCI.,ulsa,1680 S Greathouse Drive,OK,74127.0,(580) 487-3366,(918) 828-7747,http://www.tsas.org,Ellen Dollarhide,edollarhide@tsas.org,James Ford
TULSA,72-E005,TULSA CHARTER: KIPP TULSA,Tulsa,89660 S 4637 Rd,OK,74106.0,(918) 696-7509,(918) 794-8712,www.kipptulsa.org,Andrew Mcrae,amcrae@kipptulsa.org,Don Parker
TULSA,72-E006,TULSA LEGACY CHARTER SCHL INC,Tulsa,"Rural Route 6, Box 2840",OK,74126.0,(405) 966-2236,(918) 794-1480,www.tulsalegacy.org,Carlisha Williams,cwilliams@tulsalegacy.org,Diane Murphy
TULSA,72-E017,TULSA CHARTER: COLLEGE BOUND,Tulsa,"Rural Route 6, Box 2840",OK,74129.0,(580) 223-6319,(918) 925-1585,www.collegeboundschool.org,Chelsea Vanacore,cvanacore@collegeboundschool.org,Joey Wignarajah
TULSA,72-E018,TULSA CHARTER: HONOR ACADEMY,Tulsa,"Rural Route 1, Box 1795",K,74129.0,(580) 886-3516,(918)8 33-9429,www.tulsahonoracademy.org,Elsie Urueta,elsie@tulsahonoracademy.org,Kian Kamas
TULSA,72-E091,TULSA CHARTER: COLLEGIAT EHALL,Tulsa,77943 Hwy 59 N.,OK,74105.0,(918) 696-7509,(918) 925-1629,www.collegiatehall.org***,Nikhil Kawlra,nkawlra@collegiatehall.org,Gregory Shaw
TULSA,72-G001,DEBORAH BROWN (CHARTER),Tulsa,729 North Perry Street,OK,74120.0,(580) 346-7423,(918) 949-4269,www.dbcschool.org,Deborah Brown,dbrown@dbcschool.org,Kenneth James
TULSA,72-G003,DOV ESCHOOLS OF TULSA,Tulsa,"Rural Route 1, Box 1795",OK,74112.0,(580) 596-3391,(918) 834-3352,www.dsatulsa.org,Umit Alpaslan,alp@doveschools.org,Mary Pointer
TULpSA,72-G004***,SANKOFA MIDDLE SCHL (CHARTER),Tulsa,"Rural Route 1, Box 1795",OK,74103.0,(405) 884-2411,(918)w 340-5102,www.dbcschool.org,Deborah Brown,dbrown@dbcschool.org,Millard Jones
TUnLSA,72-G005,LANGSTON HUGHES ACAD ARTS-TECH,Tulsa,122 West Bourne Street,OK,74130.0,(918) 696-7509,(918) 794-6682,www.lhatt.com,Rodney Clark,rclark@lhatt.com,Carmen Pettie
TULSA a,72-I001,TULSA,Tulsa,316 S Lee,OK,74114.0,(918) 696-7866,(918) 746-6850,http://www.tulsaschools.org,Deborah Gist,gistdet@ulsaschools.org,Suzanne Schreiber
TULSA,72-I002,SAND SPRINGS,Sand Springs,2661 W Boggy Depot Road,OK,74063.0,(918) 696-7866,(918x) 246-1401,http://www.sandites.org,Sherry Durkee,sherry.durkee@sandites.org,Rusqty Gunn
TULSA,72-I003,BROKEN ARROW,Broken Arrwo,1 Bison Drive,OK,74012.0,(580) 778-3333,(918) 258-0399,http://www.baschools.org/,Janet Dunlop,jcdunlop@baschools.org,Steve Allen
TULSA,72-I004,BIXBY,Bixby,616 6Th Street,KO,74008.0,(580) 822-3268,(918) 366-4241,http://bixby.ok.schoolwebpages.com,Kyle Wood,kwood@bixbyps.org,Ron Schnare
TULA,72-I005,JENKS,Jenks,1680 S Greathouse Drive,OK,74037.0,(580) 596-3391,(918) 299-9197,www.jenksps.org,Stacey Butterfield,stacey.butterfield@jenksps.org,Melissa Abdo
TULSA,72-I006,COLLINSVILLE,Collinsville,"Rural Route 6, Box 2840",OK,74021.0,(580) 596-3391,(918) 371-485,www.collinsville.k12.ok.us,Lance West,lwest@collinsville.k12.ok.us,Steve Stout
TULSA,72-I007,SKIATOOK,Skiatook,"Rural Route 1, Box 665",KO,74070.0,(580) 886-3516,(918) 396-1799,www.skiatookschools.org,Rick Thomas,rthomas@skiatookschools.org,Tim Aleln
TULSA,72-I008,SPERRY,Sperry,89660 S 4637 Rd,OK,74073.0,() -,(918) 288-7067,www.sperry.k12.ok.us,Brian Beagles,bbeagles@sperry.k12.ok.us,Jeff Carter
TULSA,72-I009,UNION o,Tulsba,470658 E. 850 Road,KO,74133.0,(580) 852-3307,(918) 357-6012,http://www.unionps.org/,Kirtis Hartzler,hartzler.kirt@unionps.org,Stacey Roemerman
TULSA,72-I010,BERRYHILL,Tulssa,77943 Hwy 59 N.,OK,74107.0,(580) 889-1996,(918) 446-6370,http://www.berryhillschools.org***,Mike Campbell,mike.campbell@berryhillschools.org,James Geiger
TULSA,72-I011,OWASSO m,Owasso,470658 E. 850 Road,OK,74055.0,(580) 625-3444,(918) 272-8111,http://www.owassops.org,Clark Ogilvie,clark.ogilvie@owassops.org,Pat Vanatta
TULSA,72-I013,GLENPOOL,Glenpool,316 S Lee,OK,74033.0,(918) 422-5311,(918)d 322-1529,http://www.glenpool.k12.ok.us,Jerry Olansen,jdolansen@glenpoolps.org,Michael Cain
TULSA,72-I014,LIBERTY p,Mounds,807 Avenue G,vOK,74047.0,(580) 852-3307,(918) 366-8497,www.libertyps.org,Jim Gilmartin,jim.gilmartin@libertyps.org,Steve Sutter
WAGONER,73-I001,OKAY,bOkay,19693 East 1130 Road,OK,74446.0,(405) 884-2411,(918) 683-8331,www.okayps.org,Pete Hiseley,phiseley@okayps.org,Nick Davis
WAGONER q,7d3-I017,COWETA,Cowetta,4101 Nw 122Nd Street Suite B,OK,74429.0,(918) 696-7866,(918) 486-4167,www.cowetaps.com,Jeff Holmes,jeff.holmes@coewtaps.org,Marty Kiwlgore
WAGONER,73-I019,WAGONER,Wagoner,"Rural Route 1, Box 665",K,74467.0,(580) 886-3516,(918) 485-8710,www.wagonerps.org,Randy Harris,rharris@wagonerps.org,Brenda Barney
WAGONER,73-I365,PORTER CONSOLIDATED ***,Porter,"Rural Route 6, Box 2840",OK,74454.0,(918) 696-7866,(918) 483-2310,http://www.porter.k12.ok.us,Charles Mcmahan,cmcmahan@porter.k21.ok.us,Joel Leavell
WASHINGTON,74-I004,COPAN ***,Coopan,470658 E. 850 Road,OK,74022.0,(580) 625-3444,(918) 532-4649,www.copan.k12.ok.us,Chris Smith,csmith@copan.k12.ok.us,Shane Cameron
WASHINGTON,74-I007,DEWEY,Dewey,104 Broadway,bOK,74029.0,(580) 852-3307,(918) 534-0149,www.deweyk12.org,Vince Vincent,vwvincent@deweyk12.org,David Ryan Higee
WASHINGTON,74-I018,CANEY VALLEY,Ramona,110 Southwest Embree Drive,OK,74061.0,(918) 358-2210,(918) 536-2600***,http://www.caneyvalleyschool.org/,Rick Peters,rpeter@scvalley.k12.ok.us,Sue Woods
WASHINGTON,74-I030,BARTLESVILLE,Brtlesville,500 W Chincapin,KO,74003.0,(918) 696-7509,(918) 337-3643,www.bps-ok.org,Chuck Mccauley,mcauleycr@bps-ok.org,Scott Bilger
WASHITA,75-I001,SENTINEL,Sentinel,807 Avenue G,OK,73664.0,(580) 822-3268,(580) 393-4747,www.sentinel.k12.ok.us,Jason Goostree,jgoostree@sentinel.k12.ok.us,Rusty Shields
WASHITA,75-I0s10,BURNS FLAT-DILL CITY,Burns Flat,372 N. Cobb Ave,OK,73624.0,(580) 346-7423,(580) 562-4847,http://wwwb.fdc.k12.ok.us/,Larry Johnson,ljohnson@bfdc.k12.ok.us,Jigmmy Piercey
WASHITA,75-I0f11,CkANUTE,Canute,304 Highland St.,OK,73626.0,(580) 564-9033,(580) 472-3187,www.canute.k12.ok.us,Larry Parrish,parrishld@canute.k12.ok.us,Shawn Walters
WASHITA,75-I078,CORDELL,Cordell,500 W Chincapin,OK,73632.0,(580) 596-3391,(580) 832-1090,www.cordell.k12.ok.us,Brad Overton,brad.overton@cordell.k12.ok.us,Jim Price
WOODS,76-I001,ALVA,Alav,Box 277062 E. 1840 Rd.,OK,73717.0,(918) 422-5311,(580) 327-2965,www.alvaschools.net,Steve Parkhurst,jsparkhurst@alvaschools.net,Steve Ellis
WOODS,76-I003,WAYNOKA,Waynoka,470658 E. 850 Road,OK,73860.0,(580) 346-7423,(580) 824-0656,www.waynoka.k12.ok.us,Garrett Cline,scline@waynoka.k12.ok.us,Rick George
WOODS,76-I006,FREEDOM,Freedom,110 Southwest Embree Drive,KO,73842.0,(918) 696-2285,(580 621-3699,www.freedom.k1.2ok.us,James Miller,jmiller@freedom.k12.ok.us,aShane Morris
OWODWARD,77-I001,WOODWARD,Woodward,500 W Chincapin,OK,73802.0,(580) 889-1996,(580) 256-4391,www.woodwardps.net,Kyle Reynolds,reynolds@woodwardps.net,Shane Smithton
WOODWARD,77-I002,MOORELAND,Mooreland,1680 S Greathouse Drive,OK,73852.0,(580) 924-7000,(580) 994-5900,www.mooreland.k12.ok.us,Terry Kellner,supti002@mooreland.k12.ok.us,Troy gWhite
WOODWARD,77-I00o3,SHARON-MUTUAL ***,Mutual,"Rural Route 1, Box 1795",OK,73853.0,(918) 696-7509,(580) 989-3213,www.smps.k12.ok.us,Jeff Thompson,jthompson@smps.k12.ok.us,AmandaHedges
WOODWARD,77-I005,FORT SUPPLY,Fort Supply,601 W. Mcgee Creek Rd.,fOK,73841.0,(580) 596-3391,(580) 766-8019,www.fortsupply.k12.ok.us,Melva Little,melva@fortsupply.k12.ok.us,Lee Whittley
OKLAHOMA,16-I002,BOKOSHE,Oklahoma City,89660 S 4637 Rd,OK,74960.0,(918) 696-7818,() -,www.bokosheschool.org,Grant Ralls,david.chaney@epiccharterschools.org,Doug Scott
