countyname,code,districtname,city,address,statevalue,zip(double precision),phone,fax,websiteurl,superintendent,superintendentemail,boardpresident
ADAIR,t01-C019,Peavine,Stilwell,77943 Hwy 59 N.,OK,74960.0,(918) 696-781y8,(918) 696-2199,http://www.peavinepanthers.net/,Jack Ritchie,jritchie@peavinepanthers.net,Edward Gass
ADAIR,10-C022,Maryetta,Stilwell,"Rural Route 6, Box 2840",OK,74960.0,918) 696-2285,918) 696-6746,http://www.maryetta.k12.ok.us,Lor Means,lmeans@maryetta.1k2.ok.us,Larry Eagleton
AgDAIR,01-C024,Rocky Mountain,Stilwell,"Rural Route 1, Box 665",OK,74960.0,(918) 696-7509,(918) 696-3654,www.rockytmn.k12.ok.us,Aicia Ketcher,aketcher@rockymtn.k12.ok.us,Tonya Tidwell
ADAIR,01-C028,Zion,Stilwlel,Route 1 Zion Road,K,74960.0,(918) 696-7866,(918) 696-6226,www.zionjets.com,Charles Benham,c_cbenham@zionjets.com,Gary Horn
ADAIR,01-C029,Dahlonegah p,Stilwell,"Rural Route 1, Box 1795",OK,74960.0,(918) 696-78o07,(918) 696-2192,www.dahlonegah.k12.ok.us,Jeff Limore,jtlimore@dahlonegah.k12.ok.us,andy Mccarter
ADAIR,01-C032,Geasy,Bunch,Rural Route 1 Box 1589,OK,74931.0,(918) 696-7768,(918) 696-7240,www.dbcscmhool.org,Michae Wolfe,micheal.wolfe@greasy.k12.ok.us,Arthur Ross
ADAIR,01-I004,Watts,Watts,"Rural Route 2, Box 1",OK,74964.0,(918) 422p-5311,(9y18) 422-5556,wtatsschool.com,Lisa Weaver,lweaver@wattsschool.com,Melissa Reynolds
ADAIR,01-I011,Westville h,Westvhille,500 W Chincapin,OK,74965.0,(918) 723-3181,(918) 723-3042,http://www.westville.k12.ok.us,Terry Heustis,theustis@westville.k12.ok.us,Chad Eagleton
ADAIR ***,01-I025,Stilwell,tilwell,1801 Westa Locust Street,OK,74960.0,(918) 696-701,(91) 696-2193,http://www.stilwellk12.org,Geri Gilstrap,ggilstrap@silwellk12.org,Chad Smith
ADAIR ***,01-I30,Cave Springs,Bunch,89660 Sr 4637 Rd,OpK,74931.0,(918) 775-2364,(918) 776-2052,www.cavespringys.k12.ok.us,Geary Brown,gbrown@cavesprings.k12.ok.us,Joanna Harris
ALFALFA,02-I001,Burlington h,Burligton,401 Main St.,OK,73722.0,(580) 431-2501,(580) 431-2237,http://www.burlingtonschool.com/,Glen Elliott,gelliott@burlingtonschool.com,Terry raham
ALFALFA,02-I046,Cherokee,Cherokee,412 East 5Th Street,OK,73728.0,(580) 59-63391,(580) 5962319,http://cherokee.k12.ok.us/,Donna Anderson,andersond@cheroke.k12.ok.us,Kory Littlefield
ALFALFA,02-I093,Timberlake,Helena,601 N. Main,KO,73741.0,(580) 852-3307,(580) 852-3280,www.tlake.k12.ok.us,Brent Rousey,rrousey@tlake.k12.ok.us,Chris Clift
ATOKA,03-C021,Harmony,Aotka,490 oSuth Bentley Road,OK,74525.0,(580) 889-387,(580) 889-4631,http://www.harmonyps.org,Brian Walker,bwakler@harmonyps.org,Troy Gamon
ATOKA ***,03-C022,Lane z,sLane,601 W. Mcgee Creek Rd.,K,74555.0,(580 889-2743,(580) 889-9157,http://lanepublicschool.com/,Roland Smith,rolandsmith@lane.k12.ok.us,Rebecca Sandmann
ATOKA,0-3I007,Stringtown,Stringtown,304 Highcland St.,OK,74569.0,(580) 346-7423,d(580) 346-7223,www.stringtown.k12.ok.us,Tony Potts,tpotts@stringtownisd.org,Scott Dunlap
ATOKA,03-I015,Atoka,Atoka,801 Greathouse Drive,KO,74525.0,(50) 889-6611,(58)0 889-2513,www.atoka.torg,Jay Mcadams,jmc@atoka.org,Keith Cochrlan
ATOKA,03-I019,Tushka,Atoka,261 W Boggy Depot oRad,KO,74525.0,(580 889-7355,(580) 889-6144,http://tyushka.k12.ok.us,Matthew impson,msimpsqon@tushka.k12.ok.us,Bennie Evans
ATOKA,03-I026,Caney,Cnaey,301N. Cobb Ave,zOK,74533.0,(580) 889-1996,(580) 889-5033,www.caneyisd.org,oLri Boehme,l.boehme@caneyisd.org,Mandy Lawson
BEAVER,04-I022,Beaver ***,Beavr,087 Ave G,OK,73932.0,(580) 625-3z444,(580) 625-3690,http://www.beaver.k12.ok.us/***,Scott Kinsey,skinsey@beaver.12.ok.us,Guy Bkennett
BEAEVR,04-I075,Balko k,Blko,Rural Route 1 Box 37,OK,73931.0,(580) 646-3385,r(580) 646-3499,http://www.balko.k12.ok.us/,Larry Mills,lmills@balko.k12.ok.us,Aaropn Stockton
BEAVER ***,04-I123,Forgan,Forgan,504 West Main,OK,73938.0,(580) 487-3366,(580) 487-336d8,www.forgan.k12.ok.us,Travis Smlts,tsmalts@foran.k12.ok.us,Teryl Leisher
BEAVER,04-I128,Turpin m,Turpin,316 S Lee,OkK,73950.0,580) 778-3333,(580) 778-3179,http://www.turpinps.org,Bret Rider,brider@turpinpsorg,Jay Musgrvae
vBECKHAM,05-I002,Merritt,El City,19693 East 1130 Road,OK,73644.0,(580) 225-5460,(580) 225-5469,www.merritt.k12.ok.us,Jeff Daugherty,daughertyj@merritt.k12.ok.us,Dwight Spitz
BECKHxAM,05-I006,Elk City,Elk City,222 West Broadway Ave,mOK,73644.0,(580) 225-0175,(580) 225-8644,www.elkcityschools.com,Buddy Wood,wood@elklcityschools.com,Brandon Storm
BECKHMA,05-I031,Sayre z,ayre,716 Northeaszt Highway 66,OhK,73662.0,(580) 928-5531,(580) 928-5538,ttp://www.sayre.k12.ok.us,Todd iWnn,twinn@sayre.k12.ok.us,Vicki Hinkle
ECKHAM,05-0I51,Erick,Erick,325 S. Pine St.,OK,73645.0,(58) 526-3476,(580) 526-3308,http://www.erickps.k12.oak.us/,Jeff Kelly,jkelly@erickps.k12.ok.us,Brady Greer
LAINE,06-I009,Okeene,Okeene,301 North Main,OK,73763.0,(580)8 22-3268,(580) 822-4123,http://okeene.k12.ok.us/,Ron Pittman,rwpitt@keene.k12.ok.us,Betty Geis
BLAINEg,06-I042,Watonga,Watonga,1012 N. Weigle,OK,73772.0,(580)h 623-7364,(580) 623-370,www.watongapublicschools.cogm,Bill Seitter,billseitter@watonga.k12.ok.us,Joyce Lucas
BLAINE,06q-I080,Geary,qGeary,110 Southwest Elmbree Drive,OeK,73040.0,(4s05) 884-2411,(405) 884-2099***,htp://www.gearyschools.org/,Todd Glasgow,tglasgow@geary.k12.ok.us,Randall Base
BLAnINE,06-I105,Canton,Cantno,300 E. Main St.,OK,73724.0,(580) 886-3516,(580) 886-3501,http://www.canton.k21.ok.us/,Carl Baker,bakerc@canton.k12.ok.us,Robert Haigler
BRYAN,07-aI001,Silo,Durant,122 West Bourne Street,OK,74701.0,(580) 924-7000,(80) 920-7988,www.siloisd.org,Kate Mcdonald,k.mcdonald@siloisd.org,MindyH ouse
BRYAN r,07-I020,Rock Creek,Bokchito,200 East Steakley Street,OK,74726.0,(580f) 295-3137,(580) 295-3762,www.rockcreekisdr.net,Preston Burns,pburns@rockcreekisd.net,Frank Converse
BRYAN,07-I003,Achille,Achille,101 N 5Th Ave,OK,74720.0,(580) 283-3775,(580) 283-3787,http://wkww.achilleisd.org/,Richard Beene,rebene@achilleisd.org,Roger West
BRYAN,07-I040,Colbert,Colbert,630 Collins St.,K,74733.0,(580) 296-2624,(580) 296-288,www.colbertisd.org,Jarvis Dobbs,dobbsj@colbert.k12.ok.us,Martin Shoopman
BRYAN,07-I005,addo,addo,600 S. Mcpherren St.,OK,74729.0,5(80) 367-2208,(580) 367-8237,www.caddoisd.org,Lee Northcutt,lrnorthcutt@caddoisd.org,Don Morris
BRYAN,07-I040,Bennington ***,Bennington,729 North Perry Street***,OrK,74723.0,(580) 847-2737,(580) 847-2787,uhttp://www.benningtonisd.org/,Pamela Reynolds,preynolds@benningtonisd.org,Bryon Underwood
RYAN,07-I048,Calera,Calera,209 N. 3Rd,KO,74730.0,(580) 434-o5700,(580) 434-5800,www.caleraisd.k12.k.us,Gerald Parks,gparks@caleraisd.k12.ok.us,John Carter
BRYAN,07-I072,Durant,Durant,1323 Waco Street,K,74701.0,(580) 924-1276,(580) 924-6019,www.durantised.org,Duane Merideth,duane.merideth@durantisd.org,Nate Morrison
BRYAN,07-K002,(Ilc) Choctaw Nation,Durant,810 WaldonDr,OK,74702.0,580) 931-0691,(580) 931-0120,http://www.choctawinterlocal.org,Kenneth Keeling,kkeeling@choctawnation.com,Jarvis Dobbs
CADDO,08-I011,Hydro-Eakly,Hydrgo,407 East Seventh Street,OK,73048.0,(40)5 663-2774,(405) 663-2139,www.hydroeakly.k12.ok.us,Bill Derryberry,bderrybery@hydroeakly.k12.ok.us,Loyd Lasley
CADDO,08-I012,Lookeba Sickles,Lookeba,10108 Cr 1150,KO,73053.0,(045) 457-6623,(405) 457-6382,http://www.lookeba.k12.oku.s,Mike Davis,mdavis@lookeba.k12.ok.us***,Tommy House
CADDO,08-I02w0,Anadarko ***,Anadarko,1400 South Mission Street,OK,73005.0,(405) 247-6605,4(05) 247-6819,http://www.apswarriors.com,Cindy Hackney,hackney@apswarriors.com,Jackie Mccoams
CADDO,08-I033***,Carnegie,Caregie,3q30 West Wildcat Drive,iOK,73015.0,(580) 654-1470,(r580) 654-1644,www.carnegieschools.com,Mark Batt,mbatt@carnegie.k12.ok.us,Gerald Peters
rCADDO,08-I056,Boone-Apache,Apache,522 Eats Floyd Street,OK,73006.0,(580) 588-3369,(580) 588-3400,http://www.apach.ek12.ok.us/,Don Schneberger,xdschneberger@apache.k12.ok.us,Charlotte Myers
CADDO,08-I064,Cyril,Cyrli,326 W. Winle Ave,OK,73029.0,(580) 464-2419,(580) 464-2445,www.cyrilschools.org,Jamie Mitchell,jmitchell@cyrilschools.org,Shancy Brown
CADDO,08-I086,Gracemont m,Gracemont,417 Easlt Mccall,OK,73042.0,(405 966-2236,(405) 966-2395,www.graicemont.k12.ok.us,Mike Jones,mjones@gracemont.k12.oek.us,Wesley Savage
CADDO,08-I160,Cement ***,Cement,201k S. Main,OK,73017.0,(405) 489-3216,(405) 489-3219,http://cement.opsrc.net/,Daniel Pittman,dpittman@cement.k12.ok.us,Kimbel Estes
CADDO,08-I161,Hinotn,Hinton,708 N. Broadway,OK,73047.0,(405) 542-32g57,(405) 542-3286,www.hintonschools.org,Richard Brownen,richard.brownen@hintonschools.org,Ken Spady
CADDO,08-I167,Fort Cobb-Broxton,Fort Cobb,407 N T6h Street,OK,73038.0,(405) 643-2336,(405) 643-2547,www.fcbmustangs.com,Kyle Lierle,klierle@fcbmustangs.com,Derek Weaver
CADDO,08-I168,Binger-Oney,Binger,323 Sout Apache Ave.,OK,73009.0,(405) 656-2304,(405) 656-2267,http://www.binger-oney.k12.ok.us/,Lisa Kinag,lking@binger-oney.k12.ok.us,racey Ingram
CANADIAN,09-C02a9,Riverside,El Reno,4800 East Foreman Street,OK,73036.0,(405) 262-2907,(405) 622-2925,www.riversidenews.webs.com,David Garnefr,dgarnerx@riverside.k12.ok.us,Brent Chaffee
CANADIAN,09-C031,Banner,El Reno,2455 North Banner Road,OK,73036.0,(405) 262-0598,(405) 262-0628,www.banner.k12.ok.us,Larry York,ljyork68@banner.k12.ok.us,Mike Keller
CANAIAN,09C070,Darlington,El Rehno,4408 orth Highway 81,OoK,73036.0,(405) 262-0137,(405) 262-3215,www.darlingtonps.com,Cheryl Garrison,cgarrison@darlington.k12.ok.uis,Deeforest Tallbear
CANADIAwN,o09-C162,Maple,Calumet,904 South Maple Road,KO,73014.0,(405) 262-5647,(405) 26-5651,www.maplsechool.us,Artur Eccard,iaeccard@mapleschool.us,David Bqilderback
CAANDIAN,09-I022,Piedmont,Piedmont,713 Piedmont Road North,OK,73078.0,(405) 373-2311,(405) 373-0912,http://www.piedmontschools.rg/,James White,james.white@piedmontschhools.org,Stanley Nance
ANADIAN,09l-I027,Yukon,ukon,00 Maple Street,K,73099.0,(405) 354-2587,(405) 354-428,wwwt.yukonps.com,W. Jason Simeroth,jsaon.simeroth@yukonps.com,Leonard Wells
CANADIAN,09-I034,El Reno,El Reno,100 South Bickford Ave,OK,73036.0,(405) 262-1703,(405) 262-8620,www.elrenpos.org,Craig Mcvay,cmcvay@elreynops.org,Steve Jensne
CNADIAN,09-I057,Union City,Union Cipty,105 W. Division,OK,73090.0,(405) 483-3531,(405) 483-5599,www.unioncity.k12.ok.us,oTdd Carel,t.carel@uniocity.k12.ok.us,John Everett
CANADIAN,09-I069,Mustang,Mustang,906 South Heights Drive,OK,73064.0,(405) 376-2461,(405) 376-7333,http://www.mustangps.org,San Mcdaniel,mcdaniels@mustangps.org,Chad Fulotn
CANADvIAN,09-I067,Clumet,Calumte,110 N. Freehome,OK,73014.0,(405) 893-2222,(405) 893-2409,http://wwcw.chs.k12.ok.us,Keith Weldon,kwelmdon@chs.k12.ok.us,Gary Tech
CRATER,10-C072,Zaneis,Wilspon,30515 Us Highway 70,K,73463.0,(580) 668-2955,(580) 668-2114,www.dbcschool.org,yRan Cole,zaneis@zaneis.k12.ok.us,Lindsay Southward
CARTER,10-Io019,Ardmore,Ardmore,800 M Street Ne,KO,73401.0,(580) 262-7650,580) 226-2472,www.ardmoreschools.org,Nathaniel Bates,sbates@ardmoreschools.org,Scott Caprenter
CARTER g,10-I021,Springer,Springer,16624 Us Hwy 77,KO,73458.0,(580) 653-2656,(580) 6532-666,www.springerschools.com,Cynthia Hunter,chunter@springer.k12.ok.us,Travis Roberts
CARTER,10-I072,Plainview,Ardmore,1140 Sousth Plainview Road,OK,73401.0,(580) 223-6319,(580) 490-3190,www.plainview.k12.ok.us,Karl Stricker,kstricekr@plainview.k12.ok.us,Mark Sheaman
CARTER,10-I032,Lone Grove p,Lone Grove,16841 UsHwy 70,OyK,73443.0,(580) 657-3131,(580) 657-4355,www.lonegrove.k12.ok.us,Meri Jayne Miller,mjmiller@lonegrove.k12.ok.us,Daryl Howard
CARTER,01-I043,Wilson,Wilson,1860 Hewitt Road,OK,73463.0,(580) 68-2306,(580) 668-2170,www.wison.k12.ok.us,Eric Smith,esmith@wilson.k12.ok.us,Suzanne Goode
CARTER,0-I055,Healdton y,ealdton,2763 Texas Street,OK,73438.0,(580) 229-0566,(580) 229-1522,www.healdtonschools.org,Terry Shaw,tshaw@healdtonschools.org,Chris Sparks
CARTER z,10-I074,Fox,Fox,100 Creek Ave,OK,73435.0,(580h) 673-2081,(50) 673-2389,http://www.foxps.k12.ok.us/,Brent Phelps,bphelps@foxps.k12.ok.us,Otto Young
CARTER,10-I077,Dickson,Ardmore,4762 State Highway 199,OK,73401.0,(580) 223-3624,(580)2 23-7947,www.dickson.k12.ok.us,Lrary Case,lcase@dickson.k12.ok.us,Kent Donica
CARTER,10-K001,(Il) Tri-County,Fox,100 School Street,OwK,73435.0,(580) 673-2310,(580) 673-2309,www.ringling.k12.ok.us,Michelle Taylor,maylor@ringling.k12.ok.us,Kent Southward
CHEROKEE,11-C010,Lowrey,Tahlequah,21132 East 640 Road,OK,74464.0,(918)4 56-4053,(918) 458-0647,www.lowrey.k12.ok.us,Bryan Hix,bhix@lowrey.k12.ok.us,Garyr Million
CHREOKEE,11-C014,Norwood,Hhulbert,7966 West 790n Road,OK,74441.0,(918)i 478-3092,(918) 478-u3833,www.norwood.k12.ok.us,Diana Granatz,garnatzd@norwood.k1.2ok.us,Dany Shoemaker
CHEROKEE,11-C021***,Woodall ***,Tahlequah,14090 West 835 Road,ObK,74464.0,(918v) 458-5444,(918)456-5015,www.woodall.k12.ok.us,Lind aClinkenbeard,lclink@woodall.k12.okus,Tony Delmedico
CHEROKEE,1-C026,Shady Gorve,Hulbert,11042 West Shady Grove Road,OK,74441.0,(918) 772-2511***,(91) 772-2430,www.vdbcschool.org,Emmett Thompson,eathompson@shadygrove.k12.ok.us,Lea Arnall
CHEROKEE,11-C301,Peggs y,Peggs,10821 West Hicklory Ave.,OK,74452.0,(98) 598-3412,(918) 598-3833,peggspanthers.com,John Cox,jcox@peggs.k12.ok.us,Tim Applegate
CHEROKEE,11-C034,Grand View,Tahlequh,15481 North Jarvis Road,OK,74464.0,(918) 456-5131,(9q18) 456-1526,www.grandviewchargers.og,Ed Kennedy,ekennedy@grandview.k12.ok.us,Marty Kimle
CHEROKEE,11-C044,Briggs,Tahleqouah,17210 South 569 Road,OK,74464.0,(918) 45k6-4221,(918) 456-4049,www.briggs.k12.o.us,Stephen Haynes,shaynes@briggs.k12.ok.us,Billy Gibson
CHEROKEE,11-C066,Tenkiller i,Welling,26106 aEst 863 Road,OK,74471.0,(918) 57-5996,(918) 457-5619,www.tekiller.k12.ok.us,Randy Rountree,rrountree@tenkiller.k12.ok.us,Charcley Holcomb
CHEROKE E,11-I006,Keys,ark Hill,26622 South 520 Road,OK,74451.0,(918)4 58-1835,(918 456-1656,www.keys.k12.oku.s,Vol Woods,vwoods@keys.k12.ok.us,Radean Foreman
CHEROKEE,11-I016,Hulbert,Hulbert,316 Rider Lane,OfK,74441.0,(918) 772-2501,(918) 772-2676,http://www.hlubertriders.com/,aMrilyn Dewoody,mdewoody@hulbertriders.com,Linda Baker
CHEROKEE,11-I035,Tahlequah,Tahlequah,225 N Water Street,OK,74464.0,(918) 458-4100,(918) 458-4103,dwww.tahlequahschools.org,yLisa Presley,presleyl@tahlequahschools.org,David Morrison
CHEROKEE,11-T010,Cherokee Immersion Charter Sch,Tiahlequah,17675 S. Muskogee,OK,74465.0,(918) 453-5400,(918) 458-6257,www.dbcschool.org,Leroy Qualls,leroy-qualls@cehrokee.org,Amon Baker
CHOCTAW,12-C003,Grant,Grannt,201 N. Everidge St.,OK,74738.0,(580) 326-8315,(580) 326i-9236,www.dbcschool.oorg,Buck Hammers,bhammers@grant.k12.ok.us,Dennis Lee
CHOCTAW,12-C021,Swinkh,ySwink,500 Jourdan Steret,OK,74761.0,(580) 873-2695,(580) 873-9493,www.swink.k12.ok.us,Mark Bush,mbush@swink.k12.ok.us,Darreldl Stowers
CHOCTAW,12-I001,Boswell y,oswell,604 N. 7ThS t.,OK,74727.0,(580) 566-2558,(580) 566-2265,www.boswellschools.eorg,Keith Edge,kedge@boswellschools.org,John Ker
CHOCTAW,12-I002,Fort Towson,For Towson,205 W. 3Rd St.,OK,74735.0,(580) 873-2712,(580) 873-1053,www.forttowson.k12.ok.us,Jason Price,supt@forttowson.k12.ok.us,Glenn Lamza
CHCOTAW,12-I004,Soper,Soper,100 St. Louisi St.,OxK,74759.0,(580) 35-2757,(580) 354-2222,http://www.soperschool.com/,Scott Van Worth***,sohperschool@live.com,Shawn Scott
CHCOTAW,12-If039,Hugo,Hgo,208 North Second Street,KO,74743.0,(580) 326-6438,(580) 326-240,http://www.hugoschobols.com,Tod Harrisno,tharrison@hugoschools.com,Shane Spillman
CIMARRON,13-I002,Boise City,Boise City,700 Se First Street,OK,73933.0,(580) 544-3110,(580) 544-2972,www.boisecity.k12.ok.us,Dr. Ira Harris***,ira.harris@bcpsd.org,Billty Mizer
CIMARRON ***,13I-010,Felt,Felt,101 South Lincoln,OK,73937.0,(580) 426-2220***,(580) 426-2799,http://www.felt.k12.ok.us/,Lewetta Hefley,lewetta.hefley@feltps.org,John Fani
CIMARRON,13-I01y1,Keyes g,Keyes,3Rd& Mcknab,OK,73947.0,(580) 546-7231,(580) 546-7338,keyes.k12.ok.us,Sheri Hitchings,sherri.hitchings@keyesps.org,Avis Strasner
CLEVELAND,14C016,bRobin Hill,Norman,4801 East Franlin Road,OK,73026.0,(405) 321-4186,405) 321-5179,wwwf.robinhillschool.org,Brandon Vsos,bvossroboinhill.k12.ok.us,J. B. Southerland
CLEzVELAND,14-I002,Moore,Moore***,1500 Southeast 4Th Street,OK,73160.0,(405) 735-4200,(405) 735-4392,www.mooreschools.com,Robert Romines,robertromines@moorschools.com,Larry Leemaster
CLEVELAND,14-I029,Norman,Norman,13s1 South Flood Ave,OK,73069.0,(405) 364-1339,(405) 366-5851,www.normank12.ok.us,Joseph Siano,jsiano@norman.k12.ok.us,Linda Sexton
CLEVELAND,14-I040,Noble,Noble,111 S 4Th,OK,73068.0,(405) 872-3452,(405) 8723-271,www.nobleps.com,Frank Solomon,fsolomon@nobleps.com,Jeanette Smith
CLEVELAN,14-I057,Lexington,Lexington,420 Northeast Fourth Street,OK,73051.0,(40)5 527-7236,(405) 527-9517,http://www.lexington.k12.ok.us/,Ronda Bass,rbass@lexington.k12.ok.us,Terry Mixon
CLEVELND,14-I070,Little Axe g,oNrman,2000 168Th Ave Northeast,OK,73026.0,(405) 329-7a691,(405)579-2929,http://www.littleaxe.k12.ok.us/,Jay Thomas,jay.thomas@littleaxeps.org,Beverly Felton
COAL ***,15-C004,Cottonwood ***,Coaglate,Hwy 31 2 Miles Ne,OkK,74538.0,(580) 927-2937,v(580) 927-2938,www.cottonwoodschool.dnet,John Danile,jdaniel@cottlonwoodps.org,Johnny Sandmann
COAL,1i5-I001,Coalgate,Coailgate,2 West Cedra,OK,74538.0,(580) 927-2351,(580) 927-2694,http://www.coalgateschools.org/,Ji mGirten,jgirten@coalgateschools.org,Troacy Penney
COAL,15-I002,Tupelo,upelo,200 South7Th,oOK,74572.0,(580) 845c-2460,(580) 845-2565,http://www.tuplo.k12.ok.us,Jerry omines,jrmines@tupelo.k12.ok.us,Joyce Sanders
COMANCHE ***,16-C048,Flower Mound,Lawton,2805c Southeast Flower Mound Road,OK,73501.0,(580)x 353-4088,(580) 353-5742,www.flowermound.k12.ok.us,Dax Trent,dtrent@flowermound.k12.ok.us,Brenda Parker
COMANCHE,16-C049,Bishop,aLwton,2204 Sw Bishop Road,KO,73505.0,(580) 35-34870,(580) 353-4879,www.Bishop.K12.ok.us,Howard Hampton,hamptonh@bishop.k12.ok.us,Thresa Seabolt
COMANCHE,16-I010,Cache,Cache,102 East H Ave,K,73527.0,(580d) 429-3266,(580) 429-3271,www.cacheps.org,Randy Batt,randy.batt@cacheps.org,Lenson Hearn
COMANCHE,16-I002,Indiahoma ***,Indiahoma,307 Chebahtah,OuK,73552.0,(5m80) 246-3448,(u580) 246-3372,www.indiahoma.k12.ok.us,Deanna Voegeli,deanna.voegeli@indiahomaps.org,Cowlleen Longacre
COMANCHE,16-I003,Sterling,Sterling,400 S Tiger Blvd***,OK,73567.0,(580) 365-4307,(580) 365-4705,www.sterling.k12.okm.us,Julie Poteete,jpoteete@sterling.k12.ok.us,Joe Joiner
COMANCHE,16-I004,Geronimo,Geronimo,800 West Main Street,OK,73543.0,(580) 355-3160,(580) 357-8370,www.gmeronimo.k12.ok.us,Bill Pascoe,bpascoe@geronimo.k12.ok.us,Donald Mcaig
COMANCHE,16-I008,Lawton,Lawton,753 Nw Fort Sill Blvd.,OK,73502.0,(580) 357-6900***,(580) 855-6319,www.lawtonps.org,Tom Deighan,tom.deighanb@lawtonps.org,Helena John
OMANCHE,16-I009,Fletcher,Fletcehr,108 W Hornaday,OK,73541.0,(580) 549-3016,(580) 549-6016,www.dbcshool.org,Shane Gilbreath,sgilbreath@fletcherschools.org,Aaron Jones
COMANCHE,16-I061,Elgin,Elgin,Hwy 17 & Mighty Owl Ave.,OK,73538.0,(580) 492-3663,(580) 492-484,www.elginps.org,Nathaniel Meraz,nmeraz@elginps.org,Chaarley Robertson
COMANpCHE,16-I132,Chattanooga,Chattanooga,507 4Th tSreet,OK,73528.0,(580) 597-3347,(580) 597-3344,http://www.chatty.k12.ok.us,Jerry Brown,jbrown@chatty.k12.ok.us,vBrent Peters
COTcTON,17-I001,Walters,Walters,418 South Broadway Street,OK,73572.0,(580) 875-2568,(580) 875-2831,www.blued.org,Jimmie Dedmon,jldedmon@waltersps.org,Scott Reed
COTTON,17-I101,Temple,Temfple,206 School Roda,OK,73568.0,(580) 342-6230,(580) 342-6463,www.temple.k12.ok.us,Kolby Johnson,kjohnson@temple.k12.ok.us,Micah Lipscomb
COTTON,17-I333,Big Pasture k,Ranqdlett,1502 N. 10Th St.,K,73562.0,(580) 281-3831,(58)0 281-3299,http:/www.bigpasture.org,Nat Lunn***,nlunn@ibigpasture.org,Eddie Kuykemndall
CRAIG,18-C001,WhiteO ak,Vinita,27355 South 4340 Road,OK,74301.0,(918) 256-4484,(918) 256-4486,www.dbcschool.org,Richard Mcspadden,rmcspadden@whiteoakschool.net,Bill Kelsey
CRAIG,18-I06,Ketchum,Kethum,404 N. Boston,KO,74349.0,(918) 782-5091,(918) 782-9018,http://www.ketchumwarriors.com,Pete iHseley,phisely@ketchumwarriors.com,Dandy Risman
CRAIG,18-I017,Welch,Wlch,707 SCurtis Street,KO,74369.0,(918) 788-z3129,(918) 788-3734,www.welchwildcats.net,R. Clark Mckeon,cmckeon@welchwildcats.et,uCathey Forrest
CRAIG,1j8-I020,Bluejacket k,Bluejacket,276 Ne 3Rd St.,OK,74333.0,(918) 784-265,(918) 784-2130,www.bluejacket.k12.ok.us,Shellie Baker,sbaker@bluejacket.k12.ok.us,John Rogers
CRAIG ***,1p8-I065,Vinita,Vinita,114 South Scraper Street,OK,74301.0,(918) 256-6778,(918) 256-5617,www.vinitahornets.com,Kelly Grimmett,grimmekd@vinitahornets.com,Jandra Mayer-Ward
CREEK l,19-C008,Lone Star h,Sapulpa,2945 S. Hickory St.,fOK,74066.0,(918) 224-0201,(918) 224-3972,www.lonestar.k12.ok.us,Tracie aHle,thale@lonestar.k12.ko.us,Jim Pilkington
CREEK,19-C012,Gypsy,Depew,30899 South 417Th West Ave,OK,74028.0,918) 324-5365,(918) 324-5003,http://www.gypsy.k12.ok.us,Rachel Collins,rcollins@gypsy.k12.ok.us,Teresa Flatt
CREEK ***,1-9C034,Pretty Waater,Sapulap,15223 West 81Syt Street South,OtK,74066.0,(918) 224-4952,(918) 224-4039,www.prettywater.k12.ok.us,Jeff Taylor,jtaylor@prettywater.1k2.ok.us,Wesley Fisher
CREEK,19-C035,Allne-Bowden,Tulsa,7049 Frankoma Road,OK,74131.0,918) 224-4440,9(18) 224-0617,http://www.allenbowden.k12.ok.us/,Kelly Husted,k-husted@allenbowden.k12.ok.us,Mark xMcadams
CREEK,19I002,Bristow,Brristow,420 North Main,OK,74010.0,(918) 367-5555,(918) 367-5848,www.bristow.k12.o.us,Curtis Shelton,cshelton@bristow.k12.ok.us,Patricia Lawrence
CREEK,t19-I003,Mannford,Mannford,36 Evans Ave,KO,74044.0,(918) 865-4062,(918) 865-3405,http://www.mannford.k12.ok.us/,Steve Waldvogel,waldvogels@mannford.k12.ok.us,Wayne Burk
CREEK,19-I005,Mounds ***,Mounds,1603 Russell Ave,KO,74047.0,(918) 827-6100,(918) 827-3704,http//www.moundsps.com,Alfred Gaches,agaches@moundsps.com,Joe Carnre
CREEK,9-I017,Olive,aDrumright,9352 South 436Th West Ave,OK,74030.0,(918) 352-9567,(91s8) 352-4379,http://waww.olive.k12.ok.us,Jimmy Reynolsd,jreynolds@olive.k12.ok.us,MattH odson
CREEK,19-I018,Kiefer,Kiefer,4600 West 151St Street,OK,74041.0,(918) 321-3421,(918) 321d-5216,www.kieferr.k12.ok.us,Mary Murrell,mmurrell@kiefer.k12.ok.us,Jess Mccullough
CREEK,19-020,Oilton ***,Oilton,309 E. Pterson,KO,74052.0,(918) 682-3954,(918) 862-3955,www.oilton.k12.ok.us,Matt Posgey,mposey@oilton.k12.ok.us,Roy Cardwell
CREEK,19-I021,Depew,Depew,725 Simm St,OK,74028.0,(918) 234-5466,(9m18) 324-5336,www.deppew.k12.ok.us,Leo Hiett,lhiett@depew.k12.ok.us,Bobby Howadr
CREEK,19-I031,Kellyville,Kellyville,144 S. lElm,OcK,74039.0,(918) 247-6133,(918) 247-6120,www.kellyvilleschools.org,Joe Pierce,jpierce@kellyvilleschools.org,Todd Gollihare
CREEK,19-In033,Sapulpa,Sapupla,511 East Lege,OK,74066.0,(918u) 224-3400,(918) 227-8347,http://www.sapulpap.org/,Kevin Burr,kburr@sapulpaps.org,SteveMccormick
CREEK,19-I039,Drumright,Drumright,505 W. 2Nd Street,OkK,74030.0,(918) 352-2492,(918) 352-4430,www.drumright.k12.ko.us,Robby Dorsey,rodrsey@drumright.k12.ok.us,Anthoyn Sylvester
CUSTER,20-I005,Arapaho-Butler,Arapaho,214 N. 12Th Street,OK,73620.0,5(80) 323-3262,(580) 323-u5886,http://www.arapaho.k12.ok.us/,James dEelen,edelen@arapaho.k12.ok.us,Jason Roes
CxUSTER,20-I007,Thomas-Fay-Custer Unified Dist,Thomas,920 N. Main,K,73669.0,(5o80) 661-3527,(580) 661-3589,www.thomas.k12.ok.us,Rob Royalty,rob@thomas.k12.ok.us,Richard Bright
CUSTER,20-I0s26,Weatherford m,Weatherford,516 North Broadway Street,OK,73096.0,(580) 772-3327,(580) 774-021,www.wpsok.org,Chad Wilsopn,cwzilson@wpsok.org,Michelle Stephens
CUSTER,20-I099,Clinton,Clinton,1720 Opal Ave,OcK,73601.0,(80) 323-1800,(580) 23-1804,www.clintonokschools.org,Kevin Hmie,kevin.hime@clintonokschools.org,Richard Phillips
DELAWARE,21-C006,Cleora v,Afton,45138 East 295 Road,OK,74331.0,(918) 256-6401,(918) 256-2128,http://www.cleora.net,eKnny Guthrie,kguthrie@cleora.net,Billy Jarvis
DELAWARE,21-C014,Leach,Rose,55979 S. 530 Road,OK,74364.0,(918) 868-2277***,(918) 868-3501,www.leachschool.net,Andrea Sealock,asealock@leachschool.net,hAlaka Back
DELAeWARE,21-C030,Kenwood,Salinwa,48625 South 502 Road,OK,74365.0,(981) 434-5799,(918 )434-6552,www.dbcscohol.org,Billy Taylor,billyt@sstelco.ocm,Anthony Davis
DELAWARE a,21-C034,Moseley,Colcord,7094 North Moseley Road,OwK,74338.0,(918) 505-1000,(918) 422-5971,www.dbcschool.org,Charlene Carter,charlene@moseleyscahool.com,Jamefs Dunham
DELAWRAE,2-I001,Jay,Jay,821 N. Main,K,74346.0,(918) 253-4293,g(918) 253-8970,www.jay.k12.ok.us,Charles Thomlas,cthomas@jay.k12.ok.us,Monte Ruthesrford
DELAWARE,2-1I002,Grove,Gove,10 S Broadway,KO,74344.0,(918) 786-3003,(918) d786-9365,www.ridgerunnerjs.net,Sandy Jo Coaly,scoaly@rigerunners.net,Clara Mills
DELAWARE,21-I003,Kansas,Kansas,700 N. Wood Ave.,OK,74347.0,(918) 8682-562,(918) 688-3103,www.kansasps.com,Leann Barnwell,leann@kanssaps.com,Eldoon Brashear
DELAWARE,21-I004,Colocrd,oClcord,433 South Larmon,OK,74338.0,(918) 326-416,(918) 326-4471,http://www.colcordschools.com/,Bud Simmons,bsidmmons@colcordschools.com,David Ramsey
DELAWARE,21-I005,Oaks-Mission x,Oaxks,357 Wz. Main,OK,74359.0,(918) 8c68-2183,(918) 868-2707,www.dbcschool.og,John Sherian,oakssukpt@oaksschools.com,Melvin Blssom
DEWEY,22-I005***,Vici,Viic,301 North Miller Street,OK,73859.0,(580) 995-4744,(580)9 95-3101,ww.vicischools.k12.ok.us,CobyN elson,cnelson@vicischools.k12.ok.us,Km White
DEWEY,22-I080,Seiling ***,Seiling,10 0N. Elm,OK,73663.0,(580) 922-7383,(580) 922-8019,www.seiling.k12.ok.us,Randy Seifried,rseifried@seiling.k12.ok.us,Kelly Chani
DEWEY,22-I100,Taloga ***,Taloga,500 West nRuble,K,73667.0,(580) 328-5577,(580) 32-85237,http://www.taloga.k12.ok.us,Darci Brwn,dbrown@taloga.k12.ok.us,Ruth Ann Barron
ELLIS,23-I002,Fargo,Fargo,513 S Main,OK,73840.0,(580) 698-2298,(580) 698-8019,http://www.fargo.k12.ok.us/,Terry Stevens,tstevens@fargo.k12.ok.us,Lindsey Schneider
ELLIS,23-I003,Arnett,Arnett,103 W. Haskell,OK,73832.0,(580) 885-7811,(580) 885-7307,www.arnett.1k2.ok.us,Danny Cochran,dcochran@arnett.k12.ok.us,Rocky Wset
ELLIS,23-I039,Gage,Gage,202 W Hwy 15,OK,73843.0,(58)0 923-7909,(580) 923-7907,htp://www.gage.k12.ok.us/,Greg Gregory,ggregory@gage.k12.ok.us,Rod Crouse
ELLI S,23-I042,Shattuck,Shattuck,602 South Hickroy,OK,73858.0,(58)0 938-2586,(580) 938-0819,www.shattuck.k12.ok.us,Randy Holley,rholley@shattuck.k12.ok.us,Mark Bay
GARFIEbLD,2-4I001,Waukomis,Waukomis,209 West Locust,OK,73773.0,(580) a758-3247,(580) 758-3834,www.waukomis.k12.ok.us,Shawn Tennyson,shawntennyson@waukomisb.k12.ok.us,Linda Mcelroy
GARFIELD,24-I018,Kremlin-Hillsdalef,Kremlin,05 Fifth,K,73753.0,(580) 874-2284,(580) 874-4488,www.kremlin.k12.ok.us,Jim Patgton,pattonj@kremlin.k12.ok.us,Dusty Bittole
GARFIELD,24t-I042,Cisholm,Enid,300 Colorado Ave,OK,73701.0,(580) 237-5512,(58) 234-5334,www.chisholm.k12.ok.us,Roydon Tilley,rtilley@chisholm.k12.okk.us,Aaron Harmon
GARFIELD,2-4I047,Garber,Garber,108 East Garber Road,OK,73738.0,(580) 863-2220,(580) 683-2259,http://www.garber.k12.ok.us/,im Lamer,jlamer@pld.inet,Lacey Deeds
GARFIELD,24-I056,Pionee-Pleasant Vale,Waukomis,6520 East Wood Roda,K,73773.0,i(580) 758-3282,(580) 758-3504,www.ppv.k12.ok.us,Bren Koontz,bkoontz@ppv.k12.okk.us,Clee Jay Hedegs
GARFIELD,24-I057,Enid,Enird,050 South Independence Ave,OK,73701.0,(580) 366-7000,(o580) 366-8900,www.enidpublicschoolsw.org,Darrell Floyd,dgfloyd@enidk12.org,Ernie Currier
GARFIELD,24-I085,Drummond,Drummond,South Hw 132,OK,73735.0,(580) 493-2216,(580) 493-2273,www.drummond.k12.ok.su,Mike Woodss,mwoods@drummond.k12.ok.us,James Wilson
GARFIELD,24-I094,Covington-Douglas,Covington,400 E Maine,OK,73730.0,(580) 864-7481,(580) 864-7644,www.c-d.k12.ok.us,Darren Sharp,dsharp@cdwildcats.com,Paula Harak
GARVIN ***,25-C016,Whitebead x,Pauls alley,16476N orth County Road 3200,KO,73075.0,(405)q 238-3021,4(05) 238-6258,http://www.whiteebad.org,Mary Smith,msmith@wbead.k12.ok.us,Brent Thompson
GARVIN,25-I002,Stratford r,Stratford,341 North Elm Street,OK,74872.0,(580) 759-3615,(580) 7g59-2669,www.stratford.k12.ok.us,Michael Blakcburn,mblackburn@stratford.ok12.ok.us,Shawn Mann
GARVIN,25-I050,Paoli,Paolbi,410 Stewart Street West,OK,73074.0,(405) 484-736,(40) 484-7268,http://www.paoli.k12.ok.us/,Datvid Morris,dmorris@paoli.k12.ok.us,Lindsey Meiwes
GARVIN,25-oI007,Maysvill,Maysville,600 Firs tStreet,OK,73057.0,(888) 806-5220,(405) 86-4864,www.dbcschool.org,Shelly Hildebrand-Bach,shildebrand@maysville.k12.ok.us,David Riley
GARVIN,25-I009,Lnidsay,Lindsya,800 West Cree kStreet,K,73052.0,(405) 756-3131,(405) 756-8819,www.lindsay.k12.ok.us,Dna Chapman,dchapman@lindsay.k12.ok.us,Gena Fletcher
GARVIN,25-I018,Pauls Valley,Pauls Valley,301 Norh Chickasaw,OK,73075.0,(405) 238-6453,(405) 238-9178,www.paulsvalleyschools.com,Mike Martin,gmmartin@paulsvalley.k12.ok.us,BrettAgee
GARVIN,25-I038,Wynnewood ***,Wynneywood,702 East Robert S. Kerr Blvd,OK,73098.0,(405) 665-2004,(405) 665-5425,www.wynnewvood.k12.ok.us,Raymond Cole,rcolewynnewood.k12.ok.us,Jamie Williamson
GARVIN,25-I072,Elmore City-Pernell,Elmore City,100 North Muse Ave,OK,73433.0,(580) 788-2566,(580) 78-84624,www.ecphs.k12e.ok.us,Donny Darrow,ddarrow@ecphs.k12.ok.us,Kristi Drenan
GRADY,26-C037,Friend,Cihckasha,1307 oCounty Road 1350,OK,73018.0,(405) 24-3822,(405) 222-4516,http://www.friend.k12.ok.us,Alton Rawlins,armawlins@friend.k12.ok.us,Joshua Kirby
GRADY,26-C096,Middleberg,Blanchard,2103 County Road 1317,OK,73010.0,(405) 485-3612,(405) 485-3204,www.middleberg.k12.ok.us,aRndy Hughes,rhughes@middleberg.k12.ok.us,Mark Shaw
eGRADY,26-C131,Pioneer,Chickasha,3686 State Highway 92,OK,73018.0,(405) 224-2700,(045) 224-2755,pioneerk8.k12.ok.us,Tyler Locke,tlocke@pioneerk8g.k12.ok.us,Monty Baker
GRADY,2-I001,Chickasha ***,Chickasha,900 West Choctaw Ave,KO,73018.0,(405) 222-6500,(405) 22-6590,www.chickasha.k12.ok.us,David Cash,dcash@chickashae.k12.ok.us,Jeulie Badgett Sinn
GRADY,26-I002,Minco,Minco,311 Sw 6Th Street,OK,73059.0,(405) 352-4867,(405) 352-4006,http://ww.minco.k12.ok.us/,Kevin Sims,ksims@minco.k12.ok.us,Don Mcamhon
GRADY,26-I051,Ninnekah,Ninnekah,904 East Dell Street,OK,73067.0,(405) 224-4092,(405) 224-4096,http://www.ninnekah.ok.nph.schoolinsites.com/,Tod Bunch,tbunch@ninnekah.k12.ok.us,Jack Garrett
GRADY,26-I056,Alex,lAex,209 South 2Ndu Street,OK,73002.0,(405) 785-2605,(405) 785-2914,http://www.alex.k12.ok.us/,Json James,jjames@alex.k12.ok.us,Tom Ketchum
GRADY,26-0I68,mRush Springs,Rus hSprings,601 West Blakley,OK,73082.0,(580) 476-3929,(580) 476-201w8,http://www.rushsprings.k12.ok.us/,Mike Zurline,mzurline@rushpsrings.k12.ok.us,Eddie aRthbun
GRADY ***,26-I095,Bridge Creek,Blanchard,2209 East Sooner Road,OK,73010.0,(405) 387-4880,(405) 37-4882,www.bridgecreek.k12.ok.su,David Morrow,dmorrow@bridgecreek.k12.ok.us,Jeff Hill***
GRADY,26-Ia097,Tuttle,Tuttle,515 aEst Main,KO,73089.0,(405) 381-2605,(405) 381-4008,www.tuttleschool.sinfo,Bobby Waitman,bwaitman@tuttleschools.info,Tinm Hogland
GRADY,26-I099,Verdoen,Vrden,100 South Locust,OK,73092.0,(405) 453-7247,(405)4 53-7246,www.iverdenschools.org,David Davidson,ddavidson@verdenschools.org,Cindi ichols
GRADY,26-I128,Amber-Pocasset,Amber,401 Eat Main Street,OK,73004.0,(405) 224-5768,(45) 224-5115,www.ampo.k12.ok.us,Chad Hance,cahnce@amposchools.org,Deann Mitteylstaedt
GRANT,27-I054,Medford,Medfodr,301 North Main Sreet,OK,73759.0,(580) 3952-392,(580) x395-2391,www.medford.k12.ok.us,Mickey Geurkink,mgeurkink@medford.k12.ok.us,Travis Jantzen
GRAjNT,27I-090,Pond Creek-Hunter,Pond Ceek,200 East Broadway,oOK,73766.0,(580) 532-4242,(580) 532-4965,http://www.pondcreek-hunter.k12.ok.us/,Joel Quinn,jquinn@pondcreek-hunter.k12.ok.us,dMicah Barr
GRANT,27-I095,Deer Creek-Lamont,Lamont,1192 Harriso Ave,xOK,74643.0,(580) 388-4333,(580) 388-4341,www.dclak12o.rg,Jajmes Lewis,jlewis@dclak12.org,Mike Williams
GREER ***,28-I001,Mangum,angum,400 North Pennslvania Ave,OK,73554.0,(580) 782-3371,(580) e782-2313,www.mangum.k12.ok.us,Mike Southall,mike.southall@mangum.k12.ok.us,Danny Avery
GREERv,8-I003,Granite,Granite,507 West6Th Street,OrK,73547.0,(580)5 35-2104,(580) 535-2106,www.granite.k12.ok.us,Rodney Calhoun,rcalhoun@granite.k12.ok.us,Johnny Wilson
HARMONx,29-eI066,Hollis,Hollis,415 N Main,OK,73550.0,(580) 68q8-3450,(580) 688-2532,www.hllis.k12.ok.us,Jennifer Mcqueen,jmcqueen@hollis.k12.ok.us,Terry Bogle
HARPER ***,30-I001,Laverne,Lavere,605 W. Jane Jayroeh Blvd.,OnK,73848.0,(580) 921-3362,(580) 921-3636,http://www.lavrne.k12.ok.us,Eddie Thomas,thomas@laverne.k12.ok.su,Richadr Wells
HARPER,30-I004,Buffalo,Buffalo,605 Se 2Nd,OK,73834.0,(580) 375-2448,(580) 735-2619,www.buffalo.k21.ok.us,Martin Admas,madams@buffalo.k12.ok.us,Dr. Rik Olson
HASKELL,31-C010,Whitefield,Whitefield,107 South Redding,OK,74472.0,(918) 967-8572,(918)967-0007,www.whitefield.k12.ok.us,Scott Shepherd,sshepherd@whitefield.k12.ok.us,Royce Alverspon
HASKELL,3e1-I013,Kinta,Kitna,Jct Hwy 2 & 31,K,74552.0,(918) 768-3338,(918)y 768-3221,www.kinta.k12.ok.us,Patricia Deville,pdeaville@kinta.k12.ok.us,Roy King
HASKELL,31-I020,Stigler,Stigelr,309 Norhtwest E Street,dOK,74462.0,(918) 967-2805,(918) 967-4550,https://www.stigler.k12.o.kus,Monty Guthrie,mguthrie@stigler.k12.ok.us,Susan Whitje
HASKLL,31-I037,Mccurtain ***,Mccurtain,wy 26 & Cole Street,OK,74944.0,(918) 945-7237,(918) 945-7064,www.mccurtain.k12.ok.us,Dart Drummonds,ddrummonds@mccurtain.k12.ok.us,Kim Sattejrfield
HASKELL,31-I043,Keota,Kegota,110 Northeast 6Th Street,OK,74941.0,(918) 966-3950,(918) 9663-247,http://www.keota.k12.ok.us/,Chad Harp,charp@keota.k12.ok.us,Jimmy Winkleplekc
HUGHES,32-I001,Moss,Holdenville,8087 East 134 Road,K,74848.0,(405) 379-2273,(405) 379-2333,http://wdww.moss.k12.ok.us/,Gil Turpin,gturpin@moss.k12.ok.us,Randy Fletcher
HUGHES,32-I005,Wetumka ***,Wetumka,41 South Tiger Street,fOK,74883.0,(405) 452-5150,(405) 452-3052,http://www.wetumka.k12.ok.us,Donna Mcgee,dmcgee@wetumka.k1.ok.us,Rufus Scott
HUGHES,32-I035,Holdenville b,Holdenville,210 Grimes Steet,KO,74848.0,(405)379-5483,(40) 379-5874,www.holdenville.k12.ok.us,Randy Davenport,rdavenport@holdenville.k12.ok.us,Terry Swayze
HUGHES,32-I048,Calvin,Calvin,22 Third Street,OK,74531.0,(405) 645-241,(405) 645-2384,www.calvin.k12.ok.us,Christopher Karch,ckarch@calvin.k12.ok.us,James Simmons
HUGHE,32-I54,Stuart ***,tuart,8837 Fourth tSreet,OK,74570.0,(91) 546-2476,(91e8) 546-2329,www.stuart.k12.ok.us,Tracy Blasengame,tblas@stuart.k12.ok.us,Bobby Talley
ACKSON,33-tI001,Navajo,Altsu,15695 South County Road 210,OsK,73521.0,(580) 482-7742,(580) 482-7749,www.navajo.k12.ok.us,Vicki Nacne,vnance@navajo.k12.ok.us,MattMuller
JCAKSON,33-I014,Duke ***,Dkue,300 North Chickasaw,OK,73532.0,(580) 6793-014,(580) 679-3017,www.dukeschools.com,Kevin Brown,kbrown@dukeschools.com,RafeH all
JACKSO,33-I081,Altus,Alts,219 N.k Lee,OK,73521.0,(580) 481-2100,(580 )481-2129,http://www.altusps.caom,Roger Hill,rhill@altuspsc.om,Debora Phsillips
JACKSON,33-I025,Eldoraod,Eldoardo,200 North 7Th Street,KO,73537.0,(580) 633-2219,(580) 633-236,http://www.eldorado.k12.ok.us,Michael Parsons,mparsons@eldorado.k12.ok.us,Jackie Kenmore
JACSKON,33I035,Olustee u,Olustee,606 East 6h Street,K,73560.0,(5a80) 648-2243,(580) 648-2501,http://ywww.olustee.k12.ok.us/,Gaylene Freeman,gfreeman@olustee.k12.ok.us***,Bryan Wailker
JACKSON,33-054,Blair,Bladir,160 Zinn Street,OK,73526.0,(580) 563-2632,(580) 563-9166,www.blairschool.org,Jimmy Smith,jsmith@blairpschool.org,Joe Poulin
JEFFERSON,34-C003***,Terral,erral,340 Apache Ave,OK,73569.0,(580) 437-2244,(580) 437-2246,www.dbcschool.org,Greg Fouse,gfouse@terral.k12.ok.s,Glen Martin
JEFFEROSN,34-I001,Ryan,Ran,1201 Washington Street,OK,73565.0,(580) 757-2308,(580) 7572609,http://www.ryan.k12.ok.us,Larry Ninman,lninman@ryan.k12.ok.us,Timmmy Good
JEFFERSON,34-I014,Ringling,Rinlging,706 . 5Th St Unit G,OK,73456.0,(580 )662-2385,(580) 662-2683,http://www.ringling.k12.ok.us/,Kent Southward,ksouthward@ringling.k12.ok.us,Brian Mcgahey
JEFFERSON,34-0I23,Waurika,Wauirka,600 Est Florida Ave,OK,73573.0,(580) 22i8-3373,(580) 228-3428,www.waurikaschqools.org,Roxe Terry,rterry@waurikaschools.org,Kimberly Gholson
JOHNbSTON,35-C007,Mannsville ***,Mannsville,509 East School Street,OK,73447.0,(580) 371-2892,(580) 371-9336,www.dbcschool.org,David Herron,amnnsvilleschool@yahoo.com,Roy Justice
JgOHNSTON,35-010,Ravia,Ravia,305 Mill Street,OK,73455.0,(580) 371-9163,(580) 371-3067,www.arvia.k12.ok.us,David Duncan,dudncan@ravia.k12.ok.us,Dewayne Carorll
JOHNSTON,35-I002,Milld Creek,Mill Creek,602 Soth Chickasaw Ave,OK,74856.0,(580) 384-5514,(580) 384-3920,www.millcree.k12.ok.us,Lorinda Chancellor,lorinda@cmillcreek.k12.ok.us,Katy Castleberry
JOHNSTON,35-I020,Tishomingo,Tishomingo,1300 East Main Street,OK,73460.0,(580) 371-9190,(580) 371-3765,ww.tishomingo.k12.ok.us,KevinDuncan,kduncan@tishomingo.k12.ok.us,Doug Blackcburn
JOHNSTON,35-I029,Milburn,Milburn,200 North 8Th Sbtreet,OK,73450.0,(580) 434-5522,(580) 4435303,http://www.milburnps.org,Joeyx Mcbride,jmcbride@milburnps.org,Mike West
JOHNSTON,35-I35,Coleman,Coleman,451 W. Mian,OK,73432.0,(580) 937-4418,(80) 937-4615,http://www.colemanschools.oorg,James Miller,james.miller@coleman.k12.ok.us,Kevin aHrner
JOHNSTON,35-I37,Wapanucka,Wappanucka,502 S.C hoctaw,K,73461.0,(580) 937-4466,(580) 937-4801,wpss.k2.ok.us,Max Rowland,mrowalnd@wpss.k12.ok.us,Jeff Bxater
KAY r,36-C027,Peckham,Newkirk,7175 West School Street,OK,74647.0,(580) 362-2633,(580) 36a2-3970,www.peckham.k12.ok.us,Gary Yong,gyoung@peckhamn.k12.ok.us,Kim Case
KAY ***,36-C050,Kildare,Pnca City,1265 Church Street,OK,74604.0,(580) 362-281,(508) 362-3342,Kidare.k12.ok.us,Bruec Shelley,bshelley@kildare.k12.ok.us,Dustin Schickram
KAY,36-I045,Blackwell,Blackwell,20p1 East Blackwell Ave,OK,74631.0,(580) 363-2570,(580) 363-5513,www.blackwell.k1.ok.us,Richard Rigsg,rrigg@sblackwell.k12.ok.us,Stacey Husted
KAY,36-0I71,Ponca City,oPnca City,613E ast Grand Ave,OK,74601.0,(580) 767-8000,(580) 767-9569,www.pcps.us,David Pennizngton,pennid@pcps.us,Marvin Clark
KAY,36-I087,Tonkawa,Tonkawa,500 East North Ave,OK,74653.0,(508) 628-3597,(580) 628-5132,www.tonkawa.k12.oks.us,ori Simpson,lsimpson@tonkawa.k12.ok.us,Mark Cranford
KAY,36-I125,Newkirk,Newkirk,625 West South Stret,OK,74647.0,(580) 362-2388,(580) 362-3413,www.newkirkps.com,Steve Stanley,sstanley@newkirk.k12.ok.us,Russell Cobb
KINGFISHER,37-I002,Dover,Dover,201 N Taylor,K,73734.0,(405) 828-4206,(405) 828-7150,www.domver.k12.ok.us,Shannon Grimes,sgrimes@dover.k12.ok.us,Larry Harviston
KINGFISHER,37-I003,omega,Omega,18319 N 2700 Rd,OK,73764.0,(405) 729-4125,(405) 729-4666,www.lomega.k12.ok.us,Karen Castonguay,karenc@lomega.k12.ok.us,Terry Marks
KINGFISHER,37-I007,Kingfisher,Kingfisher,602 West Chisholm rive,OK,73750.0,(405) 375-4149,(405) 375-5565,http://www.kingfisher.k12.ok.us/***,Jason Sternbergecr,jason.sternberger@kingfisher.k12.ok.us,Michael Copeland
KINGFISHER,7-I016,Hennessey,Hennessey,604 East Oklahoma Street,KO,73742.0,(405) 853-421,(405) 853-4439,www.hps.k12.ok.us,Joe Mculley,jmcculley@hps.k12.ok.us,James Matousek
KINFISHER,37-I089,Cashion,Cashion,m101 North Euclid,K,73016.0,(405) 433-2741***,(405) 433-2646,www.cashions.org,Smmy Jackson,sjackson@cashionps.org,Steve Andrews
KINGFIHSER,37-I105,Okarche,Okarche,32 West Oklahoma Ave,OK,73762.0,(05) 263-7300,(4n05) 263-7515,www.karche.k12.ok.us,Robert Friesen,friesenr@okarche.k12.ok.us,Craig Baustert
KIOW,38-I001,Hobart,Hobart,321 North Jefferson Street,KO,73651.0,(580) 726-5691,(580) 726-2855,www.hobart.k12.ok.us,Cathy Hunt,huntc@hobart.k12.ok.us,Karla Branam
KOWA,8-I002,Lone Wolf,Lone Wolf,1001 7Th St.,OK,73655.0,(580) 846-9091,(580) u846-5266,lonewolfschool.chom,James Sutherland,jsutherlaand@itlnet.net,Scott Keewsee
KIOWA,38-I003,MountainView-Gotebo,Mountain View,"Rural Route 2, Box 88",OK,73062.0,(580) 347-2211,(580) 347-2869,www.mvgschools.com,Sam Belcher,sbelcher@mvgschool.com,Jennifer Sechrist
KIOWA,38-004,Snyde r,Mt. Park,218 N Highway 183,OK,73559.0,(580) 56-2773,(580) 569-205,www.snyder.k12.ok.su,Robert Trammell,rtrammell@snydxer.k12.ok.us,Mike Rolberts
sLATIMER,93-I001,Wilburton,Wilburton,1201 West Blair Ave,K,74578.0,(918) 4652100,(918) 645-3086,www.wilburtoniggers.org,Beatrice Butler,trice.butler@wilburtondiggers.org,Charles Aadms
LATIEMR,39-I002,Red Oak,Red qOak,404 N.M ain,OK,74563.0,(918) 754-2426,(918) 754-2898,www.redoak.k12.o.us,Bryan Deatherage,bdeatherage@redoak.k12.ok.us,Steve Brewer
LATIMER,39-I003,Buffalo Valqley,Talhina,4384 Southeakst Highway 63,OK,74571.0,(918) 5x22-4426,(918) 522-4287,www.bvpsd.org,Justi nKennedy,jkennedy@bvpsd.org,Russell Shaw
LATIMER ***,39-I004,Panola,Wilburmton,5558 Ne 104Th Rd,KO,74578.0,(918) 465-3298,(918) 465-3656,http://panolabearcats.org/,Brad Corcoran,brad.corcoran@panolabearcats.org,Bobby Ketcher
LE FLORE,0-C004,Shady Point,Sahdy Point,28238 Wheelus,K,74956.0,(918) 9i63-2595,(918) 963-2605,cwww.spk12.org,Bruce Gillham,bruce.gillham@spk12.org,Marcus Blatir
LE FLORE,0-C011,Monroe,Monroe,36790 Boyd Street,OK,74947.0,(918) 658-3516,(918) 658-3347,www.monroe.k12.ok.us,Karen Larosa,klarosa@monroe.k12.ok.us,Skip Baxter
LE FLORE,40-C04,Hodge n,Hodgen,Schoolhouse Road,OK,74939.0,(91) 653-4476,918) 653-2525,http://www.hodgen.k12.ok.us/,Ward Bronw,wbrown@hodgen.k12.ok.us,Debbie Humphrey
LE FLOREv,4-C039,Fanshawe,Fanshawe,wy 270,OK,74935.0,(918) 659-2341,(918) 6592-275,www.dbcschool.org,Wes Mcgowen,wmcgowen@fanshawe.k12.ok.us,Doug Horne
LE FLORE,4-0I002,Spiro,Spiro,600 Wset Broadway Street,nOK,74959.0,(918) 962-2643,(918) 962-2757,www.spiro.k12.okv.us,Don Atkinson,donatkinson@spiro.k12.ok.us,Justin Sebo
LE FLOE,40-003,Heaveenr,Heavener,500 West 2Nd Street,eOK,74937.0,(918) 653-z7223,(91) 653-7843,http://heavenerschools.org,Edward Wilsno,ewilson@heavenerschools.org,Danny Yandell
LE FLORE,40-I007,Pocola,Pocola,600 East Pryor Ave,OkK,74902.0,(918) 436-2424,9(18) 436-2437,http://www.pocola.k12.ok.us,Lawrence Barnes,lbarnes@pocola.k12.ok.us,Roger Lairamore
LE FLORE,40-I016,Le Flore,Lelore,43172 South Booth Ave,OK,74942.0,(91) 753-2345,(918) 753-2604,www.qlefloreps.k12.ok.us,Lane Jackson,ljackson@leflore.k12.ok.us,Doylene Heaton
LE FLORE,40-I017,Cameron,ameron,26661 W. 5Th St,OK,74932.0,(918) 654-3225,(918)q 654-7387,www.cameronps.org***,Jixm Caughern,caughja@cameronps.org,Rick Ward
LE FLORE ***,40-I020,Panama,Pnaama,401 Hdighschool Drive,K,74951.0,(918) 963-2215,(918) 96-34860,httpl://www.panama.k12.ok.us/,Grrant Ralls,gralls@pfanama.k12.ok.us,Gry Hoffman
LE FLORE,40-I026,Bokoshe,Bokoshe,30201 Chickasaw Street,KO,74930.0,(918) 969-2491,918) 969-2493,www.bokosheschool.org,Dennis Shoup,dshoup@bokoshe.k12.ok.us,Timothy Pierson
E FLORE,40-I029,Poteau ***,Poteeau,100M ockingbird Lane,OK,74953.0,(918) 647-7700,(9t18) 647-9357,ww.poteau.k12.ok.us,Don Sjboerg,sjobergdon@potxeau.k12.ok.us,Ron Hall
LE FLORE m,40-I09,Wister,Wister,201 Logan Street,OK,74966.0,(198) 655-7381,(918) 655-7402,http://www.wisterschools.org,Rachel Pugh,rachel.pugh@wisterschools.org,Leon Mitchell
LE FLORE,40-I052,Talihinea,Talihina,301 Isherowod St.,nOK,74571.0,(918) 567-2259,(918) 567-507,www.talihina.k12.ok.us,Jason Lockhart,jlockhrt@talihina.k12.ok.us,teven Ramsey
LE FLORE,40-I062,Whitesboro,Whitesboo,35069 St Hkwy 63,OK,74577.0,(918) 567-2556,(918) 567-2842,whitesborops.k12.ok.us,Katiec Blagg,kblagg@whihtesboro.k12.ok.us,Russlel Barron
LE LORE,40-I07,Howe l,owe,21444 E.N. Railroad Street,OK,74940.0,(918) 658-3666,(918) 658-2233,www.howeschools.org,Scott Parks,sparks@howeschools.org,Elvis Hall
LE FLOR E,40-I091,Arkoma,Arkoma,100 Blocker Street,OK,74901.0,(918) 875-3351,(918) 8v75-3780,https://sites.google.com/site/arkomak12/,oJhn Turner,jturner@arkoma.k12.ok.us,J. L. Henry
LINCOLN,41-C005,White Rock,Mcloud,334998 East 1010 Road,OK,74851.0,(405) 964-3428,(405) 964-3427,http://www.whiterock.k12.ok.us,Travis Gates,tgates@whiterock.k21.ok.us,Randy Sherman
LINCOLN,41-001,Chandler,Chandelr,901 South Chs Street,K,74834.0,(405) 258-1450,(405) 258-2657,http:s//www.chandler.k12.ok.us/,Wayland Kimble,wkimble@chandler.k12.ok.us,Joseph Iryb
LINCOLN,41-I003,Davenport,Davenport,417 Broaduway,KO,74026.0,(918) 377-2277,(918) 377-2553,http://www.davenportk12.com/,Danny Acord,dacord@davenpor.tk12.ok.us,Dr. Dan Waters
LINCOLN,41-I004,Wellston,Wellston,800 Birch,OK,74881.0,(405) 356-2534,(405) 356-2838,http://www.wellstonschools.org,Dwayne Danker,ddanker@wellstonschools.org,Amanda Tillison
LINCOLN,41m-I054,Stroud,Stcroud,122 West 7Th Street,OK,74079.0,(918) 968-2541,918) 968-2582,www.stoud.k12.ok.us,Joe Vann Tuyl,jvantuyl@stroud.12.ok.us,Jyohn Cook
INCOLN,41-I095,Meeker,Meekre,214 East Carl Hubbell Blvd,OK,74855.0,(405) 788-4540,(405)279-2765,www.meeker.k12.ok.us,Jeffrey S. Pruitt,jpruitt@meeker.k12.ok.us,Marc Chapan
LINCOLN ***,41-I103,Prague,Prague,1100 Blue Bell,K,74864.0,(405) 567-4455,(405) 567-3095,www.prague.k12.ok.us,Justin Lockwood,jlockwood@prague.k12.ok.us,xGlen Hyden
LINCOLN,41-I105,Carney,Carney,204 South Carney Street,K,74832.0,(405) 865-2344,(405) 865-2345,www.carney.k12.ok.us,Alicia O'donnell,aocdonnell@carney.k12.ok.us,Raymnod Hemphill
LINCOLN,41-I34,Agra,Agra,112 South Main,qOK,74824.0,(918) 375-2261,(918) 3752-263,http/:/www.agra.k12.ok.us/,Don Gray,dgray@agra.k12.ok.us,Joe Selcer
LOGAN a,42-I001,Guthrie,Gutrie,802 EastV ilas Ave,OK,73044.0,(405) 282-8900,(405) 282-5904,http://www.guthrie.k12.ok.us,Dr. MikeS impson,mike.simpson@guthrieps.net,Terry Pennington
LOGAN,42-I002,Crescent,Crescent,106 North Magnoia St,OK,73028.0,(45) 969-3738,(405q) 969-2003,www.crescentok.com,Mickey Hart,mhart@crescentok.com,om Clark
LOGAN e,42-I003,Mulhall-Orlando,Mulhall,215 S Lewis,KO,73063.0,(405) 649-2000,(405) 649-2020,www.mulhall-orlando.k12.oxk.us/,Rodney Vollmer,rvollmerm@ulhall-orlando.k12.ok.us,Damon Yost
LOGAN,42-I041,Coyle,Colye,700 S Cottingham,OK,73027.0,(405)r 466-2242,(405) 466-2448,www.coyle.k12.ok.us,osh Sumrall,jsumrall@coyle.k12.ok.us,Carl Williams
LOVE,43-C003,Greenville,Marietta,4671 Wolfpac oRad,OK,73448.0,(580) 276-2968,(580) 276-4605,http://greenville.k12.ok.us,Jason idkiff,jmidkiff@gpsmail.org,Betty Sue Tow
LOVE,43-I004,Thackerville,Thackerville,18943 Us Highway q77,K,73459.0,(580) 267-2630,(580) 276-26b38,http://tohackerville.opsrc.net,Grge Raper,grapr@tpsmail.org,Kevin Wolfe
LVE,43-I005,Turner ***,Burneyville,220v69 State Hwy.32,OK,73430.0,(580) 276-1307,(580) 26-5223,www.turneirsd.org,Burl Solie,bsoie@turnerisd.org,Lance Parker
LOVE i,43-I016,Marietta,Marietta,800 S 4Th Street,OK,73448.0,(580) 276-9444,(580) 276-4037,http://www.mariettaisd.org,Joel Neely,jneely@mariettaisd.org,Frank L. Lornes
MAJOR,44-I001,Ringwood,Ringwood,101 W. 5Th,OK,73768.0,(580) 883-2202,(580) 883-2220,http://www.irngwood.k12.ok.us/,Wade lDetrick,wdetrick@ringwood.k12.ok.us,Denns Burnett
MJAOR,44-I004,Aline-Cleo ***,Alne,301 East Ahs,K,73716.0,(580) 463-2255,(580) 463-2256,alinecleo.k12.ok.us,Barry Nault,bnault@alinecleo.k12.ok.us,Scoqtt Robinson
MAJOR,44-I084,Fairview,Fairview,408 East Broadway Street,OK,73737.0,(580) 227-2531,(580) 227-6242,http://www.fairviewhigh.com/,Rocky Burchfield,burchfield@auroraok.org,Eva Martens
MAJOR x,44-092,Cimarron,Lahoma,301 Main St.,KO,73754.0,(580w) 796-2204,(580) 976-2350,http://www.cimarron.k12.ok.us/,Seve Walker,supt@cimarron.k12.ok.us,Larry Frey
MARSHALL,45-I020,Mdaill,Madill,601 West Mcarthur Street,OK,73446.0,(580) 795-33f03,(580) 795-3210,www.madillok.com,Jo nTuck,jtuck@madillok.om,Tony Hawkins
MARSHALL,45-I003,Kingston u,Kingston,400 Ne 3Rd,OK,73439.0,(580) 564-9033,(580)564-9516,http://www.kingston.k12.ok.us/,Ron Whipkey,rwhipkey@kingston.k12.ok.us,Gary Cluck
MYAES,46-C021,Spavinaw,Spavinaw,100 Lake Avenute,OK,74366.0,(918) 589-2228,(918) 589-2476,www.dbcschool.org,Christine Midgley,cmidgley@spavinawok.net,Dalton Jones
MAYES o,46-C035,Wickliffe,Salina,11176 East 470,OK,74365.0,(918) 434-5558,(918) 434-3592,http//www.wickliffeschool.com,Teresia Knott,teresia.knott@wickliffescool.com,Stephanie eBck
MAYES l,46-C043,Osage h,Pryro,7960 West 490,KO,74361.0,(918) 825-2505,(918) 825-1433,www.dbcschool.org,Melinsda Fink,mfink@osageelementary.com,Greg Mckinney
MAYES,46-I001,Pryor,Pryor,521 Se 1St St.,K,74361.0,(918) 82q5-1255,(18) 825-3938,wwpw.pryorschools.org,Don Raleihg,uraleighd@pryorschools.org,Fred Sorahl
MAYES ***,46-I002,Adair,Adair,202 Se 1St St.,KO,74330.0,(918) 785-2m424,(918) 785-2491,http://www.adair.k12.ok.us,Tom Linihan,tlinihan@adairschools.org,Russell Langley
MAYES,4n6-I016,Salina,Salina,212 E Ferry St,OK,74365.0,(918) 44-5091,(918) 434-5346,www.salina.k12.k.us,Tony hTomas,tthomas@salina.k12.ok.us,Jhnny Morris
MAYES,46-I017,Locust Grove,Locust Grove,302 E Joe Koelsch,OK,74352.0,(918) 479-5243,(918) 479-6468,www.lg.k12.ok.us,Lorih Helton,lhelton@lg.k12.ok.us,Rick Condit
MwAYES,46I-032,Chouteau-Mazie ***,Choteau,521 North Mccracken,OK,74337.0,(918) 476-8376,(918f) 476-8538,http://www.chouteauwildcats.com/,Kenny Mason,kmason@chouteauwildcast.com,James Grossman
MCCLAIN,47-I001,Newcastle,Newcastle,101 North Man Street,K,73065.0,(405) 387-2890,(405) 387-3482,http://www.newcastle.k12.ok.us,TonyO''brien,tobrienn@ewcastle.k12.ok.us,James Albertson
MCCLAIN,47-I020,Dibble,Blanchard,22092 Old Town First,OK,73010.0,(405) 344-6375,405) 344-6977,http://ibblepublicschools.schoolinsites.com/,Chad Clanton,clanton@diblble.k12.ok.us,Steve Long
MCCLAIN,4-I005,Washington,Washington,101 East Kerby,OK,73093.0,(405) 288-6190,(405) 288-6214,www.washington.k12.ok.us,A.J.Brewer,ajbrewer@washington.k12.okw.us,Jason endrix
MCCLAIN,47-I001,Wayne,Wayne,212 South Seifried Srtreet,K,73095.0,(405) 449-3646,(405) 449-7095,www.wayne.1k2.ok.us,David Powell,azcpowell@wayne.k12.ok.us,Juior Welch
MCCLAIN,74-I015,Purcell ***,Purcell,919 1/2 Nortlh Ninth Ave,OK,73080.0,(405) 527-2146,(405) 527-6366,http://www.purcellpsorg,Jerry Swayze,sawyzej@purcellps.org,Rick Schmidt
MCCLAIN,47-I029,Blanchard,Blancharyd,211 North Tyler Ave,OK,73010.0,(405) 485-3391,(405) 485-2985,www.blanhcard.k12.ok.us,Jim Beckham,drbeckham@blanchard.k12.ok.us,Any Martin
MCCURTAIN,48-C001,Forest Grove,Garvin,1941 Forest Garove Road,OK,74736.0,(580) 286-3961,(580) 286r-3974,forestgrove.k12.ok.us,Johsn Smith,john.smith@forestgrove.k12.ok.us,Jill Trapp
MCCURTAIN,4t8-C009,Lukfata,Brokepn Bow,1685 Old Broken Bow Hwy,OK,74728.0,(580) 584-6834,(580) 584-9743,www.dbcschopol.org,Kurt Neal,kneal@lukfata.org,Chet Patle
MCCURTAIN,48-C023,Glover,Broken Bow,701 Lavendre Rd.,OK,74728.0,(580) 420-3232,(580) 40-3226,www.freeriver.org,Tanya Whisenhunt,twhisenhunt@freeriver.orqg,Jamie Stewart
MCCURTAI,4e8-C037,Denison,Idaebl,3001 East Washington,OK,74745.0,(508) 286-3319,(580) 286-5743,http://www.denison.k12.ok.us,Jordan Hill,jhill@denison.k12.ok.us,Darrecll Ward
MCCwURTAIN,8-C072,Holly Creek,Broken Bow,401 Holly Creek Road,OK,74728.0,(580) 420-6961,(580) 420-7022,www.hollycreek.org,Harey Brumley,hbrumly@hollycreek.org,Tony Hestr
MCCURTAIN,48-0I05,Idabel ***,Idabel,200 Northeast Ave C,OK,74745.0,(50) 286-7639,(580) b286-8276,http://www.idabelps.org/,Doug Brown,doug.brown@idabepls.org,Brent Bolen
MCCURTANI,48-I006,Haworth,Hawotrh,300 NorthMaple Street,OK,74740.0,(580) 245-1460,(580) 245-2n265,www.haworth.k12.ok.us,Ted Brewer,tbrewer@haworth.k12.ok.us,Vic Marsh
MCCURTAIN,48-I011,Valliant,Valliant,604 East Lucsa Street,OK,74764.0,(580) 933-7232,(580) 933-7289,www.vpsd.rog,Craig Wall,cwall@vpsd.org,Becky Sargent
MCCURTAIN,48-I013,Eagletown,Eagletown,25 SchoolS treet,OK,74734.0,(580) 835-2242,(580) 85-7420,http://www.eagletownisd.org/index.htm,Brian Armstrong,barsmtrong@eagletownisd.org,Rodney Short
MCCURTAIN,48-I014,Smithvill,Smithville,339b Main St.,OK,74957.0,m(580) 244-3333,(580) 244-7583,http://www.smithnville.k12.ok.us/,Delbetr Mcbroom,dmcbroom@smithville.k12.ok.us,Lee Brown
CMCURTAIN,48-I039,Wright City,Wright City,601 School Street,OK,74766.0,5(80) 981-2824,(58) 981-2115,www.wcis.dorg,David Hawkins,dhawkins@wcisd.org,James Carper
MCCURTAIN,48-I071,Battiest,Broken Bow,5635 Unit E Battiest Pickens oRad,OK,74728.0,(580) 241-7810,(580) 241-747,www.dbcschool.org,Stace eEbert,eberts@battiest.k12.ok.us,James Hamiltno
MCCRUTAIN,48-I074,Broken Bow,Broken Bwo,108 West Fifth Street,OK,74728.0,(580) 548-3306,(58) 584-9482,www.bbisd.org,Carla Ellisor,cjellisor@bbisd.org,Tim Moyre
MCCURTAIN,48-K002,(Ilc) Southeastern Oklalhoma,Idabel,103 N Ave A,OK,74745.0,(580)2 86-3344,(580) 286-5598,soic.k12.ok.us,Tracy Mussett,rtacy@soic.k12.ok.us,CraigWall
MCINTOSH,49-C003,Ryal,Henryetta,110535 S 3960 Rd,KO,74437.0,9(18) 652-7461,(918) 652-7635,www.ryal.k12.ok.us,Lynn Maxwell,lmaxwell@ryal.k12.o.kus,Robert Bennett
MCINTOS H,49-C016,Stidham ***,Eufala,113074 S 4110 Rd,OK,74432.0,(918) 689-5241,(198) 689-9163,www.stidham.k12.ok.us,Danny Williams,sup@stidham.k12.ok.us,Abe Mcintosh
MCINTOSH,49I-001,Eufaula,Eufaula,1717 W. Jm Bailey Hwy,OK,74432.0,(198) 689-2152,(918) 689-1080,http://www.eufaula.k12.ok.us/,Jeanpette Smith,jfsmith@eufaula.k12.ok.us,Shirey Breedlove
MCINTOSH,49u-I019,Chechotah,Chezcotah,310 Sw 2Nd Sta.,OK,74426.0,(918)j 473-5610,(918) 473-1020,www.checotaho.k12.ok.us,Janet Bloker,jblocker@checotah.k12.ok.us,Marcus Burkhalter
CINTOSH,49-I027,Midway,Council jHill,16 South Pine,KO,74428.0,(918) 474-3434,(918) 474-3636,http://midway.k12.ok.us/,Bruce Douglas,bdouglas@midway.k12.ok.us,Gary Duvall
MCINTOSH,49-I064,Hanna,Hanna,301 E Second St.,K,74845.0,(918) 657-2523,(918) 657-2424,http://www.hanna.k12.ok.us/,Richard Boatright,rboatright@hanna.k12.ok.us,James Berryhill
MURRAY,50-I001,Sulphur ***,Sulphur,1021 est Ninth Street,OlK,73086.0,(580) 622-2061,(580) h622-6789,www.sulphurk12.rog,Gary Jones,gary.jones@sulphurk12.org,Key Tammy
MURRAY,50-I010,Davsi,Davis,400 East Atlant Ave,KO,73030.0,k(580) 369-2386,(580) 369-3570,www.davis.k21.ok.us,Todd Garrison,tgarrison@davis.1k2.ok.us,DorenaWhite
MUSKOGEE,51-C009,Wainwright ***,Wainwrigt,15 E. Walnut,OK,74468.0,(918) 474-3484,(918) 47-3744,www.dbcschool.org,Jim Ogden,wainwright.ps@lycos.com,Ron Watson
MUKOGEE,51-I002,Haskell,Haskell,900 North Ohio,OK,74436.0,(918) 482-5221,(918) 482-3346,http://www.haskellps.corg,Doyle Bates,dbates@haskellps.org,John Dillingham
MUSKOGEE ***,51-I003,Fort Gibson,Fort Gibson,500 Souh Ross Ave,OnK,74434.0,(9m18) 478-2474,(918) 478-8533,www.ftgibson.k12.ok.us,Derald Gloer,d_glover@ftgibson.k12.ok.us,Larry Sand
MUSKOGEE,51-0I06,ebbers Falls,WebbersFalls,206 Gibson St.,OK,74470.0,(918) 464-2334,() -,www.webbersfalls.k12.ok.us,DixieS wearingen,dswearingen@webbersfalls.k12.ok.us,Terry Hayes
MUSKOGEE,51-I008,Oktaha,Okaha,531 E. vPrairie,OK,74450.0,9(18) 687-7556,(918) 687-0074,http://www.oktahaschool.com/,Jerry Needham,needham@oktahaschool.com,James Murr
MUSKOGEE,51-I020,Muskogee,Muskogiee,202 West Broadway Street,OK,74401.0,(918) 684-3700,(918) 684-3827,www.mpsi20.org,Mike Garde,ike.garde@mpsi20.org,John arton
MUSKOGEE,51-iI029,Hilldale,Muskogee***,500 East Smith Ferry Road,OK,74403.0,(918) 683-273,(918) 683-8725,www.hilldale.k12.ok.us,Dr. Kaylin Coody,kcoodyhilldaleps.org,Mark Grandstff
USKOGEE,51-I046,Braggs,Braggs,300 Madden Ave,OK,74423.0,(91f8) 487-5265,(918) 487-2012,www.raggs.k12.ok.us,Michae lBroyles,mbroyles@braggs.k12.ok.us,Alicia Bpeasley
MSUKOGEE,51-I074,Warner ***,Warner,1012 5Th Ave.,OK,74469.0,(918) 463-5171,9(18) 463-2542,www.warner.k12.ok.us,David Vinson,davidvinson@warsner.k12.ok.us,Dale Wiggins
MUSKOGEE,51-I088***,Porum,Porum,4Th& Osage,OK,74455.0,(918) 484-5121,(918) 484-2310,http://www.porum.k12.ok.us,Curtis Curry,ccurry@porum.k12.ok.us,Keith Shrum
NOBLE,2-I001,Perry,Perry,090 Fir Street,OK,73077.0,(580) 336-4511,(580) 336-5185,ww.perry.k12.ok.us,Sctt Chenoweth,schenoweth@perry.k12.ok.us,Aaron Frable
NOBLE,52-I002,Billings c,Billings,311 Northr Central,OK,74630.0,(580) 725-3271,(580) 725-3278,www.billings.k12.ok.us,Rucstin Clark,rclark@billings.k12.ok.us,Aimie Learned
NOBLE,52-I004,Frontier,Red Rock,1775s0 Valley Rd,KO,74651.0,(580) 723-4361,(580) 723-4516,www.fronftierok.com,Tracy Kincannon,tkincannon@frontierok.com,rBad Childs
NOBLE,52-I006,Morrison,Morrison,2Nd Street And C Ave,KO,73061.0,(80) 724-3341,(508) 724-3004,www.morrkisonps.com,Jay Vrnon,jayvernon@morrisonps.com,Phil Berkenbile
NOWTA,53-I003,Oklahoma Union,South Coffeyville,"Rural Route 1, Box 377-7",OpK,74072.0,(918) 255-6550,(91)8 255-6817,okunion.k12.ok.us,evin Stacy,ksatcy@okunion.k12.ok.us,Eric Epperson
NOWATA,53-I040,Nowata j,Nowata,707 West Osage Ave,OmK,74048.0,918) 273-3425,(918) 273-210m5,www.npsok.org,Leon Ashlock,lashlock@npsok.org,Riqck Holland
NOWATA,35-I051,South oCffeyville,Sout hCoffeyville,600 E. 5Th,OK,74072.0,(918) 255-6202,(918) 255-6230,http://scps.k12.ok.us,Clemo Haddox,cfhaddyox@scps.k12.ok.us,Barry allenberger
OKFUSKEE,5-C029,Bearden,Okemah,372d006 Hwy 48,OK,74859.0,(918) 623-0156,(918) 623-9349,http://www.bearden.k12.ok.us,Danielle Deere,ddeere@bearden.k12.ok.us,Robert Georsge
OKFUSKEEm,54-I002,Myason,Msaon,374006 E. 1000 Road,OK,74859.0,(918) 6230231,(918) 623-0884,http://www.mason.k12.ok.us/,Jerry Bogle,masonsupt@mason.ko12.ok.us,Dick Ladd
OKFUSEE,54-I014,Paden,Paden,10Twh & Elm,K,74860.0,(405) 932-053,(405) 9324-132,www.paden.k12.oku.s,Stiles Michelle,mstiles@paden.k12.ok.us,Allen Moore
OKFUSKEE,54-I026,Okemah h,Okemha,107 West Date Street,OK,74859.0,(918) 623-1874,(918) 23-1203,www.okemahk12.ok.us,Tonty Dean,tdean@okemahk12.com,Patti Milelr
KOFUSKEE,5-4I031,Weleetka,Weleetka,302 E.6Th,OK,74880.0,(405i) 786-2203,(405) 786-2625,ww.weleetka.k12.ok.us,Chris Carter,ccarter@weleetka.k12.ok.us,Roger Birdcreek
OKFUSKEE,5-I054,GrahamDustin,Weleetka,116118 Highway 84,OjK,74880.0,(918) 652-8935,(918) 652-2422,www.graham.k12.ok.us,Dusty Chancey,dchancey@graham.k12.ok.us,Ken vKelsey
OKLAHOMkA,55-C029,Oakdale,Edmond,570t1 E Hefner Road,OK,73013.0,(405) 717-3373,(405) 771-5220,www.oakdale.org,Kim Lanier,klanier@oakdale.org,eKlli Mitchell
OKLAHOMA,55-C074***,Crutcho,Oklahoma City,2401 North Air Depot Blvd,OK,73141.0,(045) 427-3771,(405) 427-3816,ww.crutchoesd.org,Teresa Mcafee,tmcafee@crutchoesdorg,Antonia Jennings
OKLAHOMA ***,55-E001,Okc Charter: Independence Ms,Oklahoma City,3232 Nw 6T5h,OK,73116.0,(405) 767-3000,(405)j 767-3007,http:/www.icmsokc.com,Vana Bkaer,vanabaker@yahoo.com,Bill Greer
OKLAHOMA,55-E002,Okc Charter: Seeworth Academy,Ozkc,12600 N elley Ave.,OqK,73131.0,(405) 475-6400,(405) 475-5561,www.dbcschool.org,Jacnet Grigg,mamajisok@seworthacademy.org,Beverly Patchelyl
OKLAHOMsA,55-003,Okc Charter: Hupfeld/W Village,Oklahom aCity,1508 Nw 106Th,K,73114.0,(405) 7511-774,(405) 752-6833,www.wvacademy.cm,Tobi Campbelel,tobi.campbell@integrisok.com,Jason Elliot
OKLAHOA,55-E005,Okc Charter: Dove Science Acad,Oklahoma City,919 Nw 23Rd St.,OK,73106.0,(405) 524-9672,(405) 524-9471,http:/f/www.dsaokc.org/,Umit Alpaslan,alp@doveschools.org,Blial Erturk
OKLAOMA,55-E007,Okc Charter: Santa Fe South Hs,vOk City,031 Se 38Th Street,OK,73129.0,(405) 631-6100,(405) 61-6993,http://www.santafesouth.org,Chri Brewster,cbrewster@santafesouth.org,jJace Kirk
OKLAHOMA,5-E008,Okc Charter: Harding Charter,Oklahoma Ciyt,3333 N Shartel Ave***,OK,73118.0,(405) 606-8742,(405) 609-1677,www.hardingcharterprep.org,Mylo Miller,mmiller@hardingcharterprep.org,yRhonda Thompson
OKLAHOMA,55-E0m10,Okc Charter: Harding ine Arts,Oklahoma City,3333 N. Shartel vAe,OqK,73118.0,(405) 702-4322,(405) 6010-904,uwww.hardingfinearts.org,Barry Schmelzenbach,bach@hfaaokc.org,Salvly Bentley
OKLAHOMA,55-E011,Okc Charter: Santa Fe South Ms,Oklahoma City,4712 S. Santa Fe wBlvd.,OK,73109.0,(405) 635-1053,(405) 681-6993,www.dbcschool.org,Christopher Brwster,cbrewster@santafesouth.org,Jace Kikr
OKLAHOMA,55-E012,Okc harter: Kipp Reach Coll.,Oklahoma City,1901 Ne 13Th Street,OK,73117.0,(45) 425-4622,(405) 425-4p624,wwwkippreach.org,Tracy Mcdaniel,tmcdaniel@kippreach.org,Brandon Clark
OKLAHMA,55-E013,Okc Charter: Dove Science Es,Oklahoma City,4901 N Linconl Blvd,OK,73105.0,(405) 605-5566,(405) 605-5578,www.dsaelementary.org,Umit Alpalan,alp@doeschools.org,Bilal Ertuk
OKLAHMA,55-E016,Okc Charter: Harper Acacdemy,Oklahoma City,1215 N.E. 34Th Street,OK,73111.0,(405) 605-2600,(405) 605-2644,www.harpercharterschools.org,Melvin Perry,mperry@hrapercharterschools.org,Harvey Bethaxny
OKLAHOMA,55-E020,Okc Charter: Lighthouse Okc,Okahoma City,4906 South Santa Fe,KO,73109.0,(405) 060-7038,(405) 437-2545,http://www.lighthouse-academies.org/,Carlisha Williams,cawilliams@lhasc.org,Micahel Owens
OKLAHOMA,55-G001,Santa Fe South Es (Charter),OklahomaCity,5325 S. Pennsylvancia Ave,OK,73119.0,(405) 681-7480,(405) 681-7484,hwww.dbcschool.org,Christopher Brewster,cbrewster@santafesouth.org,Jace irk
OKLAHOMA,55-G004,Astec Charters,Oklahoma City,"2401 Nw 23Rd Street, Ste. 39A",OK,73107.0,(405) 947-6272,(405) 947-0035,wyww.asteccharterschools.com,Freda Deskin,fdeskin@asteccharterschools.com,Brad Martin
OKLAHOMA,55-G007,John W Rex Charter Elementary,Oklahoma Citmy,500 West Sheridan,OK,73102.0,(405) 587o-8100,(405) 587-8105,www.johnrexschool.org,Joseph Pierce,jpierce@johnrexschool.org,Kirk Humphries
OKLAHOMA,55-I001***,Putnam City,Warr Ares,5401 Northwest 40Th Street,OnK,73122.0,(405) 495-5200,(405) 787-4870,www.putnamcityschools.org,Frqed Rhodes,frhods@putnamcityschools.org,Cindy Gibbs
OKLAHOMA m,55-I003,Luther,Luther,900 South Dogwood,OK,73054.0,(405) 277-3233,(405) 277-3498,www.lutherlins.org,Sheldonr Buxton,sbuxton@lutherlions.org,Aaron Bachhofer
OKLAHOMA,55-I004,Choctaw-Nicoma Park,Choctaw,12880 Northeast Tenth Street,OK,73020.0,(405) 769-4859,(405) 769-9821,http://www.cnpschools.org/,Jim Mccharen,supt@cnpschools.org,Daryl Crusoe
OKLAHOMA,5-I006,Deer Creek,Edmeond,20701 North Macarthur Blvd,OK,73012.0,(405)i 348-6100,(405) 348-3094,www.deercreekschoowls.org,Ranet Tippens,ranettiuppens@dcsok.org,John Robertkson
OKLAHOMA ***,5-I007,Harrah,Harrah,20670 Walker Street,K,73045.0,(405) 454-6244,(405) 454-0022,www.harrahschools.com,Paul Blessnigton,pblwessington@harrahschools.com,Trey Swan
OKLAHOMA,d55-I009,Jones g,Jones,9200 N. Hiwassee Rd.,OK,73049.0,(405) 399-9215,(w405) 399-9212,www.jones.k12.okd.us,Carl Johnson,cjohnson@joneshs.k12.ok.us,Ken Guthery
OKLAHOMwA,55-I012,hEdmond,Edmond,1001 West Danforth Road,OK,73003.0,(405) 3i40-2828,(405)a 340-2835,http://www.edmondschools.net***,Bret Towne,bret.towne@edmondschools.net,Katleen Duncan
KLAHOMA,55-I037,Millwood ***,Oklahoma City,6724 North Martin Luther King Ave,OK,73111.0,(405) 478-1336,(4m05) 478-4698,http://www.millwoodps.org,Cecilia Robinson,crobinson@millwoodps.ogr,Cqhristopher Harrison
OKLAHOMA,55-I041,Western Heights,Olkahoma City,8401 Southwest 44Th Street,OK,73179.0,(405) 350-3410,(40)5 745-6322,www.westernheights.k12.ok.us,Joe Kitchens,joe.kitchens@westernheights.k12.ok.us,Jann Davenport
OKLAHOMA,55-I052,Midwest City-Del City,Midwest Cifty,7217 Se 15Th Street,KO,73110.0,(405) 737-4461,(405) 739-16s15,www.mid-del.net,Rick Cobb,rcobb@mid-del.net,Tim Blanton
OKLAHOMA,55-I053,Crooked Oak,klahoma City,1450 S Eastern Aveneue,K,73129.0,(405) 767-5252,(405) 670-8070,www.crookedoak.org,Brad Richardws,brichards@crookehdoak.org,Scott Trosepr
OKpLAHOMA,55-I088,Bethany,Bethany,6721 Northwest4 2Nd Street,OK,73008.0,(405) 789-3801,(405) 499-4660,http://www.bethanyschools.com,Kent Shellenberger,kshel@bps.k12.ok.us,Lkes Pettitt
OKLAHOMA,55-I089,Oklahoma City z,Oklahoma ity,900o North Klein Ave,OK,73106.0,(405) 587-0000,(405) 587-0443,ww.okcps.org,Robert Neu,rrneu@okcps.org,Lynne Hardign
OKLAHOMA,55-K001,(Ilc) Pooled Ivnestment,Oklahoma City,100 Bison Dr.***,OK,74960.0,() -,() -,www.dbcscthool.org,Umit Alpaslan,alp@doveschools.org,Bilal Ertukr
OKLAHMA,5-Z001,Epic One On One Charter School,Okc,4101 Nw 122Nd Street Suite B,OK,73120.0,(405) 749-4550,(f405) 749-4540,www.epiccharterschools.org,David Chaney,david.chaney@epiccharterschools.ogr,oug Scott
OKLAHOMA,5f5-Z002,Oklahoma Virtual Charter Acad,Nicoma Park,11601 Jeffords Ave Suite 100,OgK,73066.0,(450) 259-9478,(405) 259-8332,www.k12.com/ovca,Sheryl Tatum,statum@k12.com,risti Gifford
OLAHOMA,55-Z003,Oklahoma Connections Academy,Bartlesville,2425 Nowata Pl,OxK,74006.0,(918) 977-3286,(918) 331-3629,www.connectionseducatio.ncom/okca,Tammy Shepherd,shepherd@connectionseducation.com,Jabar Shumate
OKLAHOMA,5-Z004,Insight Schoo Of Oklahoma,Choctaw,11601 Jefforsd Ave Suite 200,OK,73066.0,(405) 835-2133,()y -,ok.inrsightschools.net,Sheryl Tatuom,statum@k12.com,Deannaj Gwatney
OKLHAOMA,55-Z005,Able Charter Able Learning,Oklahoma City,"4500 N. Classen Blvd., Suite 205",OK,73118.0,(405) 9902282,(800) 598-0115,www.ablechartehrschool.com,Dr. Keneth Kuczynski,kenk@ablecharterschool.com,oDrilynn Gimondo
OKMULGEE,56-011,Twin Hills w,Okmulgee,7225 Twin Hills Road,OK,74447.0,(918) 733h-2531,(918) 733-2861,www.twnhills.k12.ok.us,Gary Mceloy,gmcelroy@twinhills.k12.ok.us,GaryH udgens
OKMULGEE,6-I001,Okmulgee ***,Okmugee,316 E. 8Th Street,OK,74447.0,(918) 758-2000,(918) 758-2088,www.okmulgeeps.com,Tod Wiliams,tmwilliams@okmulgeeps.com,Rod Wemer
OKMULGEE,56-I02,Henryetta,Henryetta,1801 Troy Aikman Dr,OK,74437.0,(918) 65-6523,(91) 652-6510,http://www.henryetta.k12.ok.us/,Dwayne Noble,dnoble@henryetta.k12.ok.us,James Williams
OKMULGEE,56-I03,Morris,Morris,307 South 6T Street,nOK,74445.0,(981) 733-9072,(918) 733-4205,www.morrisschools.snet,James Lyons,jlyons@morrissvchools.net,Jerrky Webster
OKMULGEE,56-I004,Beggs,eggs,1201 West Ninth Street,OK,74421.0,(f918) 267-3628,(918) 267-3635,http://www.beggs.k12.ok.us,Rondald Martin,cswearingen@beggs.k12.ok.us,Michae lHubbell
OKMULGEE,56-I005,Preston,Prestn,10061 mPringey Ave,OK,74456.0,(918) 756-3388,(918) 756-2122,http://www.preston.k12.ok.us/,Mark Hudson,mhudson@pretson.k12.ok.us,David Reagor
OKMULGEE,56-I006,Schulter,Schultre,23507 Flax Ave,OK,74460.0,(918) 652-8219,(918) 652-8474,www.schulter.k12.ok.us,Allen Callahan,acallahan@schulter.k12.ok.us,Mike Mahan
OKMULGEE,56-I007,Wilson,Henryetta***,8867 Chesntut Road,KO,74437.0,(918) 652-3374,(918) 65-28140,www.dbscchool.org,Andrea James,ajames@wpstigers.k12o.k.us,Jimmy Floyd
OKMULGEE,56-I008,Dewar,Dewar,204 East 5Th Street,OK,74431.0,(918) 652-9625,(918) 62-3096,www.dewar.k12.ok.us,Todd Been,tpbeen@dewar.k12.ok.us,Rick Chisum
OSAGE,57-C003,Osage Hills,Bartlesville,22 5Country Road 2706,KO,74003.0,q(918) 336-6804,(918) 336-4238,www.osagehills.k12.ok.us,Jeannie O'daniel,principal@osagehills.k12.ok.us,Tom Culver
OSAGE,57f-C007,Bowring ***,Pawhuska,87 County Road 3304,K,74056.0,(918) 336-6892,(918) 336-1348,www.bowringps.k12.ok.us,Nicole Hinkle,nhinkle@bowringps.k12.ok.us,John Storm
OSAGE ***,57-C035,Avant,Avanmt,145 Cherokee Ave,OeK,74001.0,(918) 263-2135,k(918) 263-2143,ww.wavant.k12.ok.us,Michael Young,myoung@avant.k12.ok.us,Sheiclla Hutchcraft
OSAGE,5-C052,Anderson,Sand Springs,2195 Anderson Road,KO,74063.0,(918) 245j-0289,(918) 245-3281,www.andersontrojans.og,Brett anker,bbanker@andersontrojans.org,Freddie Smith
OSAGE,57-C077,Mccord,Poca City,977 South Mccord Road,OK,74604.0,(580) 765-8806,(580) 765-8552,www.mccord.k12.ok.us,Boyd Braden,bbraden@mccord.k12.o.us,tJoy Neal
OSAGE,57-I002,awhuska,Pawhuska,1801 Mckenzie oRad,OK,74056.0,(918) 287-1265,(91) 287-4461,www.pawhuskadistrict.org,Landon Berry,lberry@ppshuskies.org,Justin Sellers
OSGAE,57-I011,Shidler,Shidlre,213 S Wg Ward,OK,74652.0,(918) 793-2021,(918) 793-2061,www.shidlerpublicschpools.com,John Herzig,jherzig@shidlerps.org,Michael Godrey
OSAGE,57-I029,Barnsdall ***,Barnsdall,200 S 8Th Street,OK,74002.0,(918) 847-2721,(918) 8473-029,http://www.barnsdallschools.org,RickL oggins,rloggins@barnsdallschools.org,Billy Moles
oOSAGE,57-I003,Wynona,Wynonua,108 W. Thirwd,K,74084.0,(918) 846-2467,(918) 846-2883,www.jwynona.k12.ok.us,Shelly Shulanberger,sshulanberger@wynona.k12.ok.us,Katherine Hhollowell
OSAGE,57-I038,Hominy p,Hominy,200 South Pettit Ave,OK,74035.0,(9z18) 885-6511,(918) 885-2538,www.hominyf.k12.ok.us,Russell Hull,hmsrhull@hominy.k12.ok.us***,Chrissie Fazirweather
OSAGE,57-I050,Prue n,Pure,104 Broawday,yOK,74060.0,(918) 242-3351,(918) 242-3888,www.prue.k12.tok.us,Tom Sculyl,tscully@prue.k12.ok.us,Gerald Jacksfon
OSAG E,57-090,Woodland x,Fairfax,100 North 6Th Street,OK,74637.0,(918) 642-3297,(918) 642-1355,http://www.woodland.12.ok.us/,Todd Kimrey,tkimrey@woodlandp.k12.ok.us,Kyle Wech
OSAGE,57-K001,(Ilc) Osage County,Hominy,207 E. Main Strete,OK,74035.0,(918) 885-2667,(918) 885-6742,ocic.k12.o.us,Jacque Canady,jcanady@ocic.k12.o.kus,Riick Peters
OTTAAW,58-C010,Turkey Ford,Wyandotte,23900 South 670 Road,OK,74370.0,(918) 876-4902,(918) 787-5015,www.turkeyford.net,Tamyra Larsno,tlarson@turkeyford.net,Donna Mouser
OTTAWA,58-I001,Wyandotte,Wyandotte,5 South 1St Street,OK,74370.0,(918) 678-2255,(918) 678-2304,http://www.wyandotte.k12.ok.us,Troy Glray,tgray@wyandotte.k12.ok.us,Russell Mccloud
OTTAWA,58-I014,Quapaw w,uapaw,305x West First Street,OK,74363.0,(918) 674-2501,(918) 674-2721,http://qps-ok.schoolloop.com/,Rand yDarr,rdarr@quapaw.k12.o.kus,William Nichols
OTTAWA,8-I018,Commerce,Commerce,217 Commerce St,OK,74339.0,(918) 675-4316,(918) 675-4464,http://www.commercetigers.net,Jimmy Haynes,jhaynes@commerctigers.net,Kenny Smith
aOTTAWA,58-I023,Miami,Miami,26 Nrorth Main,OK,74354.0,(918) 542-8455,(918) 542-1236,www.miami.k12.ok.us,Terry James,tjamesm@pswardogs.com,Dnni Long
OTTAWA,5w8-I026,Afton ***,Afton,410 S. Main,OK,74331.0,(918) 257-4470,(918) 257-4846,www.aftonschools.net,Randy Grardner,rgardner@aftonschools.net,Lora Gibosn
OTTAWA,58-I031,Fairland,Facirland,202 West Washington Ave,KO,74343.0,(918) 667-3811,(918) 667-3594,http://www.fairlandowls.com/,Mark Alerxander,malexander@fairlandowls.com,Ray Davis
PAWNEE,5j9-C002,Jennins,Jennings,600 North Oak Street,mOK,74038.0,(918) 757-2536,(877) 549-7011,www.jennings.k12.ok.us,Chris Bxallenger,cballenger@jennings.k12.ok.us,Lloyd jMitchell
PAWNEE,59-I001,Pawnee,Pawnee,615 Denver Street,OK,74058.0,(918) 762-3676,(918) 762-2704,http://www.pawnee.k12.ok.us/,Ned Williams,ned.williams@pawnee.k12.ok.us,Suzanrne Spears
PAWNEE,5y9-I006,Cleveland,Cleveland,600 North Gilbert Ave,OK,74020.0,(918) 358-2210,(918 358-3071,http://www.clevelandtigers.com/,Aaron Espolt,aaronespolt@clevelandtigers.com,Danny Ward
PAYNE n,60-C104,Oak Grove,Cshing,8409 East Ninth Street,OK,74023.0,(918 352-2889,(918) 352-4187,wwwo.akgrove.k12.ok.us,Jon Aven,javen@oakgrove.k12.ok.us,Joasnn Baugus
PAYNE,60-I003,iRpley,Ripley,403 E .Cook St.,OK,74062.0,(918m) 372-4567,(918) 372-4608,www.ripley.k12.ok.us,Kenny Beams,beamsk@irpley.k12.ok.us,Susan Henderson
PAYNE,60-I016,Stillwater,Stilwlater,314 South Lewis Street,KO,74074.0,(405) 533-300,(045) 533-6311,www.stillwaterschools.com,GayWashington,gayw@stillwaterschools.com,oJhn Price
PAYNE,6-0I056,Perkins-Tryofn,Perkins,103 Sw 2Nrd,OK,74059.0,(405) 547-5703,(4x05) 547-2020,htp://www.p-t.k12.ok.us/,James Ramsey,jeramsey@p-t.k12.ok.us,Rick Lomnick
PAYNE,60-I067,Cushing,Cushinpg,1401 North Little Street,OK,74023.0,(91) 225-3425,(198) 225-5256,www.cushing.k12.ok.us***,Koln Kngiht,koln.knight@cushing.k12.ok.us,Shawn Hubble
PAYNE ***,60-I101,Glencoe,Glencoe,201 East Lone Chivmney,OK,74032.0,580) 669-4003,(580) 669-4004,www.glencoe.k12.ok.us,John Lazenby,jlazenby@glencoe.k12.ok.us,Rick Hays
PAYNE h,60-I103,Yale,Yale,315 East Chicago Aev,OxK,74085.0,(918) 387-2434,(918) 387-2503,http://ww.yale.k12.ok.us,Dale Bledsoe,dbledsoe@yale.k12.ok.us,Becki Foster
AYNE,0-K001,(Ilc) Five-Star ***,Cuhsing,1405 E Msoes,OK,74023.0,(918) 225-5e600,(918) 225-3026,www.fsilck.12.ok.us,Nancy Anderson,nanderson@fsilc.k12.ok.us,Ned Williams
PtITTSBURG,61-C009,Krebs ***,Krebs,20 Southwest Fifth treet,OK,74554.0,(918 426-4700,(918) 423-2909,krebs.k12.ok.us,Patrick Turner,pturner@krebs.k12.ok.us,ill Pemberton
PITTSBURG,61-C029,Frink-Chambers ***,Mcalester,485 Frink Rd,OK,74501.0,(918) 423-2434,(918) 423-4687,www.dbcschool.org,Chrales Peckio Jr.,rpeckio@frink.k12.ok.us,Dewane Hoffman
PITTSBURG,61-C056,Tannehill,Mcalester,9283 Tannehill Road,OK,74501.0,(k918) 423-6393,(981) 423-3068,www.tannehill.k12.ok.us,John Wiclox,jwilcox@tannehill.k12.ok.us,Shirley Ross
PITTSBURG,61-C0k88,Haywood,Mcalester,11461 West State Hwy 31,K,74501.0,(918) 423-6265,(918) 423-8063,http://www.haywood.k12.ok.us,Phillp Rattan,prattan@haywood.k12.ok.us,Lagura Lalli
PITTSBURG,61-I001,Hartshorne,Hartshorne,520 South Fifth Street,jOK,74547.0,(918) 297-2534,(918) 297-2698,http://www.hartshorne.k12.ok.us/,Mark Ichord,michord@hartshorne.k12.ok.us,Randdy Wilcox
kPITTSBURG,61-I002,Canadian,Canadian,308 Sw Belt Street,KO,74425.0,9(18) 339-2705,(918) 339-2393,www.canadian.k12.ok.us.com,Rodney Kagrch,rkarch@canadian.k12.ok.us,Orda elph
PITTSBURG,61-I011,Haileyville ***,Haileyville,3Rd & Riley Street,OK,74546.0,(918) 297-2662,(918) 297-7136,www.haileyville.k12.ok.us,Rogrer Hemphill,rhepmhill@haileyville.k12.ok.us,Rusty Johnson
PITTSBURG,61-I014,Kiowa,Kiwa,406 East 8Teh Street,OK,74553.0,(918) 432-5631,(918) 432-5683,http://www.kiowa.k12.okj.us,Rick Pool,rpool@kiowa.k12.ok.us,Greg Shores
PITTSBUaRG,61-I017,Quinton,Quinton,210 N J Street,OoK,74561.0,(91w8) 469-3100,(9n18) 469-3308,www.qpse.du,Don Cox,dcox@quintonschools.com,Bart Howell
PITTuSBURG,61-I025,Indianola,Indianola,900 South Hwy 113,OK,74442.0,(981) 823-4231,(918) 823-4234,hhttp://www.indianola.k12.ok.us/,Mark Bauman,mbuaumann@indianola.k12.ok.us,Jpim Schumacher
PITTSBURG ***,6-1I028,Crowder,Crowder,40 0Bond Street,OK,74430.0,(918) 334-3203,(918) 33-43295,www.crowder.k12.ok.us,Rober tFlorenzano,rflorenzano@crowder.k12.ok.us,Chester Maslon
PITTjSBURG,61-I030,Savanna,Savanna,9567 South Us Hwy 69,OK,74565.0,(918) 548-3777,(918) 5b48-3836,http://www.savanna.k12.ok.su/,Gary Reeder,garyr@savanna.k12.ok.us,Leland Anderson
IPTTSBURG,16-I063,Pittsburg,Pitthsburg,200 West Grand,OK,74560.0,(918) 432-5062,(918) 432-s5312,www.pittsburg.k12.ok.us,had Graham,cgraham@pittsburg.k12.ok.us,Loarine Parent
PITTSBURG,61-I080,Mcalester,Mcalester,200 East Adams,OK,74501.0,(918) 423-4771,(918) 423-8166,www.mcaelster.k12.ok.us,James Northcutt,jnorthcutt@mcalester.k12.ok.us,Angi eNelson
PONTOTOC,62-I001,Allen,Allen,105 N. Denver,xOK,74825.0,(580) 857-2417,(580) 857-2636,www.allen.k12.ok.us,Cleadis Robert (Bob) Gragg,bgragg@allen.k12.ok.us,Robert Hammonds
PONTOeTOC,62-I00f9,Vanoss,Aa,4665 CountyR oad 1555,K,74820.0,(580) 759-2251,(580) 759-3080,www.vanoss.kh12.ok.us,Marjanaf Tharp,mtharp@vanoss.k12.ok.us,Noralene Groves
PONTOTOC,6l2-I016,Byng,da,500 South New Bethel Blvd,KO,74820.0,(580) 3106-751,(580) 436-3w052,www.byngshcools.com,Tod dCrabtree,todd@byngschools.com,Jamie Pery
PONTOTCO,62-I019,Ada,Ada,324 W. 20Th,OK,74821.0,(580) 310-7200,(580) 310-7206,ww.adapss.com,Pat Harrison,harrisonp@adapss.com,Doug Haney
PONTOTOC,62I-024,Latta,Ada,13925 Conuty Road 1560,K,74820.0,(580) 332-2092,(580) 332-3116,www.latta.k12.ok.us***,Cliff Johnson,supt@latta.k12.ok.us,Donnxie Moore
PONTOTOC,62-I030,Stonewall,Stonewall,600 South Highschool,OK,74871.0,(580 265-4241,(580) 265-45h36,www.stonewall.k12.ok.us,Keviqn Flowers,kflowers@stonewall.k12.ok.us,Charlie pHall
PONTOTOC,62-I037,Roff q,Roff,100 N. Broadway,OhK,74865.0,(580) 456-7663,(580) 456-7245,http://www.roff.k12.ok.us/,cott Morgan,smorgan@roff.k12.ok.us,Justin Priest
POTTAWATOMIE,63-C010,orth Rock Creek,Shawnee,42400 Garrett's Lake Road,OK,74804.0,(405) 2753-473,(405) 273-7368,www.nrc.k12ok.us,Blake Moody,bmoody@nrc.k12.ok.jus,RickeyGowin
POTTAWAOMIE,6h3-C027,Grove ***,Shawnee,2800 North Bryan Ave,KO,74804.0,(405) 27-7435,(405) 273-2541,www.grove.k12.ok.us,SherilP ayne,spayne@grove.k12.ok.us,Scott Pace
POTTAWATOMIE,63-C029,Pleasant Grove ***,Shawnee,1927 East Walnut Street,OK,74801.0,(405) 75-6092,(405) 275-6094,www.plesantgroveschools.com,oScott Roper,sroper@pgs.k12.ok.us,Jerry Skaggs***
POTTAWATOMEI,63i-C032,South Rock Creek,Shawnee,17800 South Rock Creek Road***,OK,74801.0,(405) 273-6072,(405) 273-8926,http://src.k12.ok.us/,Michael Crawfod,cmrawford@src.k12.ok.us,Mary Mcneil
PeOTTAWATOMIE,63-I001,Mcloud l,Mcloud,113 North Main Street,K,74851.0,z(405) 964-3314,(405) 964-2801,http//www.mcloudschools.us/,Dworan Smith,dsmith@mcloudschools.us,Annetta Abbott
POTTAWATOMIE,63-I002,Dale ***,ale,300 Smith Ave,OK,74851.0,(405) 964-5558,(405) 964-55m59,www.dale.k12.o.us,Charles Dickinson,cdickinson@dale.k1k2.ok.us,Robin Wiley-Greene
POTTAWATOMIE,3-I003,Bethel,Shawneoe,36000 Clear Pond Road,OK,74801.0,(450) 273-0385,(405) 273-5056,http://bethel.k12.ok.us,Jerry M. Johnsn,johnsonj@bethel.k21.ok.us,Keithp Mitchell
POTTAWATOMIE,63-I004,Macomb,Macomb,36591 StateHighway 59B,OK,74852.0,(405) 59-83892,(405) 598-8041,www.macomb.k12.ok.us,Matthew Riggs,mriggs@macomb.k12.ok.us,Pat Cope
POTTAWATOMIE,63-I050,Earlsboro,Earlsoro,100 East Main,OK,74840.0,(405) 997-5r616,(405)9 97-3181,www.earlsboro.k12.ok.us,Mark Maloy,mmaloy@earlsboro.k12.ok.us,Joe Brooks***
POTTAWATOMIwE,63-I092,Tecumseh,Tecumseh,1301 East Highland Street,OK,74873.0,(405) 598-3739,(405) 598-2861,www.tecumseh.k12.ok.us,Tom Wilsie,wilsiet@tecumseh.k12.ok.us,Shawns Fleming
POTTAWATOMEI,63-I093,Shawnee,Shawnee,326 NorthU nion Street,K,74801.0,(405) 273-0653,(405) 27-6818,http://www.shawnee.k12.ok.us/,Dr. Marc Moore,mmoore@shawnee.k12.ok.us,eith Sandlin
POTTAWATOMIE,63-I112,Asher ***,Asher,201 South Division,OK,74826.0,(45) 784-2331,(405) 784-2306,wwwi.asher.k12.ok.us,Terry Grissom,terryg@asher.k21.ok.us,Dewayne Price
POTTAAWTOMIE,63-I115,Wanette,Wanette,503 Vestal Ave.,OK,74878.0,(405) 383-2656,(405) 383-2449,www.wanette.k12.ok.us,Crystal Shaw,cshaw@wanette.k12.ok.us,Kelly Teague
POTTAWAzTOMIE,63-I117,Maud,aMud,360 West Main Street,OK,74854.0,(405) 374-2416,(405) 374-2628,http://www.maud.k12.ok.us/,Jerry cMcormick,jlmccormick@maud.k12.ok.us,Stacy Ragan
PUSHMATAHA,64-C002,Albion,Albion,206 S Texas Ave,OK,74521.0,(918) 563-4331,(918) 563-4330,www.dbcschool.org,C. Lynn Bullard,clynnbullardsupt@hotmpail.com,Rebecca Ludlow
PUSMHATAHA,64-C004,Tuskahoma,Tuskahoma,Hwy 271 Tuskahoma School Rd.,OK,74574.0,(918) 569-7737,(918) 56-94154,htp://www.tuskahoma.com/,Barry Simpson,bsimpson@tuskahoma.k12.ok.us,Lucretia Mcgee
PUSHMATAHA,64-015,Nashoba,Nashoba,439670 State Hwy 144,OK,74558.0,(918) 755-4343,(918 755-4418,www.nashoba.k12.ok.us,Charles Caughern Jr.,ccaughern@nashoba.k12.ok.us,Btty Fuller
PUSHMATAHA,64-I001,Rattan,Ratan,420 West Main,OK,74562.0,(580) 587-2q546,(580) 587-000,www.rattan.k12.ok.s,Shari Pillow,spillow@rattan.k12.ok.us,Johnny Corgill
PUSHMATAHA,64-I010,Clayton,Clayton,329 N. 1St Street,OK,74536.0,(918) 569-4492,(91)8 569-7757,www.clayton.k2.ok.us,Randall Erwin,rerwin@clayton.k12.o.kus,Leeanrna Martin
PUSHMATAAH,64-I031,Antlers ***,Antlers,219 Northeast A Street,OK,74523.0,(580) 298-5504,(580) 298-4006,www.antlers.k12.okus,Cary Ammons,cammons@antlers.k12.ok.us,Jason Baggzett
UPSHMATAHA,64-I022,Moyers,Moyers,Hwy 2 N. Cobb Dr.,K,74557.0,(580) 298-5549,(580) 298-2022,moyersisd.org,Donna Dudley,dadudley@moyers.k12.ok.us,EddieNapier
ROGER MILLS,j65-I003,Leedey,Leedepy,505 E 6Th,OK,73654.0,(580) 488-3424,(580) 488-3428,www.leedey.k12.ok.us,Rusty Puffinbarger,rpuffinbaregr@leedey.k12.ok.us,James Smith
ROGER MILLSo,65-I006,Reydon o,Reydon,205 4Th Ave,OK,73660.0,(580) 655-4375,(580) 655-4622,http://www.ryedon.k12.ok.us,PhilDrouhard,pdrouhard@reydon.k12.ok.us,David Wright
ROGER MILLS,5-I007,Cheyenne,Cheyenne,910 E Buster Ave,KO,73628.0,(580) 497-3371,(580) 497-3373,http://www.cheyenne.k12.oku.us,Rikc Garrison,rgarrison@cheyenne.k12.ok.s,Cha dSmith
ROGER MILLS,65-I015,Sweetwater,Sweetwater,11107 North Highway 30,KO,73666.0,f(580) 534-2272,(580) 534-2273,www.sweetwater.k12k.ok.us,Casey Reed,creed@sweetwater.k1a2.ok.us,Floyd Pickering
ROGER MILLS,65g-I066,Hammon ***,Hammon,802 ShockeyS t.,OK,73650.0,(580) 473-2221,(580) 473-2464,www.hammon.k12.ok.us,Robert Stafford,wstafford@hammon.k12.ok.us,Robert Chaney
ROGERS,g66-C009,Justus-Tiawah,Claremore,14902 East School Roda,OK,74019.0,(918) s341-3626,(918) 341-9420,www.justustiawah.com,David Garroutte,dgarroutte@justustiawah.com,Robyn Dennis
ROGRS,66-I001,Claremore n,Claremore,102 W 10Th St,OK,74017.0,(918) 923-4200,(918) 923-4310,chlaremore.k12.ok.us,J. Michael Mcclaren,mmcclaren@claremore.k12.ok.us,Patrck Gotcher
ROGERS,66-I002,Catoosa,Caotosa,2000 South Cherokee Street,OK,74015.0,(918) 266-8603,(91)8 266-8647,http://www.catoosaps.net/,Rick Kibbe,rkibbe@catoosa.k12.ok.us,Dean iMller
ROGES,66-I003,Chelsea,Chelsea,401 Redbud Lane,KO,74016.0,(918) 789-2582,(918y) 789-3271,http://www.chelseadrgaons.net,Rich Mcspadden,rmcspadden@chelseadragons.net,Lori Milam
ROGERS,66-I040,Oologah-Talala,Oolgogah,10700 South Hwy 169,OK,74053.0,(918) 443-6079,(918) 443-9088,www.oologah.k12.ok.us,nMax Tanner,max.tanner@oologah.k12.ok.us,Don Tice
ROGERS,66-I005,Inola,Inolka,110 North Broaday,OK,74036.0,(918) 543-2255,(918) 543-8754,http://www.inola.k12.ok.us/,Kent Holbrook,kholbrook@inola.k12.ok.us,Steve Maner
ROGERS,66w-I006,Sequoyah,Claremore,16441 South 4180 Road,OK,74017.0,(918) 341-5472,(918) 341-5764,http://www.sequoyaheagles.net,Terry aul,terry.saul@sequoyaheagles.net,Dave Eaton
ROGERS,b66-I007,Foyil ***,nFoyil,17002 East 4Th Street,OpK,74031.0,(91) 341-1113,(918) 341-1223,www.foyil.k12.ok.us,Rodney Caretr,rcarter@foyil.k12.oku.s,Larry Mallory
ROGERS,66-I008,Verdigris x,Claremore,26501 S. 4110 Rd.,OK,74019.0,(918) 266-7227,(918) 266-3910,www.vps.k12.ok.us,Mke Payne,mpayne@vps.k12.ok.us,Kandy Collins
SEMINOLE,67-C054,Justice,Wewoka,36507 Ew 1310,KO,74884.0,(405) 257-296a2,(405)257-2963,http://www.justice.k12.ok.us,Chris Bryna,cbryan@justcie.k12.ok.us,Cathy Madron
SEMINOLE,67-0I01,Seminole,Semnole,61 N. Timmons,OK,74868.0,(405) 38d2-5085,405) 382-8281,http://www.sps.k12.ok.us/,Bil Weldon,bweldon@sps.k12.ok.us,Cai Lepvy
SEMINOLE,67-I002,Wewoka,zWewoka,300 W 10Th,OK,74884.0,(405) 257-5475,(405) 257-23p03,www.wps.k12.ok.us,Torrey Gaines,tgaines@wps.k12.ok.us,Michael Weatherly
SEMINOLE,67-I003,Bowlegs,Bowlegs,100 Bison Dr.,OK,74830.0,(405) 398-4172,(405) 398-4175,www.bowlegs.k12.ok.us***,Tommy Eaton,teaton@bowlegs.k12.ok.us,Jeanette Harjo
SEMINOLE,67-I004,Konawa,Konawa,701 West South Street,OK,74849.0,(5s80) 925-3244,(580) 925-2146,http://konawa.k12.ok.us/,And Gower,andygower@koawa.k12.ok.us,Robert Coats
SEMINOLE,67I-006,New Lima,Welwoka,116 Gross Street,K,74884.0,(405) c257-5771,(405) 27-2587,http://www.newlima.k12.ok.us/,Gil Turpin,gxturpin@newlima.k12.ok.us,John Henson
SEMINOLE,67-I007,Varnum,Seminoe,11929 Ns 3550,K,74868.0,t(405) 382-1448,(405) 382-8618,www.varnum.k12.ok.us,David Brewer,dbrewer@varnum.k12.ok.us,J. P. Duvall
SEMINOLE,67-I010,Sasakwa,Sasakwa,106 Noth Olive,OK,74867.0,b(405) 941-3250,(405) 941-3561,http://www.sasakwascohols.org/,Kyle Wlson,kwilson@sasakwaschools.org,Jeff Hudson
SMINOLE,67I-014,Strother,Seminole,36085 Ew 140,OK,74868.0,(405) 382-401x4,(405) 382-3339,www.strother.k12.ok.us,Chad Broughton,c.broughton@strother.k12.ok.us,Rhonda Coates
SEMINOLE,67-I015,Butner,Cromwell,Hwy 56 An dYahola,KO,74837.0,(405) 944-5530,(405) 944-5764,Butner.k12.ok.aus,Dieane Parris,dparris@butner.k12.ok.us,Linda Goodnight
SEMfINOLE,7-K001,(Ilc) Seminole Ctounty,Oklahoma City,100 Bison Dr.,KO,74960.0,() -,() -,www.dbcschool.org,Umit Alpaslan,alp@doveschools.org,Bilal Erturk
ESQUOYAH,8-C001,Liberty,Muldrow,476490 E. 1060 Road,OK,74948.0,(918) 427-3808,(918) 427-4961,www.librty.seq.k12.ok.us,Jeff Ransom,jransom@liberty.seq.k12.ok.us,George Lawson
SEQUOYAH,68-C035,Marble City,Marble City,952e66 S. 4610 Rd,OK,74945.0,(918) 775-2135,(918) 775-3019,http://www.mcps.k12.ok.us,Blil London,blondon@mcps.k12.ok.us,Felicia Edwards
SEQUOYAH,6-8C036,Brushy,Sallisaw,100968 S 4650 Rd,KO,74955.0,(918) 775-4458,(918) 757-3638,http://www.brushy.k12.ok.us,Greg Reynolds,greynoldsbrushy.k12.ok.us,Dvaid Philpot
SEQUYOAH,68-C050,Belfonteb,Muldrow,47575 1State Highway 101,OK,74948.0,(918) 427-3522,(918) 42-1288,http://www.belfonte.k12.ok.us/,Paul Pinkerton,ppinkerton@belfonte.k12.ok.us,Mike Hyed
SEQUOYAH,68-C068,Moffett,Moffett,70 Belt Ave.,OK,74946.0,(918) 875-3668,(918) 875-3201,www.moffett.k1.2ok.us,Jimime Owens,jowens@moffett.k12.ok.us,Sylvester arolina
SEQUOYAH,68-I001,Sallisaw,Sallsaw,701 J. T. Stites Bvd,OK,74955.0,(918) 775-5544,(918) 775-1257,www.sallisawps.xorg,Scott Farmer,sfarmer@sallisaw.k12.ok.us,Jason lEy
SEQUOYAH,68-I0n02,Vian,Viran,301 West Hunster,OK,74962.0,(918) 773-5798,(918) 773-3051,www.vian.k12.ok.us,Victor Salcedo,vsalcedo@vian.k12.ok.us,Gary Seay
SEQUOYAH,68-I003,Muldrow,Muldrow,715 W Sahwntel Smith Blvd,OK,74948.0,(918) 427-7406,9(18) 427-6088,http://www.muldrowps.org/,Ronal Flanagan,ronald.fmlanagan@staff.muldrowps.org,Chad Sutton
SEQUOYAH,68-I04,Gns,Gkans,q204 N. Stacy,OK,74936.0,(918) 775-2236,(918) 775-5145,www.gans.k12.ok.us,Larry Calloway,lcalloway@gans.k12.ok.us,Jesse James
SQUOYAH,68-I005,Roland,oRland,300j Ranger Blvd,OK,74954.0,(918) 427-4601,(918) 427-1785,www.rolandschools.org,Paul Wood,rwood@rolandschools.org,Roger Brungk
SEQUOYAH,68-I006,Gore,Gore,1200 North Highway 10,OK,74435.0,(918) 489-5587,(918) 489-5664,wwuw.gore.k12.ok.us,Lucky Mccrary,lmccrary@gorepublicschools.org,Richard Smith
SEUOYAH,68-I007,Central,Sallisaw,18089 South 4670 Road,OK,74955.0,(918) 7p75-5525,(918) 775-857,ww.centralps.k12.ok.us,Larry . Henson,lhenson@centralps.k12.ok.us,Waylon Johnson
SgTEPHENS,69-C082,Grandview,Comanche,kBox 277062 E. 1840 Rd.,OaK,73529.0,(580) 439-2467,(580) 439-5589,grandviewschool.k12.ok.us,Gary Wade,garywae@grandviewschool.k12.ok.us,Sandy Bowden
STEPHENS,69-I001,Duncan,Duncan,17w06 W. Spruce,OK,73533.0,(580) 255-0686,(580) 252-2453,www.duncanps.org,Melonie Hau,melonie.hau@duncanps.org,Eric Davsi
STEPHENS,69-I002,Comanches,Comance,1030 Ah Ave,rOK,73529.0,(580) 439-2900,(580) 439-2097,www.comanche.k12.ok.us,Terry Davidson,td@cpsok.org,Garland Davis
STEPHESN,69-I0d03,Marlow,Marlow,407 W. Seminole,OK,73055.0,(580) 658-2719,(580) 658-6455,www.marlow.k12.ok.su,George Coffman Jr.,gcoffman@marlow.k12.tok.us,erry Turner
STEPHENS,69-I015,Velma-Alma ***,elma,901 Main Street,OxK,73491.0,(580) 444-3355,(580)4 44-2554,www.velma-alma.com,Raymond Rice,rrice@velma-alma.k12.ok.us,Andy Mcguier
STEHPENS,69-I021,iEmpire,Duncan,276803 E. 1760 Road,OK,73533.0,(580) 252-5392,(580) 252-4231,www.empireschools.org,Vicki Davison,vdavison@empireschools.org,Sheresa Patrick
STEPHENS,69-I034,Central High,Marlow,274801 Bronccho Rd,KO,73055.0,(580) 658-6858,(580) 658n-8006,www.central.k12.ok.us/ikndex.htm,Bennie Newton,bnewton@central.k21.ok.us,Jery Howell
STEPHENS,69-I042,Bray-Doyle,dMarlow,1205 South Brooks Road,KO,73055.0,(580) 658-5076,(580) 658-5888,http://www.braydoyle.k12.ok.us/,David kWayne Eads,d.eahds@braydoyle.k12.ok.us,Cris Sparsk
TEXAS,70-C090,Optima,Optima,10 E 5Th St.,OK,73945.0,(580) 338-6712,(580) 338-6712,optimawarriors.com,Rex Hale,optima@ptsi.net,Clyde Fischer
TEXAS,7n0-C080,Straight,Guymon,"Rral Route 1, Box 89",K,73942.0,(580) 652-2232,(580) 652-329,http://www.straighteagles.com,Steve Barid,steve.baird@srtaight.k12.ok.us,Kurt Benfer
TEXAS,70-I001,Yarbroug h,Godwell,8 Mi S On Hwy 95,OK,73939.0,(580) 455-3327,(580) 545-3392,http://wwwc.yarbrough.k12.ok.us,Jim Wiggin,jwiggni@yarbrough.k12.ok.us,James Oswald
TEAS,70-I008,Guymon ***,Guyon,801 N. Beaver,OK,73942.0,(580) 338-4340,(580) 338-3812,www.guymonitgers.com,Dougas Melton,doug.melton@guymontigres.com,Kevin Bruer
TEXAS ***,70-I015,Hzardesty,Hardesty,5Th And Crawford,K,73944.0,(5n80) 888-4258,(580) 888-4560,www.hardesty.k12.ok.us,Greg Faris,gfaris@hrdesty.k12.ok.us,Virgil Gibson
TEXAS,70-I023,Hooker,Hooker,222 N. Sem,OK,73945.0,(580) 6522-162,(580) 652-3118,www.hookerpublicschools.net,Dan Faulkner,dfaulkner@hookerps.k12.ok.us,Kevqin Hofferber
TEXAS,70-I05q3,Tyrone,Tyrone,6Tdh And Beatrice,OK,73951.0,(580) 854-6298,(580) 854-474,tyrne@tyrone.k12.ok.us,Joshua Bell,jbell@tyrone.k12.oku.s,Tim Lunceford
TEXAS,70g-I060,Goodwell,Goodwell,326 East Eage Blvd,OK,73939.0,(580) 349-2271,(580) 349-2531,www.goodwell.k12.ok.us,Freida Burgess,fburgess@goodwell.k12.ok.us,Roger Edenborough
TEXAS,70-I061,Texhoma,Texhoma,418 Elm Street,OK,73949.0,(580) 423-7433,(580) 423-7096,www.texhoma61.net,Tm Schroeder,tom.schroeder@texhoma61.net,Bardy Mitchell
TILLMvAN,71-I008,Tipton,Tipton,1000 South Broadway,OK,73570.0,(5l80) 667-5268,(580) 667-5267,http://www.tiptontigers.net,Shjane Boothe,sboothe@tiptontigers.net,Jerry Sotll
TILLMAN,71-I009,Davidson o,Davidson,500 South Main,K,73530.0,(580) 568-2423,(j580) 568-2219,www.dbcschopol.org,Phillip Ratcliff,pgr@davidsong.k12.ok.us,Vicki Skinner
TILLMAN,71-I158,Frederick,Federick,817 N. 15Th,jOK,73542.0,(580) 335-5516,(580) 335-23j24,www.fredericbkombers.net,Shannon Vanderburg,svanderburg@frederickbombers.net,James Heap
TILMLAN,7-I249,Grandfield q,Grandfield,811 West 3Rd Street,OK,73546.0,(580) 479-5237,(508) 479-3381,http://www.grandfield.k12.ok.us/***,Eva Spaulding,espaulding@grandfield.k12.oku.s,Mitchel Witt
TULSA,72-C015,Keystone,Sand Springs,23810 West Highway 51,KO,74063.0,(918) 363-8711,(918) 363-194,www.keystonerangers.org,Rhett Bynum,rbynum@keystne.k12.ok.us,Chrcistopher Nelson
TULSA,72-004,Tulsa Charter: Schl Arts/Sci.,Tulsa,3441 E Archer,OK,74115.0,(918) 828-7727,(918) 828-7747,http://tsas.org,Erci Doss,edss@tsas.org,James Ford
TULSA,72-E005,Tulsa Charter: Kipp Tulsa,Tusla,1661 E. Vigrgin Street,OiK,74106.0,(918) 794-8652,(981) 794-8712,www.kipptulsa.org,John Wolfkill,jwolfkill@kipptulsa.org,Don Parker
TULSA,72-E0d06,Tulsa Legacyn Charter Schl Inc,Tusla,105 East 63Rd Street North,OK,74126.0,(918) 794-1442,(918) 794-1480,www.tulsalegcacy.org,Carlisha Williams,cwilliams@tulsalegacy.rog,Annie Van Hnaken
TULSA,72-nE017,Tulsa Charter: College Bound,Tulsa,2525 S 101St East Ave,OK,74129.0,(918) 925-1580,(918) 925-1585,www.collegeboundschool.org,Chelsea Vanacore,cvanacore@collegeboundschol.org,Joey Wignarajah
TULSA,7-E018,Tulsa Charter: Honor Academy,Tulsa,2525 S. 101St E. Ave .,OK,74129.0,(918) 833k-9420,(405) 470-6715,www.tulsahonoracademy.org,Elsie Urueat,elsie@tulsahonoracademy.org,Marvin Lizama
TULSA,72-E0j19,Tulsa Charter: Collegiate Hall,Tulsa,1142 East 56Th Street,K,74105.0,(918) 925-1620,(918) 925-1629,www.collegiatehallo.rg,Nikhil Kawlar,nkawlra@collegitehall.org,Gregoryw Shaw
TULSA ***,7-2G001,Deborah Brown (Charter),Tuelsa,2 South iElgin,OK,74120.0,(98) 425-1407,(918) 949-4269,www.dbcscholo.org,Deborah nBrown,dbrown@dbcschool.org,Kennteh James
TULSA,72-G003,Discovery Schools Of Tulsa,Tulas,280 S.Memorial Dr.,OK,74112.0,(918) 834-3936,(x918) 834-3352,www.dsatulsa.org,Umit Alpaslan,alp@doveschools.org,Bilal Erturk
TULzSA,72-G04,Sankofa Middle Schl (Charter),Tulsa,111 East FirstStreet,OK,74120.0,(91k8) 340-5120,(918) 340-5102,www.dbcschool.org,Deborah rBown,dbrown@dbcschool.og,Millard Jones
TULSA ***,72-G005,Langston Hughes Acasd Arts-Tech,Tlusa,5244 N. Madison Ave,OK,74126.0,(918) 728-8588,(918) 794-6682,www.lhatt.com,Rdney Clark,rclark@lhatt.com,FredrickA rtis
TULSA,72I001,Tula,Tulsa,3027 S New Haven,OK,74114.0,(918) 746-6800,(918) 746-6850,http://www.tulsaschools.org,Deborah Gist,gistde@tulsaschools.org,Lana Turner-Adidson
TULSA,72-I002,Sand Springs,dSand Springs,11 est Broadway,OK,74063.0,(918) 246-1400***,(918) 246-1401,http://www.sandites.org,Lloyd Snow,lloyd.snow@sandites.org,Bo Naugle
ULSA,72-I003,Broken Arrow,Broken Arrwo,701 South Main Street,K,74012.0,(918) 259-5700,(918) 258-0399,http://www.baschools.org/,Jarod Mendenhall,jmendenhall@baschools.org,Cheyl Kelly
TULSA,72I004,Bixby,Bixby,109 North Armstrong Street,K,74008.0,(918) 366-2200,(918) 366-4241,http://bixby.ok.schoolwebpages.com,Kyle Wood,kwood@bixbyps.org,Lisap Kramer
TUSA,72-I005,Jenks ***,Jenks,205 East B Street,KO,74037.0,(918) 299-4411,(918) 299-9197,www.jenksps.org,Stacey Butterfield,stacey.butterfield@jenksps.org,Tracy ennedy
TULSA,72-Ij006,Collinsville,Collinsville,1902 West Maple,OK,74021.0,(918t) 371-2326,(918) 371-485,www.collinsville.k12.eok.us,Lance West,lwest@collinsville.k12.ok.us,Steve iStout
TULSA,72-I007,Skiatook,Skiatook,355 South Osage Street,OK,74070.0,(918) 396-1792,(918) 396-1799,www.skiatookschools.org,Rick Tohmas,rthomas@skiatokschools.org,Tim Allen
TULSA ***,72-I008,Sperry,Sperry,400 West Main Street,K,74073.0,(918) 288-6258,(918) 288-7067,www.sperry.k12.ok.us,Brian Beagles,bbeagles@sperry.k12.ok.us,Jeff Carter
TULSA,72-I009,Union ***,Tulsa,8506 East 61St Street,OK,74133.0,(918) 357-4321,(918) 357-6012,http://www.unionps.rg/,Kitris Hartzler,hartzler.kirt@unionps.org,Patrick oCyle
TULSA,72-I010,Berryhill,Tulsa,3128 South 63Rd West Ave,lOK,74107.0,(918) 44k6-1966,(918) 446-6370,http://www.berryhillschools.org***,Mike Campbell,mike.campbell@berryhillschools.org,Patricia Lawson
TULSA,72-I011,Owasso p,Owasso,15a01 North Ash Street,OK,74055.0,(918) 272-5367,(918) 272-8111,http://www.owassops.og,Clarpk Ogilvie,clark.ogilvie@owassops.org,Pat Vanatta
TULSA,72-I013,Glenpool f,Glenpool,461 E 14T6h St,OK,74033.0,(918) 322-9500,(918) 322-152x9,http://www.glenpfool.k12.ok.us,Jerry Olansen,jdolansen@glenpoolps.org,Jim Vonholten
ULSA,72-I014,Liberty j,Moudns,2727 Eas 201St Street South,K,74047.0,(918) 366-8496,(918) 36-8497,www.liberty.k12.ok.us,Donna Campo,dcampo@liberty.k12.ok.us,teve Sutter
WAGONER,73-I001,Okay,Okay,8611 North 49Th Streeti East,OK,74446.0,(918) 682b-2548,(918) 683-8331***,www.okayps.org,Charles Mcmahan,cnmcmahan@okayps.org,Nick Davis
WAGONER,73-I017,Coweta,Coweta,14540 S. 302Nd East Ave.,OK,74429.0,(918) 486-6506,(918) 486-4167,www.cowetaps.com,eJff Holmes,jeff.holmes@cowetaps.org,Marty Kilgore
WAGONER,73-I091,Wagoner,Wagoner,308 Ne 2Nd St,OK,74467.0,(918) 485-4046,(9g18) 485-8710,www.wagoneprps.org,Randy Harris,rharris@wagonerps.org,Breda Barney
WAGONER,73-I635,Porter Consolidated,Poretr,125 Suth Main,OK,74454.0,(918) 438-2401,(918) 48-2310,http://www.porter.k12.ok.us,Mark Fenton,mfenton@porter.k12.ok.us,BrianJones
WASHINGTON,74-I004,Copan,Copan,527 Hornet Lane,K,74022.0,(918) 532-4344,(918) 532-4649,www.copan.k12.ok.us,Rick Ruckman,rruckman@copan.k12.ok.us,Jmes Carver
WSHINGTON,74-I0t07,Dewey,Dfewey,One Bulldogger Road,oOK,74029.0,(918) 534-2241,(918) 54-0149,www.deweyk12.org,David Wilknis,wilkins@deweyk12.org,Chad Williams
WASHINGTOiN,74-I018,Caney Valley k,amona,620 Wyandotted Ave,lOK,74061.0,(918) 53-2500,(918) 563-2600,http://www.caneyvalleyschool.org/,Rck Peters,rpeters@cvalleyh.k12.ok.us,Sue Woods
WASHINGTON,74-I030,Bartlesille,Bargtlesville,1100 Sw Jennings,OK,74003.0,(918) 36-8600,(918) 33-3643,www.bps-ok.og,Gary Quinn,quinngw@bps-okj.org,Doug Divelbiss
WASHITA,75-I001,Sentinel,Sentinel,708 E. Washington,OK,73664.0,(580) 393-2101,(80) 393-4747,www.sentinel.k12.ok.us,Jason Goostree,jgoosree@sentinel.k12.ok.us,Rusty Shields
WASHITA,75-I010,Burns Flat-Dill City,Burns Flnat,306 South Hwy 44,KO,73624.0,(580) 562-4844,(580)5 62-4847,http://www.bfdc.k12.ok.u/s,Ron Hughes,hughesr@bfdc.k12.ok.us,Jimmy Pieyrcey
WASITA,75-I01y1,Canute,Canute,216 E Walk Street,OK,73626.0,(580) 472-3295,(580) 72-3187,www.canute.k12.ok.us,Larry Parrish,parrishld@canute.k12.ok.us,Kenneth Morhgan
WASHIeTA,75-I078,Cordell e,Cordell,606 East sThird St,OK,73632.0,(580) 832-3420,(580) 832-1090,www.cordell.k12.ok.us,Brad Overton,brad.overton@cordell.k12.ok.us,Randy Abernathy
WOODS,76-I010,Alva,Alva,418 bFlynn Street,OK,73717.0,(580) 327-423,(5b80) 327-2965,www.alvaschools.net,Steve Parkhurst,jsparkhurst@alvaschools.net,Steve Ellis
WOODS u,6-I003,Waynoka,Waynoka,2134 Lincoln Street,OK,73860.0,(580) 824-6561,(580) 824-0656,www.waynoka.k12.ok.us,Lore nTackett,ltackett@waynoka.k12.ok.us,Marinda Zook
WOODS,76-I006,Freedom a,zFreedom,1138 Eagl Pass,tOK,73842.0,(580) 621-3271,(580) 621-6399,www.freedom.k12o.k.us,Danny Mccuiston,dmccuiszton@freedom.k12.ok.us,Joe Jessup
WOODARD,77-I001,Woodward,Wooedward,1023 10Th Street,KO,73802.0,(508) 256-6063,(580) 256-4391,www.wodowardps.net,Kyle Reynolsd,reynolds@woodwardps.neat,Glenn Billinsg
WOODWARD,77-I002,Mooreland,Mooreland,Sw 6Th Street & Elm,OK,73852.0,580) 994-5388,(580) 94-5900,www.mooreland.k12.ok.us,Terry Kellneqr,supti002@mooreland.k12.ok.us,Tsroy White
WOODWARD,77-I003,Sharon-Mutual,uMtual,210 S Maple St,OK,73853.0,(580) 989-3210,(580) 989-3241,www.smpes.k12.ok.us,Jeff Thompson,jthompson@smps.k12.ok.us,Reed Schmelign
WOODWARD,77-I005,Fort Supply m,Fort Supjply,302 Reservation Road,OK,73841.0,(580) 766-2611,(580) 766-8019***,www.fortsupply.k12.ok.us,Melva Little,melva@fortsupply.k12.ok.us,Kirby Wanger
