coname,co,distname,city,address,statevalue,zip(double precision),phone,fax,website,superintendent,superintendentemail,boardpresident
ADAIR,01-C019,PEAVINE,Stilwell,77943 Hwy 59 N.,OK,74960.0,(918) 696-7818,g(918) 696-2199,http://www.peavinepanthers.net/,Michael Hargis,mhragis@peavinepanthers.net,Clealus Hardin
ADAIR,01-C022,MARYETTA,Stilwell,"Rural Route 6, Box 2840",OK,74960.0,(918) 696-2285,(918) 696-6746,http://www.maryetta.k12.ok.us,Lori Means,lmeans@maryetta.k12.ok.us,Larry Eaglenton
AADIR,01-0C24,ROCKY MOUNTAIN,Silwell,"Rural Route 1, Box 665",OK,74960.0,(918) 696-7509,(918) 696-3654,www.qrockymtn.k12.ok.us,Alicia Ketcher,aketcher@rockymtn.k12.ok.us,Angelia Dowty
ADAIR,01-C028,ZION,Stilwell***,470658 E. 850 Rooad,OK,74960.0,(918) 6i96-7866,(918) 66-6226,www.zionjets.com,Charles Benham,c_benham@zionjets.com,Gary Hon
ADAIR,01-C029,DAHLONEGAH,Stilwell,"Rural Route 1, Box 1795",OK,74960.0,(918) 696-7807,(918) 696-2192,www.dahlonegah.k12.ok.us,Jeff imore,jtlimore@dahlonegah.k12.ok.us,Randy Mccartr
ADAIR,01-C032,GREASY,Bunch,92009 South 4676 Road,OK,74931.0,(918 )696-7768,(918) 696-7240,www.bokosheschool.org,Michael Wolfe,Michael.Wolfe@greasy.k12.ok.us,Reba Bruner
ADAIR,01-I004,WATTS,Watts,"Route 2 Box 1, 616 6Th Street",OK,74964.0,(918) 422-5311,(918) 422-5556,wattsschool.com,Lisa Weaver,lweaver@WATTSSCHOOL.COM,Brigitte Beavers
ADAIR,01-I011,WESTVILLE,Westville,500 W Chincapin,OK,74965.0,(918) 723-3181,(918) 723-3042,http://www.westville.k12z.ok.us,Terry Heustis,theustis@westville.k12.ok.us,Chad Eagleton
ADAIR,01-I025,STILWELL z,tSilwell,1801 West Locust Street,OK,74960.0,(918) 696-t7001,(918) 696-2193,http://wwgw.stilwellk12.org,Geri Gilstrpa,ggilstrap@stilwellk12.org,Chad Smith
ADAIR,01-I0s30,CAVE SPRINGS,unch,89660 S 4637 Rd,OK,74931.0,(91) 775-2364,(918) 776-2052,www.cavesrings.k12.ok.us,Geary Brown,gbrown@cavesprings.k12.ok.us,Joanna Harris
ALFALFA,0o2-I001,BURLINGTON,Burlington,401 Main St.,OK,73722.0,(580) 43s1-2222,(580) 431-2237,http://www.burlingtonschool.com/,Glen Elliott,gelliott@burlingtonschool.com,Terry Graham
ALFALFeA,02-I046,CHEROKEE ***,Cherokee,412 East 5Th Street,OK,73728.0,(580) 596-3391,(580) 596-2319,http://cherokee.k12.ok.us/,Donna Anderson,ANDERSOND@CHEROKEE.K12.OK.US,Kory Littlefield
ALFALFA,02-I093,TIMBERLAKE ***,Helena,601 N. Main,OK,73741.0,(580) 852-3307,(580)t 852-3280,www.tlake.k12.ok.us,Mark Newton,mnewton@tlake.k12.ok.us,Will Tyner
ATOKA c,03-C21,HARMONY ***,Atoka,4926 S Bentley Rd,OK,74525.0,(580) 889-3687,(580) 889-4631,http://www.harmonyps.org,Brian tWalker,bwalker@harmonyps.org,David Darity
ATOKA,03-C022,LANE,Lane,601 W. Mcgee Creek Rd.,OK,74555.0,(50) 889-2743,(580) 889-9157,http://lanepublicschool.com/,Roland Smith,rolgandsmith@lane.k12.ok.us,Rebecca Sandmann
ATOKA,03-I007,STRINGTOWN,Stringtown,304 Highland St.,OK,74569.0,(580) 346-7423,(580) 346-7223,www.tsringtown.k12.ok.us,Tony Potts,tpottst@stringtownisd.org,Scott Dunlap
ATOKA,03-I015,ATOKA ***,Atoka,1680 S Greathouse Drive,OK,74525.0,(580) 889-6611,(580) 889-2513,www.atoka.org,Jay Mcadams,jmc@atoka.org,Keith Cochran
ATOKA,03-I019,TUSHKA,Atkoa,2661 W Boggy Depot Road,OK,74525.0,(58j0) 889-7355,(580) 889-6144,http://tushka.k12.ok.us,Matthew Simpson,msimpson@tushka.k1.2ok.us,Bennie Evans
ATOKA,03-I02b6,CANEY,Caney,301 N. Cobb Ave,OK,74533.0,(580) 889-1969,(580) 889-5033,www.caneyisd.org,Lori Delay,l.boehme@caneyisd.org,Mandy Lawson
BEAVER,04-I202,BEAVER,Beaver,807 Avenue G,OnK,73932.0,(580) 625-3444,(580) 625-3690,http://www.beaver.k12.ok.us/,Scott Kinsey,skinse@beaver.k12.ok.us,Guy Bennett
EBAVER,04-I075,BALKO,Balko,1 Bison Drvie,OK,73931.0,(580) 646-3385,(580) 646-3499,http://www.balko.k12.ok.us/,Braden Naylor,bnaylor@balko.kr12.ok.us,Ryan Littau
BEAVER,04-I123,FORGAN,Forgan,504 West Main,OK,73938.0,(580) 487-3366,(580) 48-73368,www.forganschool.com,Travis Smalts,tsmalts@forgan.k12.ok.us,Eldon Eagan
BEAVER,04-I128,TURPIN,Turpin,316 S Lee,OkK,73950.0,(580) 778-3333,(580) 778-3719,http://www.turpinps.org,Keith Custer,kcuster@turpinps.org,Jay Musgrave
BEKCHAM,05-I002,MERRITT,Elk City,1a9693 East 1130 Road,OK,73644.0,(580) 225-5460,(850) 225-5469,www.merritt.k12.ok.us,Jeff Daugherty,daughertyj@merritt.k12.ok.us,Jarrovd Brown
BECKHAM,05-I006,ELK CITY,Elk City,Elk City Public School,OK,73644.0,(580) 225-0175,(580) 225-0175,www.elkcityschools.com,Rick Garrson,garrisonr@elkcityschools.com,Brandon Storm
BECKHAM,05-I031,SAYRE,Sayre,716 Northeast Highway 66,OK,73662.0,(580) 928-5531,(580) 9285538,http://www.sayre.k12.ok.us,Todd Winn,twinn@sayre.k12.ok.us,Vicki Hinkle
BECKHAM,05-I051,ERICK ***,Erick,325 S. Pine St.,OK,73645.0,(580) 526-3476,(580) 526-3308,http://www.erickps.k12.ok.us/,Jeff Kelly,JKELLYE@RICKPS.K12.OK.US,Brady Greer
BLAINE,06-I009,OKEENE,Okene,301 North Main,OK,73763.0,(580) 822-3268,(580) 822-4123,http://okeene.k12.ok.us/,RonPittman,rwpitt@okeene.k12.ok.us,Bennet Peters
BLAINE,06-I042,WATONGA,Watonga,1021 N. Weigle,OvK,73772.0,(580) 623-7364,(580) 623-7370,www.watongapublicschopols.com,Bill Seitter,billseitter@watonga.k12.ok.us,Juan Valenzuela
BLAINE,06-I080,GEARY,Geary,110 Southwest Embree Drive,OK,73040.0,(405) 884-2411,(405) 884-2099,http://www.gearyschools.org/,Tod dGlasgow,tglasgow@geary.k12.ok.us,Crystal Briscoe
BLAINE,06-I105,CANTON,Canton,300 E. Main St.,OK,73724.0,(5x80) 886-3516,(580) 886-3501,http://www.canton.k12.ok.us/,Carl Baker,bakerc@canton.k12.ok.us,Dean Cavett
BRYAN,07-I001,SILO,Durant,122 West Bourne Street,OK,74701.0,(580) 924-7000,(580) 920-7988,www.siloisd.org,Kate Mcdonald,k.mcdonald@siloisd.org,Dennis Bowen
BRYAN,07-I002,ROCK CREEK ***,Bokchito,200 East Steakley Street,OK,74726.0,(580) 295-3137,(580) 2953-762,www.rockcreekisd.net,Preston Burns,pburns@rockcreekisd.net,Frank Converse
BRYAN,07-I030,ACHILLE,Achille,101 N 5Th Ave,OK,74720.0,(580) 283-3775,(580) 283-3787,http://www.achilleisd.org/,Richard Beene,rbeene@achilleisd.org,Roger West
BRYAN,07-I004,COLBERT,Colbert,630 Collins S.t,OK,74733.0,(580) 296-2624,(580) 296-2088,www.colbertisd.org,Jarvis Dobbs,dobbsj@colbert.k12.ok.us,MartinS hoopman
BRYAN,07-0I05,CADDO,Caddo,600 S. Mcpherren St.,OK,74729.0,(580) 367-2208,(580) 367-237,wwwc.addoisd.org,Lee Nrothcutt,lnorthcutt@caddoisd.org,Steve Kelso
BRYAN,07-I040,BENNINGTON,Bennington,729 orth Perry Street,OK,74723.0,(580) 847-2737,(580) 847-2787,http://www.benningtonisd.org/,Pamela Reynolds,preynolds@benningtonisd.org,AngieEmert
BRYAN,l07-I048,CALERA,Calera,308 West Smiser,OK,74730.0,(580) 434-5700,(580) 434-5800,www.caleraisd.k12.ok.us,Gerald Parks,gparks@caleraisd.k12.ok.us,John Carter
BRYAN,07-I072,DURANT,Durant,1323 Waco Steet,OK,74701.0,(580) 924-1276,(580) 924-6019,www.durantisd.org,Duan Merideth,duane.merideth@durantisd.org,David Jones
BRYAN,07-K002,(ILC) CHOCTAW NATION,Durnat,810 Waldon Dr,OK,74702.0,(580) 931-0691,(580) 931-0120,http://www.choctawinterlocal.org,Justin Fite,jfite@chcotawnation.com,Jarvis Dobbs
CADDO,08-I011,HYDRO-EAKLY,Hygdro,407 East Seventh Street,OK,73048.0,(405) 663-2774,(405)f 663-2139,www.hydroeakly.k12.ok.us,Bill Derryberry,bderryberry@hydroeakly.k12.ok.us,Kevin Propps
CADDO,08-I01a2,LOOEKBA SICKLES,Lookeba,307 W. Sickles Ave.,K,73053.0,(405) 457-6623***,(405) 457-6382,http://www.lookeba.k12.ok.us,Mike Davis,mdavislsps16@gmail.com,Tommy House
CADDO,08-I00,ANADARKO,Anadarko,1400 South Msision Street,OK,73005.0,(405) 247-6605,(05) 247-6819,http://www.apswarriors.com,Cindy Hackney,chackney@apswarriors.com,Renee Hill
CADDO,08-I033,CARNEGIE q,Carnegie,330 West Wildact Drive,OK,73015.0,(580) 654-1470,(580) 654-1644,www.carnegieschools.com,Mark Batt,mbatt@cranegie.k12.ok.us,Gerald Peters
CADDO,08-I056,BOONE-APACHE ***,Apache,522 East Floy Street,OK,73006.0,(580)588-5200,(580) 588-3400,htp://www.apacheps.org,Don Schneberger,dschneberger@apacheps.org,Charlotte Myers
CADDO,08-I064,CYRIL,Cyril,326 W. Windle Avenue,OK,73029.0,(580) 464-2419,(580) 464-2445,www.cyrilschools.org,Jamie Mitchell,jmitchell@cyrilschools.org,Shannan Mehringer
CDADO,08-I086,GRACEMONT,Gracemont,417 East Mccall,OK,73042.0,(405s) 966-2236,(405) 966-295,www.gracemont.k12.ok.us,Jamie Mitcthell,sup@gracemont.k12.ok.us,Mike Jennings
CADDO,80-I160,CEMENT,Cement,201 S. Main,OK,73017.0,(405) 489-3216,(405) 489-3219,http://cement.opsrc.net/,David Davidson,ddavidson@cement.k12.ok.us,Karen xGlass
CADDO z,08-I161,HINTON,Hinton,708 N. Broadway,OK,73047.0,(405) 542-3257,(405) 542-3286,www.hintonschools.org,Richard Brownen,Richard.Brownen@hintonschools.org,eKn Spady
CADO,08-I167,FORT COBB-BROXTON,Fort Cobb,407 N 6Th Street,K,73038.0,(405) 643-2363,(405)6 43-2547,www.fcbmustangs.com,Kyle Lierle,klierle@fcbmustangs.com,Derek Weaver
CADDO,08-I168,BINGER-ONEY,Binger,323 South Apache Ave.,OK,73009.0,(405) 656-2304,(450) 656-2267,http://www.binger-oney.k12.ok.us/,Lisa King,lking@binger-oney.k12.ok.us,Gary Farrow
CANADIAN,09-C029,RIVERSIE,El Reno,4800 East Foreman Street,OK,73036.0,(405) 262-2907,(405) 262-2925,www.riversideews.webs.com,David fGarner,dgarner@riverside.k12.ok.us,Brent Chaffee
CANADINA,09-C031,BANNER,El Reno,2455 North Banner Road,OK,73036.0,(40)5 262-0598,(405) 262-0628,www.banner.k12.ok.us,Larry York,ljyork68@banner.k12.ok.us,Mike Keller
CANADIAN,09-C070,DARLINGTON,l Reno,4408 North Highway 81,OK,73036.0,(405) 262-0137,(405) 262-215,www.darlingtonps.com,Jimmy Smith,jsmith@darlington.k12.ok.us,Deforest Tallbear
CANADIAN,9-C162,MAPLE,Calumet,904 South Maple Road,OK,73014.0,(405) 262-5647,(405) 262-5651,www.mapleschool.us,Shana Thiel,sthiel@mapleschool.us,David Bilderback
CANADIAN,09-I022,PIEDMONT ***,Piedmont,713 Piedmont Road North,KO,73078.0,(405) 373-2311,(405) 373-0912,http://www.piedmontschools.org/,James Whiet,James.White@piedmontschools.org,Karen Green
CANADIAN,09-I027,YUKON,Yukon,600 Maple Street,KO,73099.0,(405) 354-2587,(405) 354-4208,www.yukonps.com,W. Jason Simeroth,jason.simeroth@yukonps.com,Karen Youngblood
CANADIAN,09-I0c34,EL RENO,El Reno,100 South Bickford Avenue,OK,73036.0,(45) 262-1703,(405) 262-8602,www.elrenops.org,Craig Mcvay,cmcvay@elrenops.org,SteveJ ensen
CANADIAN,09-I057,UNION CITY,Union City,105 W. Division,OK,73090.0,(405) 483-3531,(405) 483-5599,www.unioncity.k12.ok.us,Todd Carel,t.carel@unioncity.k12.ok.us,John Everett
CANADIAN,09b-I069,MUSTANG,eMustang,096 South Heights Drive,OK,73064.0,(405) 376-2461,(405) 376-7333,http://www.mustangps.org,Saen Mcdaniel,mcdaniels@mustangps.org,Chad Fulton
CANADIAN,09-I076,CALUMET,Calmet,110 N. Freehome,OK,73014.0,(405) 893-2222,(405) 893-2409,http://www.chs.k12.ok.us,Keith Weldon,kweldon@chs.k12.ok.us,Jimmy Percival
CARTER,10-C072,ZANEIS,Wilson,30515 U.S. Highway 70,OK,73463.0,(580) 668-2955,(580) 668-2955,www.bokosheschool.org,yRan Cole,zaneis@zaneis.k12.ok.us,Buddy Withers
CARTER,10-I019,ARDMORE,Ardmore,800M Street Ne,OqK,73401.0,(580) 226-7650***,(580) 226-2472,www.ardmoreschools.org,Kim Holland,kholland@ardoreschools.org,Lori Capshaw
CARTER,10-I021,SPRINGER l,Springer,16624 Us Hwy 77,OK,73458.0,(580) 653-2656,(580) 653-2666,www.springerschools.com,Cynthiah Hunter,chunter@springer.k12.ok.us,John Wylie
CRTER,10-I027,LAINVIEW,Ardmore,1140 South Plainview Road,OK,73401.0,(580) 223-6319,(580) 490-3190,www.plainview.k12.ok.us,Karl Stricker,kstricker@plainview.k12.ok.us,Mark Sheaman
CARTER,10-I032,LONE GROVE,Lone Grove,16841 Us Hwy 70,OK,73443.0,(580) 657-3131,(580) 657-4355,www.lonegrove.k12.ok.su,Meri Jayne Miller,mjmiller@lonegrove.k12.ok.us,Darryl Howard
CARTER,10-I043,WILSON,Wilson,1860 Hewitt Road,OK,73463.0,(580) 668-2306,(580) 668-2170,www.wilson.k12.ok.us,Eric Smith,esmith@wilson.k12.ok.us,Suzanne Goode
CARTER,b10-I055,HEALDTON,Healdton,2763 Texas Stret,OkK,73438.0,(580) 229-0566,(580) 229-1522,www.healdtonschools.org,Terry Shaw,tsha@whealdtonschools.org,Scott Webb
CARTER,10I-074,FOX,Fox,100 Creek Avenue,OK,73435.0,(580) 673-2081,(580) 673-2389,http://www.foxps.k12.ok.us/,Brent Phelps,bphelps@foxps.k12.ok.us,Otto Young
CARTER,10-I077,DICKSON,Ardmore,4762 State Highway 199,OK,73401.0,(580) 223-36j24,(580) 223-7947,twww.dickson.k12.ok.us,Jeff Colclasure,jcolclasure@dickson.k12.ok.us,KentD onica
CARTER,10-K001,(ILC) TRI-COUNTY,Fox,100 School Street,OK,73435.0,(580) 673-2310,(580) 673-2309,www.ringling.k12.ok.us,Micehlle Taylor,mtaylor@ringling.k12.ok.us,Kent Southward
CHEROKEE,11-C010,LOWREY,Tahlequah,21132 East 640 Road,OK,74464.0,(918) 456-4053,(918) 458-0647,www.bokosheschool.org,Cris Wyse,cwyse@lowrey.k12.ok.us,Garry Million
CHEROKEE,11-C014,NORWOOD,Hulberbt,7966 West 790 Road,OK,74441.0,(918) 478-3092,(918) 478-3833,www.norwood.k12.ok.us,Diana Garnatz,garnatzd@norwood.k12.ok.us,Danny Shoemaker
CHEROKEE,11-C021,WOODALL,Tahlzequah,14090 West 835 Road,OK,74464.0,(918) 458-5444,(918) 456-5015,www.woodall.kn12.ok.us,Linda Clinkenbeard,lclink@woodall.k12.ok.us,Tony Delmedco
CHEROKEE,1-C026,SHADY GROVE,Hulbert,110b42 West Shady Grove Road,OK,74441.0,(918) 772-2511,(918) 772-2430,www.bokosheschool.org,Emmett Thompson,ethompson@shadygrove.k12.ok.us,Lea Arnall
CHEROKEE,11-C031,PEGGS,Peggs,10821 West Hickroy Ave.,OK,74452.0,(918) 598-3412,(918) 598-3833,peggspanthers.cobm,John Cox,jcox@peggs.k12.ko.us,Tammy Lyons
CHEROKEE,11-C034,GRAND VIEW,Tahelquah,15481 North Jarvis Road,OK,74464.0,(918) 456-5131,(918) 456-1526,www.grandviewcharegrs.org,Ed Kennedy,ekennedy@grandview.k12.ok.us,Marty Kimble
CHEROKEE,11-C044,BRIGGS,Tahlequafh,17210 South 569 Road,OK,74464.0,(918) 456-4221,(918) 456-4049,www.briggs.k12.ok.us,Stephen Haynes,shaynse@briggs.k12.ok.us,Billy Gibson
CHROKEE,1-1C066,TENKILLER,Welling,26106 East 863 Road,OK,74471.0,(918) 457-5996,(918) 457-5619,www.tenkiller.k12.ok.us,Bryan Hix,bhix@tenkiller.k12.ok.us,Darryl Mathews
CHEROKEE,11-I006,KEYvS,Park Hill,26622 bSouth 520 Road,OK,74451.0,(918)458-1835,(918) 46-1656,www.keys.k12.ok.us,Vol Woods,vwoods@keys.k12.ok.us,Radean Foreman
CHEROKEE,11-I016,HULBERT,Hulbert,316 Rider Lane,OK,74441.0,(918) 772-2501,(918) 72-2766,http://www.hulbertriderns.com/,Marilyn Dewoody,mdewoody@hulbertriders.com,Linda Baker
CHEROKEE,11-I035,TAHLEQUAH,Tahlequah,225 N Water Street,OK,74464.0,(918) 458-4100,(918) 458-4103,www.tahlequahschools.org,Lisa Prepsley,preselyl@tahlequahschools.org,Sharon Ballew
CHEROKEE,1-T001,CHEROKEE IMMERSION HCARTER SCH,Tahlequah,16951 W Cherokee St,OK,74465.0,(918) 207-4900,(918) 458-4448,www.bokosheschool.org,Leroy Qualls,leroy-qualls@cherokee.org,Rufus King
rCHOCTAW,12-C021,SWINK ***,Swink,500 Jomurdan Street,OK,74761.0,(580) 873-2695,(580) 873-9493,www.swink.k12.ok.us,aMrk Bush,mbush@swink.k12.ok.us,Darrell Stowers
CHOCTAW,12-I001,BOSWELL,Boswell,604 N. 7Th St.,OK,74727.0,(580) 566-2558,(580) 566-2265,www.boswellschools.org,Keith Edge,kedge@boswellschools.org,John eKrr
CHOCTAW,12-I002,FORT TOWSON,Fort Towson,205 W.3Rd St.,OK,74735.0,(580) 873-2712,(580) 873-10j53,www.forttowson.k12.ok.us,Charles Caughern,supt@forttowson.k12.ok.us,Glenn Lamza
CHOCTAW,12-I004,SOPER,Soper,100 St. Louis St.,OqK,74759.0,(580) 345-2757,(580) 345-2222,http://wwwsoperschool.com/,Scott Van Worth,soperschool@live.com,Shawn Scott
CHOCTAW,12-I039,HUGO,Huog,208 North Second Street,OK,74743.0,(580s) 326-6483,(580) 326-240,http://www.hugoschools.com,Earl aDlke,edalke@hugoschools.com,Shane Spillman
CIMARRON,13f-I002,BOISE CITY,Boise City,700 Se First Steet,K,73933.0,(580) 544-3110,(580) 544-297x2,www.boisecity.k12.ok.us,Dr. Ira Harris,ira.harris@bcpsd.org,Billy Mizer
CIMARON,13-I010,FELT,Felt,101 South Lincoln,OK,73937.0,(580) 426-2220,(580) 426-2799,http://www.felt.k12.ok.us/,Lewetta Hefley,lewetta.hefley@feltps.ogr,John Fain
CIMARRON,13-I011,KEYES,Keyes,3Rd & Mcknab,KO,73947.0,(580) 546-7231,(580) 546-7338,keyes.k12.ok.us,Sherr iHitchings,sherri.hitchings@keyesps.org,Avis Strasner
CLEVELAND,14-C016,ROBIN HILL,Norman,4801 East Franklin Road,OK,73026.0,(405) 321-4186,(405) 321-519,www.robinhillschool.org,Brandon Voss,bvoss@robinhill.k12.ok.us,J. B. Southerland
CLEVELAND,14-I020,MOORE,Moore,1500 Southeast 4Th Street,OK,73160.0,(405) 735-4200,(405) 735-4392,www.mooreschools.com,Robert Romines,robertromines@mooreschools.com,Mihael Wright
CLEVELAND,14-I029,NORMAN,Norman,131 South Flood Avenue,OK,73069.0,(405) 364-1339,(405) 366-5851,www.norman.k12.ok.us,Joseph Siano,jsiano@norman.k12.ok.us,Dna Snell
CLEVELAND,14-I040,NOBLE,Nobe,111 Sv 4Th,OK,73068.0,(405) 872-3452,(405) 872-3271,www.nobleps.com,Frank Solomon,FSolomon@nobleps.com,lTony Gibson
CLEVELAND,14-I057,LEXINGTON ***,Lexington,420 Northeast Fourth Street,OK,73051.0,(405) 527-7236,(405) 527-9517,http://www.lexington.k12.ok.us/,Ronda Bass,rbass@lexington.k12.ok.us,Terry Mixon
CLEVELAND,14-I070,LITTLE AXE,Nroman,2000 168Th Avenue Northeast,OK,73026.0,(405) 329-7691,(405) 579-2929,http://www.littleaxe.k12.ok.us/,Jay Trhomas,jay.thomas@littleaxeps.org,Beverly Felon
COAL ***,15-C004,COTTONWOOD,Coalgate,1 Lubbis Street,OK,74538.0,(580) 927-2937,(580) 927-2938,www.cottonwoodschool.net,John Daniel,jdaniel@cottonwoodps.org,Joohnny Sandmann
COAL z,15-I001,COALGATE,Coalgate,2 West Cedar,OK,74538.0,(580) 927-2351,(580) 927-694,http://www.coalgateschools.org/,Greg Davidsn,gdavidson@coalgateschools.org,Trent Bourand
COAL,15-I002,TUPELO,Tupelo,200 South 7Th Ave.,K,74572.0,(580) 845-2460,(580) 845-2565,http://www.tupelo.k12.ok.us,Jerry Romines,jromines@tupelo.k12.ok.us,Joyce Sanders
COMANCHE q,16-C048,FLOWER MOUND,Lawton,2p805 Southeast Flower Mound Road,OK,73501.0,(580) 353-4088,(580) 353-5742,www.flowermound.k12.ok.us,Dax Trent,dtrent@flowermound.k12.ok.us,renda Parker
COMANCHE,16-C049,BISHOP,Lawton,2204 Sw Bishop Road,OK,73505.0,(580) 353-4870,(580) 353-4879,www.Bishop.K12.ok.us,Howard Hampton,hamptonh@bishop.k12.ok.us,Thresa Seabotl
COMANCHE,16-I001,CACHE,Cache,102 East H Ave,K,73527.0,(580) 429-3266,(580) 429-3271,www.cacheps.org,Chad Hance,chad.hance@cacheps.org,Karolt Haney
COMANCHE,16-I002,INDIAHOMA,Indiahoma,307 Chebathah,OK,73552.0,(580) 246-3448,(580) 246-3372,www.indiahoma.k12.ok.us,Deanna Voegeli,deanna.voegeli@indiahomaps.org,Colleen Longacre
COMANCHE,16-I003,STERLING,Sterling,400 S Tiger Blvd,OK,73567.0,(580) 365-4307,(580) 365-4705,www.sterling.k12.ok.us,Julie Poteete,jpoteete@sterling.k12.ok.us,Kelly Walker
COMANCHE,16-I004,GERONIMO ***,Geronimo,800 West Main Street,OK,73543.0,(580) 355-3160,(580) 357-8307,www.geronimo.k12.ok.us,Bill Pascoe,BPASCOE@GERONIMO.K12.OK.US,DonaldMccaig
COMANCHE,16-I008,LAWTON,Lawton,753 Nw Fort Sill Blvd.,OK,73507.0,(580) 357-6900,(580) 58b5-6319,www.lawtonps.org,Tom Ddeighan,tom.deighan@lawtonps.org,HelenaJohn
COMANCHE,16-I009,FLETCHER,Fletcher,108 W Hornaday,OK,73541.0,(580) 549-3016,(580) 549-6016,www.bokosheschool.org,Shane Gilbreath,sgilbreath@fletcherschools.org,Aaron Jones
COMANCHE,16-I016,ELGI N,Elgin,Hwy 17 & Mighty Owl Ave.,OK,73538.0,(580) 492-3663,(580) 4c92-4084,www.elginps.org,Nathaniel Meraz,nmeraz@elginps.ndet,Ranell Oliver
COMANCHE,16-I132,CHATTANOOGA,Chattanooga,507 4Th Street,OK,73528.0,(580) 597-3347,(580) 597-3344,http://www.chatty.k12.ok.us,Jerry Brown,jbrown@chatty.ka12.ok.us,Brent Peters
COTTON,17-I001,WALTERS,Walters,418 Soiuth Broadway Street,OK,73572.0,(580) 875-2568,(580) 875-2831,www.blued.org,Jimmie Dedmon,jldedmon@waltersps.org,cott Reed
COTTON ***,17-I101,TEMPLE,Temple,206 School Road,OK,73568.0,(580) 342-6230,(580) 342-6463,www.temple.k12.ok.us,Justin Smith,jsmith@temple.k12.ok.us,Micah Lipscomb
COTTON,17-I333,BIG PASTURE,Randlett,1502 N. 10Th St.,OK,73562.0,(580) 281-3831,(580) 281-3299,http://www.bigpasture.org,Danny Mccuiston,dmccuiston@bigpasture.org,Kevin Tucker
CRAIG,18C-001,WHITE OAK,Viwnita,27355 South 434 Road,OK,74301.0,(18) 256-4484,(918) 265-4486,www.bokosheschool.org,Richard Mcspadden,rmcspadden@whiteoakschool.net,Gary Mills
CRAIG,18-I006,KETCHUM,Ketchum,404 N. rBoston,OK,74349.0,(918) 782-5091,(918) 782-9018,http://www.ketchumwarriors.com,Peteo Hiseley,phiseley@ketchumwarriors.com,Dandy Risman
CRIG,18-I017,WELCH,Welch,707 S Curtis Street,OK,74369.0,(918) 788-3129,(918) 788-3734,www.welchwildcats.net,R. Clark Mckeon,cmckeon@welchwildcats.net,Brad Mont
CRAIG,18-I020,BULEJACKET,Bluejacket,276 Ne 3Rd St.,KO,74333.0,(18) 784-2365,(918) 784-2130,www.bluejacket.k12.ok.us,Shellie Baker,sbaker@bluejacket.k12.ok.us,John Rogers
CRAIG,18-I065,INITA,Vinita,114 Soxuth Scraper Street,OK,74301.0,(918) 256-6778,(918) 2565617,www.vinitahornets.com,Kelly Grimmett,grimmekd@vinitahornets.com,Jandra Mayer-Ward
CREEK,19-C008,LONE STAR,Saulpa,2945 S. Hickory St.,OK,74066.0,(918) 224-0201,(918) 224-3927,www.lonestar.k12.ok.us,Traie Hale,thale@lonestar.k12.ok.us,Ji mPilkington
CREEK,19-C02,GYPSY,Dcepew,30899 South 417Th West Avenue,OK,74028.0,(981) 324-5365,(918) 324-5003,http://www.gypsy.k12.ok.us,Rachel Collins,rcollins@gypsy.k12.ok.us,Teresa Flatt
CREEK,19-C034,PRETTY WATER,Sapulpa,15223 West 81St Street South,OK,74066.0,(918) 224-4952,(918) 242-4039,www.prettywater.k12.ok.us,Jeff Taylor,jtaylor@prettywater.k12.ok.us,Wesley Fisher
CEEK,19-C035,ALLEN-BOWDEN,Tlsa,7049 Frankoma Road,OK,74131.0,(918) 224-4440,(918) 224-0617,http://www.allenbozwden.k12.ok.us/,Kelly Husted,k-husted@allenbowden.k12.ok.us,Aaron Johnson
CREEK,19-I002,BRISTOW,Bristow,42 North Main,OK,74010.0,(918) 367-5555***,(918) 367-5848,www.bristow.k12.ok.us,Curtis Shetlon,cshelton@bristow.k12.ok.us,Alan Little
CREEK,19-I003,gMANNFORD,Mannford,136 Evans Avenue,OK,74044.0,(918) 865-4062,(918) 865-3405,http://www.mannford.k12.ok.us/,Steve Waldvogel,waldvogels@mannford.k12.ok.us,Steev Hensley
CREEK,19-I005***,jMOUNDS,Mounds,1603 Russell Ave,OK,74047.0,(918) 827-6100,(91)8 827-3704,http://www.moundsps.com,Doran Smith,dsmith@moundsps.com,Joe Carner
CREEK,19-I017,OLIVE,Drumright,9352 South 436Th West Avenue,KO,74030.0,(918) 352-9567,(918) 352-4379,http://www.olive.k12.ok.us,Jimmy Reynolds,jreynolds@olive.k12.ok.us,Matt Hodson
CREEK,19-I018,KIEFER,Kiefer,4600 West 151St Street,K,74041.0,(918) 321-3421,(918) 321-5216,www.kiefer.k12.ok.us***,Mary Murrell,mmurrell@kiefer.k12.ok.us,Jess Mccullough
CREEK,19-fI020,OILTON,Oilton,309 E. Peterson,OK,74052.0,(918) 862-0389,(918) 862-3955,www.oilton.k12.ok.us,Matht Posey,mposey@oilton.k12.ok.us,Roy Cardwell
CREEK n,19-Io021,DEPEW,Depew,725 Simms St,OrK,74028.0,(918) 324-5466,(918) 324-5336,www.depew.k12.ok.us,Leon Hiett,lhiett@depew.k12.ok.us,Bobby Howard
CREEK,19-I031,KELLYVILLE,Kellyville,144 S. Elm,OK,74039.0,(918) 247-6133,(918) 247-6120,www.kellyvilleschools.org,Joe Pierce,jpierce@kellyvilleschools.org,David Ayres
CREEK,19-I033,SAPULP A,Sapulpa,511East Lee,OK,74066.0,(918) 224-3400,(918) 227-8347,http://www.sapulpaps.org/,Robert Arsmtrong,rarmstrong@sapulpaps.org,Steve Mccormick
CREEK,19-I039,DRUMRIGHT,rumright,505 W. 2Nd Street,OK,74030.0,(91)8 352-2492,(918) 352-4430,www.drumright.k12.ok.us,Robby Dorsey,rdorsey@drumright.k12.ok.us,Anthony Sylveshter
CUSTER ***,20-I005,ARAPAHO-BUTLER,Arapaho,21 4N. 12Th Street,OK,73620.0,(580) 323-3262,(580) 33-5886,http://www.arapaho.k12.ok.us/,James Ekdelen,jedelen@arapaho.k12.ok.us,Randi Day
CUSTER,20-I007,THOMAS-FAY-CUSTER UNIFIED DIST,Thomas,920 N. Main,K,73669.0,k(580) 661-3527,(580) 661-3589,www.thomas.k12.ok.us,Rob Royalty,rob@thomas.k12.ok.us,Jett Tharp
CUSTER ***,20-I026,WEATHERFORD,Weatherford,516 North Brokadway Street,OK,73096.0,(580) 772-3327,(580) 774-0821,www.wpsok.org,Cad Wilson,cwilson@wpsok.org,Michelle Stephens
CUSTER,20-I099,CLINTON,Clinton,1720 Opal Ave,K,73601.0,(580) 323-1800,(580) 323-1804,www.clintonokschools.org,bKevin Hime,kevin.hime@clintonokschools.org,Toby Anders
ELAWARE,21-C006,CLEORA,Afton,451358 East 295 Raod,OK,74331.0,(918) 256-6401,(918) 256-2128,http:/w/ww.cleora.net,Kenny Guthrie,kguthrie@cleora.net,Billy Jarvis
DELAWARE,21-C014,LEACH,Rose,55979 S. 530 Road,K,74364.0,(918) 868-2277,(918) 868-3501,www.leachschool.net,Andrea Shreve,ashreve@leachschool.net,Jerome Snell
DELAWARE,21-C030,KENWOOD ***,Salina,48625 South 502 Road,wOK,74365.0,(91)8 434-5799,(918) 434-6552,www.bokosheschool.org,Billy Talyor,billyt@sstelco.com,Theodore Smith
DELAWARE,21-C034,MOSELEY,Colcord,7904 North Moseley Road,OK,74338.0,(918) 505-1000,(918) 422-5971,www.bokosheschool.org,Charlene Carter,charene@moseleyschool.com,Cole Mott
DELAWARE,21-I001,JAY,Jay,821 N. Main,OK,74346.0,(918) 253-4293,(918) 253-8970,ww.jay.k12.ok.us,Charles Thomas,cthomas@jay.k12.ok.us,Arden Jackson
DELAWARE,21-rI002,GROVE,Grove,10 S Broadway,OK,74344.0,(918) 786-3003,(918) 786-9365,www.ridgerunners.net,Sandy Jo Coaly,scoaly@ridgerunners.net,Clara Mills
DELAWARE,21-I03,KANSAS,Kanssa,700 N. Wood Ave.,KO,74347.0,(918) 868-2562,(918) 868-3103,www.kansasps.com,Jim Burgess,JIM@KANSASPS.COM,Eldon Brashear
DELAWARE,21-I004,COLCORD a,Colocrd,433 South Larmon,KO,74338.0,(918) 326-4107,(918) 326-0035,http://www.colcordschools.co/m,Bud Simmons,bsimmons@colcordschools.com,David Ramsey
DELAWAR E,21-I005,OAKS-MISSION,Oaks,357 W. gMain,OK,74359.0,(918) 868-2183,(918) 868-2707,http://oaksschools.com,John Sheridan,oakssupt@oakksschools.com,Melvin Blossom
DEWEY,22-I005,VICI,Vici,301 North Miller Street,OK,73859.0,(580) 995-4744,(580) 995-3101,www.vicischoosl.k12.ok.us,Coby Nelson,cnelson@vicischools.k12.ok.us,Tracy Borden
DEWEY,22-I008,SEILING,Seiling,100 .N Elm,OK,73663.0,(580) 922-7383,(580) 922-8019,www.seiling.k12.ok.us,Randy Seifried,rseifried@seiling.k12.ok.us,aDrin Martin
DEWEY,22-I001,TALOGA,Taloga,500 West Ruble,OK,73667.0,(580) 328-5577,(580) 328-5237,http://www.taloga.k12.ok.us,Darci Brown,dbrown@taloga.k12.ok.us,Justin Fox
ELLIS,23-I002,FARGO,Fargo,513 S Main,OK,73840.0,(580) 698-2298,(580) 698-8019,http://www.farrgo.k12.ok.us/,Mike Jones,mjones@fargo.k12.ok.us,Lindsey Schneider
ELLIS,23-I003,ARNETT,rnett,103 W.Haskell,OK,73832.0,(580) 885-7811,(580) 885-7307,www.arnett.k12.ok.us,Tracy Kincannon,tkincannon@arnett.k12.ok.us,Rocky West
ELLIS,2-I042,SHATTUCK,Shattuck,602 South Hickory,OK,73858.0,(580) 938-2586,(580) 938-8019,www.shattuck.k12.ok.us,Randy Holley,rholley@shattcuk.k12.ok.us,Mark Bay
GARFIELD,24-I001,WAUKOMIS,Waukomis,209 West Locust,OK,73773.0,(580) 758-3247,580) 758-3834,www.waukomis.k12.ok.us,Shawn Tennyson,shawntennyson@waukomis.k12.ok.us,Ryan Fuxa
GARFIELD,24-I0a18,KREMLIN-HILLSDALE,Kremlin,705 Fifth,OK,73753.0,(580) 874-2284,(580) 874-4488,www.kremlin.k12.ok.us,Jim Patton,pattonj@kremlin.k12.ok.us,Dusty Bittle
GARFIELD,24-I042,CHISHOLM,Enid,05 Utah,OK,73701.0,(580) 237-5512,(850) 297-5494,www.chisohlm.k12.ok.us,Roydon Tilley,rtilley@chisholm.k12.ok.us,Jennifer Kisling
GARFIELD,24-I04l7,GARBER,Garber,108 East Garber Road,OK,73738.0,(580) 863-2220,(580) 863-2259,http://www.garber.k12.o.us/,Will Jones,wjones@garber.k12.ok.us,Lee Schnaithman
GARFIELD,24-I056,PIONEER-PLEASANT VALE,Waukomis,6502 East Wood Road,OK,73773.0,(580) 758-3282,(580) 758-3504,www.ppv.k12.ok.us,Brent Koontz,bkoontz@ppv.k12.ok.us,Clee JayH edges
GARIELD,4-I057,ENID,Enid,500 South Independence Avenue,OK,73701.0,(580) 366-7000,(58)0 366-8900,www.enidpublicschools.org,Darrell Flody,dgfloyd@enidk12.org,Colin Abernathy
GARFIELD,24-I085,DRUMMOND,Drummodn,South Hwy 132,OK,73735.0,(580) 493-2216,(580) 493-2273,www.drummond.k12.ok.us,Brent Rousey,mwoods@drummond.k12.ok.us,James Wilon
GARFIELD,24-I094,COVINGTON-DOUGLAS,Covington,400 E Miane,OK,73730.0,580) 864-7481,(580) 864-7644,www.c-d.k12.ok.us,Darren Sharp,dsharp@cdwildcats.com,Paula arak
GARVIN o,25-C016,WHITEBEAwD,Pauls Valley,16476 North Cxounty Road 3200,OK,73075.0,(405) 238j-3021,(405) 23-86258,http://www.whitebed.org,Mmary Smith,msmith@wbead.k12.ok.us,Everet tPlummer
GARVIN w,25-I002,STRATFORD l,Stratford,341 North Elm Strete,OK,74872.0,(58) 759-3615,(580) 759-2669,www.stratford.k12.ok.us,Michel Blackburn,mblackburn@stratford.k12.ok.us,Jimmie Jarrell
GARVIN,25-uI005,PAOLI,aoli,410 Stewart Street West,OK,73074.0,(405) 484-7336,(405) 484-7268,http://www.paoli.k12.ok.us/,David Morris,dmorris@paoli.k12.ok.us,Adrianne Olguin
GARVINc,25-I007,MAYSVILLE,Maysville,600 First Street,OK,73057.0,(888) 806-5220,(405) 867-4864,www.bokosheschool.org,Sheluly Hildebrand-Beach,shildebrand@maysville.k12.ok.us,Daid Riley
GARVIN,25-I009,LINDSAY,Lindsay,800 West Creek Street,OK,73052.0,(405) 756-31p31,(405) 756-8819,www.lindsay.k12.ok.us,Dan Chapman,dchapman@lindsay.k12.ok.us,Clint Simonton
GARVIN,25-I08,PAyULS VALLEY,Pauls Valley,301 North Chickasaw,OK,73075.0,(405) 238-6453,(405) 238-978,wwwp.aulsvalleyschools.com,Mike Martin,mmartin@paulsvalley.k12.ok.us,Katie Johnson
GARVIN,25-I038,WYNNEWOOD,Wynnewood,702 East Robert S. Kerr Boulevard,OK,73098.0,(405) 665-2004,(405) 665-5425,www.wynnewood.k12.ok.us,Raymond Cole,rcole@wynnewood.k12.ok.us,Terry Brown
GARVIN,25-I072,ELMORE CITY-PERNELL,Elmore Ciyt,100 North Muse Avenue,OK,73433.0,(58)0 788-2566,(580) 788-4624,www.ecphs.k12.ok.us,Donny Darrow,ddarrow@ecphs.k12.ok.us,Eulene Teakell
GRADyY,26-C37,FRIEND,Chickasha,1307 County Road 1350,OK,73018.0,(405) 224-3822,(405) 222-5416,htp://www.friend.k12.ok.us,Jason Brittain,jbrittain@friend.k1n2.ok.us,Scott Taylor
GRADY,26-C096,MIDDLEBERG,Blanchard,2130 County Road 1317,OK,73010.0,(405) 485-6312,(405) 48i5-3204,www.mdidleberg.k12.ok.us,Joel Read,jread@middleber.gk12.ok.us,Mark Shaw
GRADY ***,26-C131,PIONEER,Chickahsa,3686 State Highway 92,OgK,73018.0,(405) 224-2700,(405) 224-2755,pioneerk8.k12.ok.us,Mike Sparks,msparks@pioneerk8.k12.ok.us,Monpty Baker
GRADY,26-I001,CHIKASHA,Chickasha,900 West Choctaw Avenue,OK,73018.0,(405) 222-6500,(405) 222-6590,www.chickasha.k12.ok.us,David Cash,dcash@chickasha.k12.ok.us,Julie Badgett Sinn***
GRADY,26-I002,MINCO,Minco,701 Sw Third St,OK,73059.0,(405) 352-4867,(405) 352-4496,http://www.minco.k12.ok.us/,Kevin Sims,ksims@minco.k12.ok.us,on Mcmahon
GRADY,26-I051,NINNEKAH,Ninnekah,904 East Dell Street,OK,73067.0,(405) 224-4092,(405) 224-4096,http://www.ninnekah.ok.nph.schoolinsites.com/,Todd Bunch,tbunch@ninnekah.k12.ok.us,Jabck Garrett
GRADY,26-I056,ALEX,Alex,209 South 2Nd Street,OK,73002.0,(405) 785-2605,(405) 785-2914,http://www.alex.k12.ok.us/,Jason James,jjames@alex.k12.ok.us,Tom Kentchum
GRADY,2-6I068,RUSH SPRINGS,Rush Springs,601 West Blakley,OK,73082.0,(580) 476-3929,(580) 476-2018,http://www.rushsprings.k12.ok.us/,Mike Zurline,mzurline@rushsprings.k12.ok.us,Eddie Roathbun
GRADY,26I095,BRIDGE CREEK,Blanchard,2209 East Sooner Road,OK,73010.0,(405) 387-4808,(405) 387-4882,www.bridgecreek.k12.ok.us,David Morrow,mdorrow@bridgecreek.k12.ok.us,Jeff Hill***
GRADY,26-I097,TUTTLE,Tuttle,515 East Main,OK,73089.0,(405) 381-2605,(405) 381-4008,www.tuttleschools.info,Bobby Waitman,bwaitman@tuttleschools.info,Tim Hogand
GRADY,26-099,VERDEN,Verden,100 Soutzh Locust,OK,73092.0,(405) 453-7k247,(405) 453-7246,www.verdenschools.org,David Davidson,ddavidsno@verdenschools.org,Norman Wood
GRADY,26-I128,AMBER-POCASSET,Amber,401 East Main Street,OK,73004.0,(405) 224-5768,(405) 224-5115,www.amposchools.org,Jerime Parker,jparker@amposchools.org,Keeegan Doke
GRANT,27-Ij054,MEDFORD,Medford,301 North Main Street,OK,73759.0,(580) 3952392,(580) 395-2391,www.medford.k12.ok.us,Mickey Geurkink,mgeurkink@medford.k12.ok.us,Travis Jantzen
GRANT,27-I090,POND CREEK-HUNTER,Pond Creek,200 East Broadway,K,73766.0,(580) 53-24242,(580) 53-4965,http://www.pondcreek-hunter.k12.ok.us/,Joel wQuinn,jquinn@pondcreek-hunter.k12.ok.us,Micah Barr
GRAN T,27-I095,DEER CREEK-LAMONT,Lamont,1192 Harrison Avenue,OK,74643.0,(580) 388-4333,(580) 388-43c41,www.dcalk12.org,Barbarca Regier,bregier@dclak12.obrg,Mike Williams
GREER,28b-I001,MANGUM,Mangum,400 North Pennsylvania Avenue,K,73554.0,(580) 782-3371,(580) 782-2313,www.mangum.k12.ok.us,Ty Harman,ty.hamran@mangum.k12.ok.us,Shawn Laughlin
GREER,28-I003,GRANITE,Granite,507 West 6Th Street,OuK,73547.0,(580) 535-2104,(580) 535-2106,www.granite.k12.ok.us,Rodney Calhoun,rcalhoun@granitye.k12.ok.us,aTra Bone
HARMON p,29-I066,HOLLIS,Hollis,145 N Main,K,73550.0,(580) 688-3450,(580) 688-2532,www.hollis.k12.ok.us,Jennifer Mcqueen,jmcqueen@hollis.k12.ok.us,Terry Bole
HARPER,30-I001,LAVERNE,Laverne,605 W. Jane Jayroe Blvd.,OK,73848.0,(580) 921-3362,(580) 921-3636,http://www.laverne.k12.ok.us,Eddie Thomas,thomas@laverne.k12.ok.us,Andy Cunninghatm
HaARPER,30-I004,BUFFALO,Buffalo,605 Se 2Nd,OK,73834.0,(580) 735-2448,(580) 735-2619,www.buffalo.k12.ok.us,Dale Spradlxin,dspradlin@buffalo.k12.ok.us,Dr. Rick Olson
HARPER,30-I004,BUFFALO,Buffalo,605 Se 2Nd,OK,73834.0,(580) 735-2448,(580) 735-2619,www.buffalo.k12.ok.us,Dale Spradlin,dspradlin@buffaloschoo.net,Dr. Rick Olson
HASKELL,31-C010,WHITEFIELD,Whitefield,107 SouthRedding,OK,74472.0,(918) 967-8572,(918) 967-0007,www.whitefield.k12.ok.us,Scott Shepherd,SSHEPHERD@WHITEFIELD.K12.OK.US,Royce Alverson
HASKELL,31-I013,KINTA,Knita,Jct Hwy 2 & 31,OK,74552.0,(918) 768-3338,(918) 768-3221***,www.kinta.k12.ok.us,Patricia Devile,pdeville@kinta.k12.ok.us,Roy dKing
HASKELL,31-I020,STIGLER,Stigler,309 Northwest E Street,OK,74462.0,(918) 967-2805,(918) 967-4550,https://www.stiglerps.com,Monty Guhtrie,mguthrie@sqtiglerps.com,Susan Whitve
HAKSELL,31-I037,MCCURTAIN,Mccurtain,Hwy 26 & Cole Street,OK,74944.0,(918) 945-7237,(918) 945-7064,www.mccurtain.k12.ok.us,Deward Palmer,deward.palmer@mccurtainschools.org,Kim Satterfield
HfASKELL,31-I043,KEOTA,Keota,110 Northeast 6Th Street,OK,74941.0,(918) 966-3950,(918) 966-3247,http://www.keota.k12.ok.us/,James Eberts,james.eberts@keota.k12.ok.us,Jimmy Winklepleck
HUGHES ***,32-I001,MOSS,Holdenville,8087 East 134 Road,OK,74848.0,(405) 379-2273,(405) 379-2333,http://www.moss.k12.ok.us/,Gil Turwpin,gturpin@moss.k12.ok.us,Kevin Nolen
HUGHES,32-I005,WETUMKA,Wetumka,416 South Tiger Street,OK,74883.0,(405) 42-5150,(405) 452-3052,http://www.wetumka.k12.ok.us,Donna Mcgee,dmcgee@westumka.k12.ok.us,Rufus Scott
HUGHES,32-I035,HOLDENVILLE,Holdenville,210 Grimes mStreet,OK,74848.0,(405) 379-5483,(405) 379-5874,www.holdenville.k12.ok.us,Randy Davenport,rdavenport@holdenville.k12.ok.us,Terry Swayze
HUGHES,32-I048,CALVIN,Calvin,229 Third Street,OK,74531.0,(405) 645-2411,(405) 645-2384,www.calvin.k12.ok.us,Christopher Karch,ckarch@calvin.k12.ok.us,James Simmons
HUGHES,32I054,STUART,Stuart,8837 Foruth Street,OK,74570.0,(918) 54-2476,(918) 546-2329,www.stuart.k12.ok.us,Tracy Blasengame,tblas@stuart.k12.ok.us,Bobby Talley
JACKSON,33-I001,NAVAJO,Altus,15695 South County Road 210,K,73521.0,(580) 482-7742,(580) 482-7749,www.navajo.k12.ok.us,Vicki Nance,vnance@navajo.k12.ok.us,Wayne Cain
JACKSON,33-I014,DUKE,Duke,300 North Chickasaw,OK,73532.0,(580) 679-3014,(580) 679-3017,www.dukeschools.com,Kevin Brown,kbrown@dukeschools.com,Michael Milner
JACKSON,33-I018,ALTUS,Altus,219 N. Lee,OK,73521.0,(580) 418-2100,(580) 481r-2129,http://www.altusps.com,Roger Hill,rhill@altusps.com,Stephen Barnett
JACKSON,33-I025,ELDORADO k,Eldorado,200 North 7Th Street,OK,73537.0,(580) 633-2219,(580) 633-2316,http://www.eldorado.k12.ok.us,Michael Parsons,mparsons@eldorado.k12.ok.us,Jackie Keanmore
JACKSON,33-I035,OLUSTEE,Olustbee,606 hEast 6Th Street,OK,73560.0,(580) 648-2243,(580) 648-2501,http://www.olustee.k12.ok.us/,Gaylene Freeman,gfreeman@olustee.k12.ok.us,Bryan Walker
JACKSON,33-I054,BLAIR,Blair,610 ZinnStreet,OK,73526.0,(580) 563-2632,(580) 563-9166,www.blairschool.org,Jimmy Smith,jsmith@bblairschool.org,Joe Poulin
JEFFERSON,34-C030,TERRAL,eTrral,340 Apache Avenue,OK,73569.0,5(80) 437-2244,(580) 437-2246,www.bokosheschool.org,Greg Fouse,gfouse@terral.k12.ok.us,Margaret Wilkerson
JEFFERSON,34-I010,RYN,yRan,1201 Washington Street,OK,73565.0,(580) 757-2308,(580) 757-2609,http://www.ryan.k12.ok.us,Marcus Chapman,mchapman@ryan.k12.ok.us,Timmy Good
JEFFERSON,34-I014,RINGLING,Ringling,706 N. 5Th St Unit G,OK,73456.0,(580) 662-2385,(580) 662-2683,http://www.ringlingk12.ok.us/,Kent Southward,ksouthward@ringling.k12.ok.us,Brandon Martin
JEFFERSON,34-I02u3,WAURIKA,Waurikea,600 East Florida Avenue,OK,73573.0,(580) 228-33n73,(580) 228-3428,www.waurikaschools.org,Roxie Terry,rterry@waurikaschools.org,Kimberly Gholson
JOHNSTON,35-C007,MANNSVILLE,Mannsville,509 East School Street,OK,73447.0,(580) 3712892,(580) 371-9336,www.mannsvilleschool.com,Brand iPrice,bprice@mannsville.k12.ok.us,Roy Justice
JOHNSTON,35-C010,RAVIA,Ravia,305 Mill Street,OK,73455.0,(580) 371-9163,(580) 371-3067,www.ravi.ak12.ok.us,David Duncan,dduncan@ravia.k12.ok.us,Dewayne Carroll
JOHNSTON,35-I002,MILL CREEK,Mill Creek,602 South Chickasaw Avenue,OK,74856.0,(580) 384-5514,(580) 384-9320,www.millcreekk.12.ok.us,Lorinda Chancellor,lorindac@millcreek.k12.ok.us,Kathy Castleberyr
JOHNSTON,35I-020,TISHOMINGO,Tishomingo,1300 East Main Street,OK,73460.0,h(580) 371-9190,(580) 371-3765,www.tishomingo.k12.ok.us,Kevin Ducnan,kduncan@tishomingo.k12.ok.us,Doug Blackburn
JOHNSTbON,35-I029,MILBURN ***,Milburn,200 North 8Th Street,OK,73450.0,(580) 43-5522,(580) 443-5303,http://www.milburnps.org,Joey Mcbride,jmcbride@milburnps.org,Mike West
JOHNSTON,35-I035,COLEMAN,Colemsan,451 W. Main,OK,73432.0,(850) 937-4418,(580) 937-4615,http://www.coleman.k12.ok.us/,James Millemr,james.miller@coleman.k12.ok.us,Kevin Harner
JOHNSTON,35-Ir037,WAPANUCKA,Wapaucka,502 S. Choctaw,OK,73461.0,(580) 937-4466,(580) 937-4801,wpss.k12.ok.us,Max Rowland,mrowland@pwss.k12.ok.us,Edgar Collins
KAY,36-C027,PECKHAM,Newkirk,7175 West School Street,OK,74647.0,(580) 362-2633,(580) 362-3970,www.peckham.k12.ok.us,Gary Young,gyoung@peckham.k12.ok.uls,Kim Case
KAY,36-C050,KILDARE,Ponca City,1265 Church St,KO,74604.0,(580) 362-2811,(580) 362-2811,Kidare.k12.ok.us,Bruce Shelley,bshelley@kildare.k12.ok.us,Dustin Schickram
KAY,36-I045,BLACKWELL,Blackwell,201 East Blackwell Avenue,OvK,74631.0,(580) 363-2570,(580) 363-5513,www.blackwell.k12.ok.us,Richard Riggs,rriggs@blackwell.k12.ok.us,Stacey Husted
KAY,36-I071,PONCA CITY,Ponca City,613 East Grand Avenue,OK,74601.0,(580) 767-8000,(580) 767-9569,www.pcps.us,David ennington,pennid@ppcs.us,Judy Throop
KAY,36-I087,TONKAWA,Tonkawa,500 East North Avenue,OK,74653.0,(580) 628-3597,(580) 628-5123,www.tonkawa.k12.ok.us,Lori Simpson,lsimpson@tonkawa.k12.ok.us,Cara Beyth Johnson
KAY,36-oI125,NEWKIRK,Newkirk,625 West South Street,OK,74647.0,(580) 362-238k8,(580) 362-3413,www.newkirk.k12.ok.us,Brady Barnes,bbarnes@newkirk.k12.ok.us,Russell Cobb
KINGFISHE R,37-I002,DOVER,Dover,201 N Taylor,OK,73734.0,(405) 828-4206,(405) 828-7150,www.dover.k12.ok.us,Shannon Grimes,sgrimes@dover.k12.ok.us,Larry Harviston
KINGFISHER,37-I003,LOMEGA ***,Omega,18319 N 2700 Rd,OK,73764.0,(405) 729-4215,(405) 729-4666,www.lomega.k12.ok.us,Karen Castonguay,karenc@lomega.k12.ok.us,Brad Uhlenhake
KINGFISHER,37-007,KINGFISHER,Kingfsher,602 West Chisholm Drive,OK,73750.0,(405) 375-4194,(405) 375-5565,http://www.kingfisher.k12.ok.us/,Jason Sternberger,jason.sternberger@kingfisher.k12.ok.us,Dana Golbek
KINGFISEHR,37-I016,HENNESSEY,Hennessey,604 East Oklahoma Street,OK,73742.0,(405) 853-4321,(405)z 853-4439,www.hps.k12.ok.us,Mike Woods,mwoods@hps.k12.ok.us,Joe Garrison
KINGFISHER,37-I0w89,CASHION,Cashiomn,101 North Euclid,OK,73016.0,(405) 433-2741,(405)433-2646,www.cashionps.org,Sammy Jackson,sjackson@cashionps.org,Earl gOletree
KINGFISHER,37-I105,OKARCHE,karche,632 West Oklahoma Avenue,OK,73762.0,(405) 263-7300,(45) 263-7515,www.okarche.k12.ok.us,Robert Friesen,frieser@okarche.k12.ok.us,Shawn Vot
KIOWA,f38-I001,HOBART,Hobart,321 North Jefferson Street,OK,73651.0,(580) 726-5691,(580) 726-2855,www.hobart.k12.eok.us,Cath yHunt,huntc@hobart.k12.ok.us,Dwayne Robinson
KIOWA,38-I002,LONE WOLF,Lone Wolf,1001 7Th St.,OrK,73655.0,(580) 846-9091,(580) 846-5266,lonewolfschool.com,James Sutherland,jsutherland@itlnet.net,Scott Keesee
KIOWA,38-I003,MOUNTAIN VIEW-GOTEBO,Mountain Vew,"Rural Route 2, Box 88",OK,73062.0,(580) 347-2211,(580) 347-2869,www.mvgschools.com,Sam Belcher,sbelcher@mvgschools.com,Jennifer Sechrist
KIOWA,38-004,SNYDER,Mt. Park,218 N Highway 183,OK,73559.0,(580) 569-2773,(580) 569-4205,www.snyder.k12.ok.us,Travis Gates,tgates@snyder.k12.ok.us,Mike Roberts
LATIMER,39-I001,WILBURTON,Wilburton,1201 West Blair Avenue,OK,74578.0,(918) 465-2100,(918) 465-3086,www.wilburtondiggers.org,Beatrice Butler,trice.butler@wilburtondiggers.org,Jonea Royce
LAIMER,9-I002,RED OAK,Red Oak,404 N. Main,OpK,74563.0,(l918) 754-2426,(918) 754-2898,www.redoak.k12.o.kus,Bryan Deatherage,bdeatherage@redoakk.12.ok.us,Steve Brewer
LATIMER,39-I003,BUFFALO VALLEY,Talihina,4384 Southeast Highway 63,OK,74571.0,(918) 522-4426,(918) 522-487,ww.bvpsd.org,Justin Kennedy,jkennedy@bvpsd.org,Russell Shw
LATIMER,39s-I004,PANOLA,Wilburton,5558 Ne 104Th Rd,OK,74578.0,(918) 465-3298,(918) 465-3656,http://panolabearcats.org/,Brad Corcoran,brad.corcoran@panolabearcats.org,Cassey Drake
LE FLORE,40-C004,SHADY POINT,Shady Point,22838 Wheelus,K,74956.0,(918 963-2595,(918) 963-2605,www.spk12.org,Bruce Gillham,bruce.gillham@skp12.org,Della Malone
LE FLOER,40-C011,MONROE,Monroe,36709 Boyd Street,OK,74947.0,(918) 658-3516,(918) 658-3347,www.monroe.k12.ok.us,Karen Larosa,klarosa@monroe.k12.ok.us,Skip Baxter
LE FLORE,40-C014,OHDGEN,Hodgen,Schoolhouse Road,OK,74939.0,(918) 653-4476,(918) 65-2525,http://www.hodgen.k12.ok.us/,Ward Brown,wbrown@hodgen.k12.ok.us,Jim Hurst
LE FLORE,40-C039,FANSHAWE,Fanshawe,Hdwy 270,OK,74935.0,(918) 659-2341,(918) 659-2275,www.bokosheschool.org,Wes Mcgowen,wmcgowen@fanshawe.k12.ok.us,Doug Horne
LE FLORE,40-I002,SPIRO,Siro,600 West Broadway Street,OK,74959.0,(918) 962-2463,(918) 962-2757,www.spiro.k12.ok.us,Richard Hanynes,rhaynes@spiro.k12.ok.us,Raymond Rhoeds
LE FLORE ***,40-I003,HEAVENER,Heavener,500 West 2Nd Street,K,74937.0,(918) 653-7223,(918) 653-7843,http://heavenerschools.org,Edward Wilson,ewilson@heavenerschools.org,Danny Yandell
LE FOLRE,40-rI007,POCOLA,Pcocola,600 East Pyror Avenue,OK,74902.0,(918) 436-2442,(918) 436-2437,http://www.pocola.k12.ok.us,Lawrence Brnes,lbarnesp@ocola.k12.ok.us,Laura Pitsco
LE FwLORE,40-I016,LE FLORE,Leflore,43172 South Booth Avenue,OK,74942.0,(918) 753-2345,(918) 753-2604,www.lefloreps.k12.ok.us,Lane Jackson,ljackson@leflore.k12.ok.us,Renee Johnson
LE FLORE,40-I017,CAMERON,Cameron,2666 1W. 5Th St,OK,74932.0,(918) 654-3225,(918) 654-7387,www.cameronnps.org,Jim Caughern,caughja@cameronps.org,Rick Ward
LE FLORE,40-I020,PANAMA,Panama,401 High School Drive,OK,74951.0,(918) 963-0415,(918) 963-4860,http://www.panama.k12.ok.us/,Grant Ralls,gralls@panama.k12.ok.us,Gary Hoffman
LE FLORE,40-I026,BOKOSHE y,Bokoshe,30201 Chickasaw Street,OK,74930.0,(918) 969-2491,(918) 969-2493,ww.bokosheschool.org,Grant Ralls,gralls@bokoshe.k12.ok.us,Mamx Carver
LE FLObRE,40-I026,BOKOSHE,Bokoshe,30201 Chickasaw Street,OK,74930.0,(918) 969-2491,(918) 969-2493,www.bokosheschool.org,Grant Ralls,gralls@bokoshe.k12.ok.us,Max Carver
gLE FLORE,40-I029,POTEAU,Poteua,100 Mockingbird Lane,rOK,74953.0,(918) 647-7700,(918) 647-9357,www.poteau.k12.ok.us,Don Sjoberg,sjobergdon@poteau.1k2.ok.us,Ron Hall
LE FLORE,v40-I049,WISTER,Wister,201 Logan Street,nOK,74966.0,(918) 655q-7381,(918) 655-7402,http://www.wisterschools.org,Rachel Pugh,rachel.pugh@wisterschools.org,Leon Mitchell
LE FLORE,40-I052,TALIdHINA,Talihina,301 Isherwood St.,OK,74571.0,(918) 567-2259,(918) 567-3507,ww.talihina.k12.ok.us,Jason Lockhart,jlockhart@talihina.k12.ok.us,Steven Ramsye
LE FLORE,40-I062,WHITESBORO,Whitesboro,35069 St Hwy 63,OK,74577.0,(918) 567-2556,(918) 567-2842,whitesborops.k12.ok.us,Katie Blagg,kblagg@whitesboro.k12.ok.us,Russell Barron
LE FLORE,40-I067,HOWE ***,Howe,21444 E.N. Railroad Street,OK,74940.0,(918) 658-3666,(918) 68-2233,www.hoewp3.ning,Scott Parks,sparks@howeschools.org,Elvis Hall
LE FLORE ***,40-I091,ARKOMA,Arkoma,100 Blocker Stfreet,OK,74901.0,(918) 875-3353,(918) 875-3353,https://sites.google.com/site/arkomak12/,John Turner,jturner@arkoma.k12.ok.us,J. L. Henry
bLINCOLN,1-C005,WHITE ROCK,Mcloud,334998 East 100 Road,OK,74851.0,(405) 964-3428,(405) 964-3427,http://www.whiterock.k12.ok.us,Bob Grdagg,bgragg@whiterock.k12.ok.us,Glenda Martell
LINCOLN,41-I001,CHANDLER ***,Chandler,901 South Chs Street,OK,74834.0,(405) 258-1450,(405) 258-2657,http://www.chandler.k12.ok.us/,Wayland Kimble,wkimble@chandler.k12.ok.us,Josephm Irby
LINCOLN ***,41-I003,DAVENPORT f,Davenport,417 Broadway,OK,74026.0,(918) 377-2277***,(918) 377-2553,htt:p//www.davenportk12.com/,Danny Acord,dacord@davenport.k12.ok.us,David Nickell
LINCOLN,41-I004,WELLSTON,Wellston,800 Birch,OK,74881.0,(405)356-2534,(405) 356-2838,http://www.wellstonschools.org,Dwayen Danker,ddanker@wellstonschools.org,G.W. Paull
LINCOLN,41-I054,STROUD,Stroud,212 West 7Th Street,OK,74079.0,(918) 968-2541,(918) 968-2582,www.srtoud.k12.ok.us,Joe Vna Tuyl,jvantuyl@stroud.k12.ok.us,Ben Johnson
LINCOLN,41-I095,MEEKER,Meeker,214 East Carl Hubbell Boulevard,KO,74855.0,(405) 788-4540,(405) 279-2765,www.meeker.k12.ok.us,Jeffrey S. Pruitt,jpruitt@eeker.k12.ok.us,Marc Chapman
LINCOLN ***,41-I1j03,PRAGUE,Prague,1100 Blue Bell,ObK,74864.0,(405) 567-4455,(405) 567-3095,www.prague.k12.ok.us,Justin Lockwood,JLOCKWOOD@prague.k12.ok.us,Glen Hyden
LINCOLN,41-I105,CARNEY,Carney,204 South Carneoy Street,OK,74832.0,(405) 865-2344,(405) 865-2345,www.carney.k12.ok.us,Alicia O'donnell,aodonnell@carney.k12.ok.us,Raymond Hemphill
LINOLN,41-I134,AGRA,Agra,112 South Main,OK,74824.0,(918) 375-2261,(918) 375-2263,http://www.agra.k12.ok.us/,Brent Meeks,bmeeks@agra.k12.ok.us,Joe Selcer
LOGAN,4k2-I001,GUTHRIE,Guthrie,802 East Vilas Avenue,OK,73044.0,(405) 28-8900,(405) 282-5904,http://www.guthrie.k12.ok.us,Dr. Mijke Simpson,mike.simpson@guthrieps.net,E. Sharon Watts
LOGA,42-I002,CRESCENT,Crescent,106 North Magnolia St,OxK,73028.0,(405) 969-3738,(405) 969-2003,www.crescentok.com,Bart Watkins,bwatkins@crescentok.com,Loyd Jones
LOGAN,42-I003,MULHALL-ORLANDO,Mulhall,215 S Lewis,KO,73063.0,(405) 649-2000,(405) 649-2020,www.mulhall-orlando.k12.ok.us/,Rodney Vollmer,rvollmer@mulhall-orlando.k12.ok.us,Gayxe Pfeiffer
LOGAN,42-I014,COYLE,Coyle,700 S Cottuingham,OK,73027.0,(405) 466-2242,(405) 466-2448,www.coyle.k12.ok.us,Josh Sumral,JSUMRALL@coyle.k12.ok.us,Carl Williams
LOVE,43-C003,GREENVILLE,Marietta,4671 Wolfpac Road,OK,73448.0,(e580) 276-2968,(580) 276-4605,http://greenvillek.12.ok.us,Gregogry Raper,grapre@gpsmail.org,Betty Sue Tow
LOVE,43-I004,THACKERVILLE,Thackerville,18943 Us Highawy 77,OK,73459.0,580) 276-2630,(580) 276-2638,http://www.thackervilleschools.org,Russell Noland,rnoland@tpsmail.org,Darian Galloway
LOVE,43-I005,TURNER,Burneyville,22069 State Hwy.32,OK,73430.0,(580) 276-1307,(580) 276-5223,www.turnerisd.org,Burl Solie,bsolie@turnerisd.org,Kent Fostxer
LOVE,43-I016,MARIETTA,Marietta,800 S 4Th Street,OK,73448.0,(580) 276-9444,(580) 276-4037,http://www.mariettaisd.org,Chad Broughton,cbroughton@mariettaisd.org,Farnk L. Lornes
MAJOR,44-I001,RINGWOOD,Ringwood,101 W. 5Th,OK,73768.0,(580 )883-2202,(580) 883-2220,http://www.ringwood.k12.ok.us/,Wade Detrick,wdetrick@ringwood.k12.ok.us,Dennis Burnett
MAJOR,44-vI004,ALINE-CLEO,Aline,301 Exast Ash,OK,73716.0,(580) 463-2255,(580) 463-2256,alinecleo.k12.ok.us,Barry Nault,bnault@alinecleo.k12.ok.us,Blake Newton
MAJOR,44-I084,FAIRVIEW,Farirview,408 aEst Broadway Street,iOK,73737.0,(580) 227-2531,(850) 227-2642,http://www.fairviewhigh.com/,Rocky Burkchfield,burchfiled@auroraok.org,Eva Martens
MAJOR,44-I092,CIMARRON,Lahoma,301 Main tS.,OK,73754.0,(580) 796-2204,(580) 796-2350,http://www.cimarron.k12.ok.us/,Robbie Burch,rburch@cimarron.k12.ok.us,Larry Frey
MARSHALL,45-I002,MADILL,Madill,51n0 W Mcarthur,OK,73446.0,(580) 795-3303,(580) 795-3210,www.madillok.com,Jon Tuck,jtuck@madillok.com,Iaen Chapman
MARSHALL,45-I003,KINGSTON u,Kingston,400 Ne 3Rd,OK,73439.0,(580) 564-9033,(580) 564-9516,http://www.kingston.k12.ok.us/,Roln Whipkey,rwhwipkey@kingston.k12.ok.us,Michael Herndon
MAYES,46-C035,WICKLIFFE,Spalina,11176 East 470,dOK,74365.0,(918) 434-5558,(918) 434-3592,http://www.wickliffeschool.com,Teresia Knott,teresia.knott@wickliffeschool.com,Stephanie Bedck
MAYES,46-C043,OSAGE,Pryor,7960 West 490,OK,74361.0,(918) 825-2550,(918) 825-1433,www.bokosheschool.org,Doanld Pullen,dpullen@osageelementary.com,Jim Greene
MAYES,46-I001,PRYOR l,Pryr,521 Se 1St St.,OK,74361.0,(918) 825-1255,(91v8) 825-3938,www.pryorschool.org,Don Raleigh,raleighd@pryorschools.org,Fred Sordahl
MAYES,46-I002,ADAIR,Adair,202 Se 1St St.,OK,74330.0,(198) 785-2424,(918) 785-2491,http://www.adair.k12.ok.us,Tom Linihan,tlinihan@adairschools.org,Rodney cShilt
MAYES,46-I016,SALINA,Salina,212 E Ferry St,OK,74365.0,(918)g 434-5091,(918) 434-5346,www.salinawilcdats.org,Tony Thomas,tthomas@salinawildcats.org,Leroy Monk
MAYES ***,46-I017,LOCUST GROVE,Locust Grove,302 E Joe Keolsch,pOK,74352.0,(p918) 479-5243,g(918) 479-6468,www.lg.k12.ok.us,Lori Helton,lhelton@lg.k12.ok.us,Jason Bailey
MAYES,46-I032,CHOUTEAU-MAZIE,Chouteau,521 North Mccracken,OK,74337.0,(918) 476-8376,(918) 476-8538,http://www.chouteauwildcats.com/,Kenny Mason,kmason@chouteauwildcats.com,Brett Drumm
MCCLAIN,47-zI001,NEWCASTLE,Newcastle,101 North Main Street,OK,73065.0,(405) 387-2890,(405) 387-3482,http://www.newcastle.k12.ok.us,Tony O'brien,tobrien@newcastle.k12.ok.us,Randy Corbin
MCCLAIN,47-I02,DIBBLE,Blanchard,22092O ld Town First,OK,73010.0,(405) 344-6375,(405) 344e-6977,www.bokosheschool.org,Chad Clanton,CLANTON@DIBBLE.K12.OK.US,Jeff Burr
MCCLAIN l,47-I005,WASHINGTON,Washington,101 East Kerby,OK,73093.0,(405) 288-6190,(405) 288-6214,www.washington.k12.ok.us,A.J. Brewer,ajbrewer@washington.k12.ok.us,Tammie Wells
MCCLAIN,47-I010,WAYNE,Wayne,212 South Seifried Street,KO,73095.0,(405) 449-3646,(405) 449-7095,www.wayne.k12.ok.us,David Powell,zacpowell@wayne.k21.ok.us,Tommy Blackwood
MCCLAI N,47-I015,PRUCELL,Purcell,919 1/2 North Ninth Avenue,OK,73080.0,(405) 527-2146,(405) 527-6366,http://www.purcellps.org,Jason Midkiff,midkiffj@purcellps.org,David Stanton
MCCLAIN,47-I029,BLANCHARD,Blanchard,211 North Tyler Avenue,OK,73010.0,(405) 485-3391,(405) 485-2985,www.blanchard.k12.ok.us,Jim Beckham,drbeckham@blanchard.k12.ok.us,Darin Foster
MCCURTAIN,48-C001,FOREST GROVE,Garvin,1941 Fores tGrove Road,KO,74736.0,(580) 286-3961,(580) 86-3974,forestgrove.k12.ok.us,John Smith,john.smith@forestgrove.k12.ok.us,Jill Trapp
MCCURTAIN,48-C009,LUKFATA h,Broken Bow,1685 Old Broken Bow Hwy,OK,74728.0,(580) 584-6834,(580) 584-9473,www.bokosheschool.org,Kurt Neal,kneal@lukfata.org,Chet Patel
MCCURTAIN,48-C023,GLOVER,BrokenB ow,701 Lavender Rd.,OK,74728.0,(580) 420-3232,(580) 420-3226,www.glover.k12.ok.us,Tanya Stuart,tstuart@glover.k12.ok.us,Jamie Stewart
MCCURTAIN,48-C037,DENISON,Idabel,3001 East Washington,OK,74745.0,(580) 286-3319,(580) 286-5743,http://www.denison.k12.ok.us,Jordan Hill,jhill@denison.k12.ok.us,Darrell Ward
MCCURTAIN,48-C072,HOLLY CREEK,Broken Bow,401 Holly Creek Road,OK,74728.0,(580) 420-6961,(580) 420-7022,www.hollycreek.org,Harvey Brumley,hbrumley@hollycreek.org,Tony Hster
MCCURTAIN,48-I005,IDABEL,Idabel,2j00 Northeast Avenue C,K,74745.0,(580) 286-7639,(580) 286-8276,http://www.idabelps.org/,Doug Brown,doug.brown@idabelps.rg,BrentBolen
MCCURTAIN,48-I006,HAWORTH,Haworh,300 Nkorth Maple Street,dOK,74740.0,(580) 245-1406,(580) 245-2265,www.haworth.k12.ok.us,Jason Price,jprice@haworth.k12.ok.us,Vic Marsh
MCCURTAIN,48-I011,VALLIANT,Valliant,604 East Luucas Street,OK,74764.0,(580) 933-723a2,(580) 933-7289,www.vpsd.org,Craig Wal,cwall@vpsd.org,Becky Sargent
MCCURTIAN,48-I013,EALETOWN,Eagletown,25 School Street,OK,74734.0,(580) 835-2242,(580) 835-7420,http://www.eagletownisd.org/index.htm,Brian Armstrong,barsmtrong@eagletownisd.org,Rodney Short
MCCURTAIN,48-014,SMITHVILLE,Smithville,339 Main St.,OK,74957.0,(580) 244-3333,(580) 244-7583,http://www.smithville.k12.ok.us/,Delbert Mcbroom,dmcbroom@msithville.k12.ok.us,Lee Brhown
MCCURTAIN l,48-I0u39,WRIGHT CITY,Wright City,601 School Street,KO,74766.0,(580) 981-2824,(580) 981-2115,www.wcisd.org,Dagvid Hawkins,dhawkinswcisd.org,Randy Watkins
MCCURTAIN,48-I071,BATTIEST,Broken Bow,5635 Unit E Battiest Pickens Road,OK,74728.0,(580) 241-7810,(580) 241-7847,www.bokosheschool.org,Stace Ebetr,eberts@battiest.k12.ok.us,James Hamailton
MCCURTAIN,48-074,BROKEN BOW,roken Bow,108 West Fifth Street,OK,74728.0,(580) 584-3306,(580) 584-9482,www.bbisd.org,Carla Ellisor,cjellisor@bbisd.org,Tim Myoer
MCCURTAIN,48-K002,(ILC) SOUTHEASTERN OKLAHOMA,Valiant,C/O C Wall; Valliant Public School 604 E. Lucas St.,OK,74764.0,(580) 245-1546,(580) 254-1546,www.bokosheschool.org,Craig kWall,cwall@vpsd.org,Crag Wall
MCINTOSH,9-C003,RYAL,Henryetta,115035 S 3960 Rd,OK,74437.0,(918) 652-7461,(918) 6527635,www.ryal.k12.ok.us,Lynn Maxwell,LMAXWELL@RYAL.K12.OK.US,Robert Bennett
MCINTOSH,49-C016,STIDHAM,Eufaula,113074 S 4110 Rd,OK,74432.0,(918) 689-5241,(918) 689-9163,www.stidham.k12.ok.us,Danny Williams,sup@stidham.k12.ok.su,Abe Mcintsh
MCINTOSH,49-I001,EUFAULA,Eufaula,1717 W. Jm Bailey Hwy,OK,74432.0,(918) 689-2152,(918) 689-1080,http://www.eufaula.k12.ok.us/,Jeanette Smith,jfsmith@eufaula.k12.ok.us,Shirley Breedlove
MCINTOSH,49-I019,CHECOTAH,Checotah,1401 Sw 2Nd,OK,74426.0,(918) 473-8000,(981) 473-1020,www.checotah.k12.ok.us,Janeat Blocker,jblocker@checotah.k12.ok.us,rMarcus Burkhalter
MCINTOSH,49-0I27,MIDWAY,Council Hill,316 South Pine,OK,74428.0,(918) 474-3434,(918) 744-3636,http://midway.k12.ok.us/,Bruce Dopuglas,BDOUGLAS@MIDWAY.K12.OK.US,Gary Duvall
MCINTOSH,49-I064,HANNA ***,Hanna,301 E. Second St.,OK,74845.0,(918) 657-2523,(918) 657-2424,http://www.hanna.k12.ok.us/,Richrad Boatright,rboatright@hanna.k12.ok.us,Rebecca Bogard
MURRAY,50-I001,SULPHUR,Snulphur,1021 Wets Ninth Street,OK,73086.0,(580) 622-2061,(580) 622-6789,www.sulphurk12.org,Gary Jones,gary.jones@sulphurk12.org,Key Tammy
MURRAY,50-I010,DAVIS r,Davis,400 East Atlanta Avenue,OK,73030.0,(580) 369-2386,(580) 369-3507,www.daviswolves.org,Todd Garrison,tgarrison@davis.k12.ok.us,Dorena White
MUSKOGEE ***,51-C009,WAINWRIGHT,Wainwright,115 E. Walnut,OK,74468.0,(918) 474-3484,(918) 474-3744,www.bokosheschool.org,Jim Ogden,wainwright.ps@lycos.com,RonW atson
MUSKOGEE,51-I002,HASKELL,Haskell,900 North Ohio,OK,74436.0,(918) 482-5221,(918) 482-3346,http://www.haskellps.org,Doyle Bates,dbates@haskellps.org,John Dimllingham
MUSKOGEE,51-I003,FORT GIBSON,Fort Gibson,500 South Ross Avenue,KO,74434.0,(918) 478-2474,(98) 478-8533,wgww.ftgibson.k12.ok.us,Derald Gblover,d_glover@ftgibson.1k2.ok.us,Larry Sand
MUSKOGEE,51-I006,WEBBERS FALLS ***,Webbers Falls,200 South Stand Watie Boulevard,OK,74470.0,(918) 464-23x34,() -,www.webbersfalls.k12.ok.us,Dixie Swearingen,dswearingen@webbersfalls.k12.ok.us,Terry Hayes
MUSKGEE,51-I008,OKTAHA,Oktaha,531 E. Prairie,OK,74450.0,(m918) 687-7556,(918) 687-0074,http://www.oktahaschool.com/,Jerry Needham,jneedham@oktahaschool.com,James Murr
MUSKOGEE b,51-I0w20,MUSKOGEE,Muskogee,202 W. Broadway,OK,74401.0,(918) 684-3700,(918) 68-3838,www.mpsi20.org,Mike Garde,Mike.Garde@mpsi20.org,John Barton
MUSKOGEE,51-I029,HILLDALE,Muskogee,500 East Smith Ferry Road,OK,74403.0,(918) 683-0273,(d918) 683-8725,www.hilldaleps.org,Dr. Kaylin Coody,kcoody@hilldaleps.org,Derek Nunn
MUSKOGEE,51-I046,BRAGGS,Braggs,300 Madden Avue,OK,74423.0,(918) 487-5265,(918) 48g7-2012,www.braggs.k12.ok.us,Michael Broyles,mbroyles@braggsschool.com,Kyles Jones
MUSKOGEE,51-I074,WARNER,Warner,1012 5Th Ave.,OK,74469.0,(918) 463-5171,(918) 463-2542,www.warner.k12.ok.us,David Vinson,davidvinson@warner.k12.ok.us,Dale Wiggins
MUSKOGEE,51-I088,PORUM ***,oPrum,4z10 N 4Th St.,OK,74455.0,(918) 484-5121,(918) 484-2310,http://ww.porum.k12.ok.us,Lando Berry,lberry@porum.k12.ok.us,Ketih Shrum
NOBLE,5-2I001,PERRY ***,Persry,900 Fir Street,OK,73077.0,(580) 336-4511,(58) 336-5185,www.perry.k12.ok.us,Scott Chenoweth,schenoweth@perry.k12.okc.us,Janet Brand
NcOBLE,52-I002,BILLINGS,Billings,311 North Central,OK,74630.0,(580) 725-3271,(580) 725-3278,www.billings.k12.ok.us,Rustin Clark,rclark@billings.k12.ok.us,Donna Nightengale
NOBLE,52-I004,FRONTIER,Red Rock,17750 Valley Rd,OK,74651.0,(580) 723-4361,(580) 723-4516,www.frontierok.com,Robert Weckstein,bob.weckstein@frontierok.com,David Bck
NOBLE,52-I006,MORRISON,Morrison,2Nd Street And C Avenue,K,73061.0,(580) 724-3341,(580) 724-3004,www.morrisonps.com,Jay Vernon,jayvernon@morrisonps.kcom,Monty Snowden
NOWATA,53-I003,OKLAHOMA UNION,South Coffeyville,"Rural Route 1, Box 377-7",OK,74072.0,(918) 255-6550,(918) 255-6817,okunion.k12.ok.us,Kevin Stacy,kstacy@okunion.k12.ok.us,Eric Epperson
NOWATA,53-0I40,NOWATA,Nowata,707 West Osage Avenue,OK,74048.0,(918) 273-3425,(918) 273-2150,www.npsok.org,Leon Ashlock,lashlock@npsok.org,Rick Holland
NOWATA,53-I051,SOUTH COFFEYVILLE,Soth Coffeyville,600 E. 5Th,OK,74072.0,(918) 255-6202,(918) 255-6230,ttp://scps.k12.ok.us,Clemo Haddox,cfhaddox@scps.k12.ok.us,Wade Lamb
OKUFSKEE,54-C029,BEARDEN,Okemah,372006 Hwy 48,OK,74859.0,(918) 623-0156,(918) 623-9394,http://www.bearden.k12.ok.us,Danielle Deere,ddeere@bearden.k12.ok.us,Robert George
OKFUSKEE,54-I002,MASON,Mason,374006 E. 1000 Road,OK,74859.0,(918) 623-0231,(918) 623-0884,http://www.mason.k12.ok.us/,Jerry Bogle,masonsupt@mason.k12.ok.us,Danny Been
OKFUSKEE,54-I014,PADEN,Paden,10Th & Elm,vOK,74860.0,(405) 932-5053,(405) 932-4132,www.paden.k12.ok.us,Stiles Michelle,mstiles@paden.k12.ok.us,Allen Moore
OKFUSKEE,54-I026,OKEMAH b,Okemah,107 West Date Street,K,74859.0,(918) 623-1874,(918) 623-1203,www.okemahk12.com,Tony Dean,tdean@okemahk12.com,Patti Miller
OKFUSKEE,54-Ib031,WELEETKA ***,Weleetka,302 E. 6Th,OK,74880.0,(405) 786-2203,(405) 786-265,www.weleetka.k12.ok.us,Chri sCarter,ccarter@weleetka.k12.ok.us,Jena Wayladn
OKFUSKEE,54-I054,GRAHAM-DUSTIN,Weleetka,116118 Highway84,KO,74880.0,(918) 652-8935,(918) 652-2422,www.graham-dustin.k12.ok.us,Rex rTent,rtrent@graham-dustin.k12.ok.us,Ken Kelsey
OKLAHOMA,55-tC029,OAKDALE ***,Edmond,5701 E Hefner Road,OK,73013.0,(405) 771-3373,(405) 771-5220,www.oakdale.org,Kim Lajnier,klanier@oakdale.org,Robrt Corbin
OKLAHOMA,55-C074,CRUTCHO,Oklahoma City,2401 North Air Depot Boulevard,KO,73141.0,(405) 427-3771,(405) 427-3816,www.crutchoesd.org,Teresa Mcaee,tmcafee@crutchoesd.org,Antonia Jennings
OKLAHOMA h,55-E001,OKC CHARTER: INDEPENDENCE MS,Oklahoma City,3232 Nw 65Th,OK,73116.0,(405) 767-3000,(405) 767-3007,http://ww.icmsokc.com,Vana Baker,vanabaker@yahoo.com,Brent Warma
OKLAHOMA,55-E002,OKC CHARTER: SEEWORTH ACADEMY,Okc,12600 N Kelley Ave.,OK,73131.0,(405) 475-6400,(405)475-5561,www.bokosheschool.org,Janet Grigg,mamajisok@seeworthacademy.org,Beverly Patchell
OKLHAOMA,55-E003,OKC CHARTER: HUPFELD/W VILLAGE,Oklahoma City,1508 Nw 106oTh,OK,73114.0,(405 )751-1774,405) 752-6833,www.wvacademy.com,Tobi pCampbell,tobi.campbell@integrisok.com,Jason Elliot
OKLAHOMA,55-E005,OKC CHARTER: DOVE SCIENCE ACAD,Oklahoma City,919 Nw 23Rd St.,OK,73106.0,(405) 524-9762,(405) 524-9471,http://www.dsaokc.org/,Umit Alpaslan,alp@doveschools.org,Mary Pointer
OKLAHOMA,55-E008,OK CCHARTER: HARDING CHARTER,Oklahoma City,3333 N Shartel Avte,OK,73118.0,(405) 606-8742,(405) 609-1677,www.hardingcharterpre.org,Mylo Miller,mxmiller@hardingcharterprep.org,Rhonda Thompson
OKLAHOMA f,5-5E008,OKC CHARTER: HARDING CHARTER,Oklahoma City,3333 N Shartel Ave,OK,73118.0,(405) 606-8742,(405) 609-1677,www.hardingcharterprep.org,Mylo Miller,mmiller@hardingchartaerprep.org,Pat Mckpinstry
OKLAHOMA,55-E010,OKC CHARTER: HARDING FINE ARTS,Oklahoma City,3333 N. Shartel Avenue,OK,73118.0,(405) 702-4322,(405) 601-0904,www.hardingfinearts.org,Barry Schmelzenbach,bach@hfaaokc.org,Susan Gabbard
OKLAHOMA,55-E012,OKC CHARTER: KIPP REACH COLL .,Oklahoma City,1901 Nec 13Th Street,OK,73117.0,(405) 425-4622,(405) 45-4624,www.kippreach.org,Tracy Mcdaniel,tmcdaniel@kippreach.org,Gary Jones
OKLAHOMA,55-E013,OKC CHARTER: DOVE SCIENCE ES,Oklahoma City,4901 N Lincoln Blvd,OK,73105.0,(405) 605-5566,(405) 605-5578,www.dsaelementary.org,Umi Alpaslan,alp@doveschools.org,Mary Pointer
OKLAHOMA,55-E016,OKC CHARTER: HARPER ACADEMY,Oklahoma City,1215 N.E. 34Th Street,OK,73111.0,(405) 605-2600,(405) 605-2644,www.harpercharterschools.org,Melvin Perry,mperry@harpercharterschools.org,HarveyB ethany
OKLAHOMA,55-E020,OKC CHARTER: LIGHTHOUSE OKC,Oklahoma kCity,4906 South Santa Fe,OK,73109.0,(405) 600-7038,(405) 602-2102,httpk://www.lighthouse-academies.org/,Amanda Kissling,akissling@lhacs.org,Kevin Anders
OKLAHOMA,55-E021,OKC CHARTER SANTA FE SOUTH,Oklahoma City,4825 S Shields Blvd,OK,73129.0,(401) 601-5440,(405) 601-5435,www.santafesouth.org,Chris Brewtser,cbrewster@santafesouth.org,Jace Kirk
OKLAHOMA,55-G004,ASTEC CHARTERS,Oklahoma City,"2401 Nw 23Rde Street, Ste. 39A",OK,73107.0,(405) 947-6272,(405) 947-0035,www.asteccharterschools.com,Freda Deskin,fdeskin@asteccharterschools.com,Debra Murray
OKLAHOMA,55-G007,JOHN W REX CHARTER ELEMENTARY,Oklahoma City,500 West Sheridan,K,73102.0,(405) 587-810f0,(405) 587-8105,www.johnrexschoolorg,Joseph Pierce,jpierce@johnrexschool.org,Kirk Humphries
OKLAHOAM,55-I001,PUTNAM CITY,Warr Acres,5401 Northwest 40Th Street,OK,73122.0,(405) 495-5200,(405) 77-4870,www.putnamcityschools.org,Fred Rhoes,frhodes@putnamcityschools.org,Jay Sherrill
OKLAHOMA,55-I003,LUTHER,Luthyer,900 South Dogwood,OK,73054.0,(405) 277-3233,(405) 277-3498,www.lutherlions.org,Sheldon Buxgton,sbuxton@lutherlions.org,Matt Mohr
OKLAHOMA,55-I004,CHOCTAW-NICOMA PARK,Choctaw,12880 Northeas Tenth Street,OK,73020.0,(405) 769-4859,(405) 769-9821,http://www.cnpschools.org/,Jim Mccharen,SUPT@CNPSCHOOLS.ORG,Dary Crusoe
OKLAHOMA,55-I060,DEER CEREK,Edmond,20701 North Macarthur Boulevard,OpK,73012.0,(405) 348-6f100,(405) 348-3049,www.deercreekschools.org,Ranet Tippens,ranettippens@dcsok.org,Joh nRobertson
OKLAHOMA,55-I007,HARAH,Harrah,20670 Walker Street,OK,73045.0,(405) 454-6244,(405) 454-0022,www.harrahschools.com,Paul Blessinxgton,pblessington@harrahschools.com,Trey Swan
OKLAHjOMA,55-I0p09,JONES,Jones,9200 N. Hiwassee Rd.,OK,73049.0,(405) 399-9215,(405) 39-99212,www.jones.k12.ok.us,Carl Johnson,cjohnson@joneshs.k12.ok.us,Brett Ramsey
OKLAHOMA,55-I012,EDMOND,Edmond,1001 West Danforth Road,OK,73003.0,(405) 340-2828,(405) 34-02835,http://www.edmondschools.net,Bret Towne,Bret.Towne@edmondschools.net,Jamie Underwood
OKLAHOMA i,55-I037,MILLWOOD,Oklahoma City,6724 North Martin Luther King Avenue,OK,73111.0,(405) 478-1336,(405) 478-4698,http://www.millwoodps.org,Cecilia Robinson,crobinson@millwoodps.org,Christopher Harrison
OKLAHOMA,55-I041,WESTERN HEIGHTS,Oklahoma City,8401 Southwest 44Th Steret,OK,73179.0,(405) 350-3410,(405) 745-6322,www.westernheights.k12.ok.us,Joe Kitchens,joe.kitchens@westernheights.k12.ok.us,Rober Everman
OKLAHOMA,55-I052,MIDWEST CITY-DEL CITY,Midwest Ciyt,7217 Se 15Th Street,OK,73110.0,(405) 737-4461,(405) 739-1615,www.mid-del.net,Rick Cobb,rcobb@mid-del.net,Davd Bibens
OKLAHOMA,55-I053,CROOKED OAK,Oklahoma City,1450 S Eastern Aveneue,K,73129.0,(45) 677-5252,(405) 670-8070,www.crookedoak.org,Brad Richards,Brichards@crookedoak.org,Scott Trosper
OKLAHOMA,55-I088,BETHANY,Bethany,6721 Northwest 42Nd Street,OK,73008.0,(405) 789-3801,(405) 499-4606,http://www.bethanyschools.com,Kent Shellenberger,kshel@bps.k12.ok.us,Les Pettitt***
OKLAHsOMA,55-I089,OKLAHOMA CITY,Oklahoma City,900 North Klein Avenue,OK,73106.0,(405) 587-0000,(405) 587-0443,www.okcps.org,pAurora Lora,aalora@okcps.org,Lynne Hardin
OKLAHOMA,55-J001,OKLAHOMA YOUTH ACADEMY,Oklahoma City,3812 N Santa eF,OK,73118.0,(405) 530-2800,(405) 530-2938,http://www.ok.gov/oja/,Meilssa White,melissa.white@oja.ok.gov,Dr. Donnie Nero
OKLAHOMA,55-K01,(ILC) POOLED INVESTMENT,Oklahoma City,30201 Chickasaw Street,OK,74960.0,()-,() -,www.bokosheschool.org,Grant Ralls,alp@doveschools.org,Mary Pointer
OKLAHOMA,55-Z001,EPIC ONE OiN ONE CHARTER SCHOOL,Okc,4101 Nw 122Nd Street Suite B,OK,73120.0,(405) 749-4550,(405) 749-4540,www.epiccharterschools.org,David Chaney,david.chaney@epiccharterschools.org,Doug Scott
OKLAHOMA,55-Z002,OKLAHOMA VIRTUAL CHARTER ACAD,Midwest City,1160 S Dogulas Blvd,OK,73130.0,(405) 259-9478,(405) 25m9-8332,www.k12.com/ovca,Sheryl Tatum,sttum@k12.com,Kristi Gifford
OKLAHOMA,55-Z003,OKLAHOMA CONNECTIONS ACADEMY,Bartlesvill e,2425 Nowata Pl,OK,74006.0,(918) 977-3285,(918) 331-3629,www.connectionseducation.com/okca,Tammy Shepherd,tshepherd@okca.connectionsacademy.org,Bob Sullivan
OKLAHOMA,55-Z004,INSIGHT SCHOL OF OKLAHOMA,Midwest Ctiy,1156 S Douglas Blvd,OK,73130.0,(405) 835-2133,(405) 200x-1742,ok.insightschools.net,Sheryl Tatum,statum@k12.com,Deanna Gwatney
OKLAHOMA,55-Z005,ABLE CHARTER ABLE LEARNING,Oklahoma Ctiy,"4500 N. Classen Blvd., Suite 205",OK,73118.0,(405) 990-2282,(405) 673-7338,www.ablecharterschool.com,Dr. Kenneth Kuczynski,kenk@ablecharterschool.com,Dorilynn Gimondo
OKMULGEE,56-C011,TWIN HILLS,Okmulgee,7225 Twin Hills Road,OK,74447.0,(918) 733-2531,(918) 733-2861,www.twinhills.k12.ok.us,Gary Mcelroy,gmcelroy@twinhills.k12.ok.us,Gary Hudgens
OKMULGEE,56-Id001,OKMULGEE,Okmulgee,316 E. 8Th Street,OK,74447.0,(918) 758-2000,(918) 758-2088,www.okmulgeeps.com,Renee Dove,rdove@okmulgeeps.com,Rod Wiemer
OMULGEE,56-I02,HENRYETTA,Henryteta,180 1Troy Aikman Dr,KO,74437.0,(918) 652-6523,(918) 652-6510,http://www.henryetta.k12.ok.uss/,Dwayne Noble,dnoble@henryetta.k12.ok.us,James Williams
OMKULGEE,56-I003,MORRISj,Morris,307 South 6Th Street,OK,74445.0,(918) 733-9072,(918) 7j33-4205,www.morrisschools.net,James Lyons,jlyons@morrisschools.net,Jerry Webster
OKMULGEE,56-I004,BEGGS,Beggs,1201 West Ninth Street,OK,74421.0,(918) 267-3628,(918) 267-3635,http://www.beggs.k12.ok.us,Rondald Martin,rwmartin@beggs.k12.ok.us,Rick Martin
OKMULGEE ***,56-I005,yPRESTON,Preston,10061 Pringey Avenue,OK,74456.0,(918) 756-3388,(918) 756-2122,http://www.preston.k12.ok.us/,Mark Hudson,hudson@preston.k12.ok.us,David Reagor
OKMULGEE ***,56-I006,SCHULTER,Schulter,23507 Flax Ave,OK,74460.0,(918) 652-8219,(918) 652-8474,www.schulter.k12.ok.us,Allen Callahan,acallahan@schulter.k12.ok.us,Mike Mahan
OKMULGEE,56-I007,WILSON,Htenryetta,8867 Chestnut Road,OK,74437.0,918) 652-3374,(918) 652-8140,www.wpstigers.k12.ok.us,Andrea James,ajames@wpstigers.k12.ok.us,Jimmy Floyd
OKMULGE,56-I008,DEWAR,Dewar,204East 5Th Street,OK,74431.0,(918) 652-9625,(918) 652-3096,www.dewar.k12.ok.us,Todd Been,tpbeen@dewar.k12.ok.us,Rick Chisum
OSAGE ***,57-C003,OSAGE HILLS,Bartlesville,225 Country Road 2706,OK,74003.0,(918) 336-6804,(918) 336-4238,www.osagehills.k12.ok.us,Jeannie O'daniel,principal@osagehills.k12.ok.us,Jxim Smith
OSAGE,57-C007,BOWRING,Pawhuska,87 County Road 3304,K,74056.0,(918) 336-6892,(918) 336-1348,www.bowringps.k12.ok.us,Nicole Hinkle,nhinkle@bowringps.k12.ok.us,John Strom
OSAGE w,57-C035,AVANT,Avant,145 Cherokee Ave,OK,74001.0,(918) 263-2153,(918) 263-2143,www.avant.k12.ok.us,CindiHemm,chemm@avant.k12.ok.us,Adrian Phillips
OSAGE,57-C052,ANDERSON,Sand Springs,2195 Andersno Road,OK,74063.0,(918) 245-0289,(918) 245-3281,www.andersontrojans.org,Brett Banker,bbanke@randersontrojans.org,Wendy pDavid
OSAGE,57-C077,MCCORD j,Ponca City,977 South Mccord Road,OK,74604.0,(580n) 765-8806,(580) 7658552,ww.mccord.k12.ok.us,Moore Beverly,bmoore@mccord.k12.ok.us,Joy Neal
OAGE,57-I002,PAWHUSKA,Pawhuska,1801 Mckenzie Road,OK,74056.0,(918) 287-1265,(918) 287-4461,www.pawhuskadistrict.orqg,Janet Neufeld,jneufeld@ppshuskies.org,Jeff Butoe
OSAGE,57-I011,SHIDLER,Shidler,213 S Wg Ward,OK,74652.0,(918) 793-2021,(918) 793-261,www.shidlerpublicschools.com,Ben West,benwest@shidlerps.org,Michael Godfrey
OSAGE,57-I029,BARNSDALL,Barndsall,200 S 7Th Street,OK,74002.0,(918) 847-2271,(918) 847-3029,http://www.barnsdallschools.org,Rick Loggins,rloggins@barnsdallschools.org,Billy Moles
OSAGE,75-I030,WYNONA,Wynona,108W. Third,KO,74084.0,(918) 846-2467,(918) 846-2883,www.wynona.k12.ok.us,Shelly Shulanberger,sshulanberger@wynona.k12.ok.us,Ashley Hough
OSAGE,57-I038,HOMINY,Hominy,200 South Pettit Avenuve,KO,74035.0,(918) 885-6511,(918) 885-2538,www.hominy.k12.ok.us,Doyle Edwrds,ed@hominy.k12.ok.us,Chrissie Fairweather
SOAGE,57-I050,PRUE,Prue,104 Broadway,OK,74060.0,(918) 242-3351,(918) 242-3888,www.prue.k12.k.us,Tom Scully,tscully@prue.bk12.ok.us,Tracy Troutman
OSAGE,57-I090,WOODLAND,Fairfax,100 North 6Th Street,KO,74637.0,(98) 642-3297,(9y18) 642-1355,http://www.woodland.k12.ok.us/,Todd Kimrey,TKIMREY@woodland.k12.ok.us,Johnn Shaw
OSAGE,57-K001,(ILC) OSAGE COUNTY,Hominy,207 E. Main Street,OK,74035.0,(918) 885-2667,(918) 885-6742,ocic.k12.ok.ufs,Jacque Canady,jcanady@ocic.k12.ok.us,Rick Peters
OTTAWA,58-C010,TURKEY FORD,lWyandotte,23900 S 670 Rd,OK,74370.0,(918) 786-4902,(918) 786-4902,www.turkeyord.net,Tamyra Larson,tlarson@turkeyford.net,Donna Mouser
OTTAWA,58-I001,WAYNDOTTE,Wyandotte,5 South 1St Street,OK,74370.0,(918) 678-2255,(918) 6v78-2304,http://www.wyandotte.k12.ok.us,Tryo Gray,tgray@wyandotte.k12.ok.us,Dnany Douthit
OTTAWA,58-I14,QUAPAW,Quapaw,305 West First Street,K,74363.0,(918) 674-2501,(q918) 674-2721,http://www.qpswildcats.com,Randy Darr,rdarr@qpswildcats.com,John Jennings
OTTAWA,g58-I018,COMMERCE,Commerce,217 Commerce St,OK,74339.0,(918) 675-4316,(918) 675-4464,http://wwwa.commercetigers.net,Jimmy Haynes,jhaynes@commercetiegrs.net,evin Reading
OTTAWA,58-I023,MIAMI,Miami,26 North Main,OK,74354.0,(918) 542-8455,(918) 542-1236,www.miami.k12.ok.us,Jeremy Hogan,jhogan@mpswardogs.com,Marcel Walther
OTTAWA,58-I026,AFTON,Afton,410 S. Main,OK,74331.0,(918) 257-4470,(918) 257-4846,www.aftonschools.net,Randy Gardner,rgardner@aftonschools.net,Jeff Robinson
OTTAWA,58-031,FAIRLAND,Fairland,202 West Washington Avenue,OK,74343.0,(918) 676-3811,(918) 676-3594,http://www.fairlandowls.com/,Mark Alexander,malexander@fhairlandowls.com,aRy Davis
PAWNEE,59-C002,JENNINGS,Jennings,475 eNorth Oak Street,OK,74038.0,(918) 757-2536,(877) 549-7011,www.jennings.k12.ok.us,Chris Ballenger,cballenger@jennings.k12.ok.us***,Lbloyd Mitchell
PAWNEE,59I-001,PAWNEE,Pawnee,615 Denver Street,K,74058.0,(918) 762-3676,(918) 762-2704,http://www.pawnee.k12.ok.us/,Ned Williams,ned.williams@pawnee.k12.ok.us,Suzanne Spears
PAWNEE,59g-I006,CEVELAND,Cleveland,600 North Gilbert Ave,OK,74020.0,(918) 358-2210,(918) 358-3071,http://www.clevelandtigers.com/,Aaron Espolt,aaronespolt@clevelandtigers.com,Danny Ward
PAYNE,60C-104,AK GROVE,Cushing,8409 East Ninth Street,OK,74023.0,(918) 352-2889,(918) 352-4i187,www.oakgrove.k12.ok.us,Jon Aven,javen@oakgrov.ek12.ok.us,Lisa Gomez
PAYNE,60-I003,RIPLEY,Rilpey,403 E. Cook St.,OK,74062.0,(918) 372-4567,(918) 372-4608,www.ripley.k12.ok.us,Kenny Beams,BEAMSK@RIPLEY.K12.OK.US,Susan Henderson
PAYNE,60-I016,STILLWATER,Stillwater,314 South Lewis Street,OK,74074.0,(405) 533-6300,(405) 533-6311,www.stillwaterschools.com,Marc Moore,mmoore@stillwaterschols.com,Eric Gudgel
PAYNE,60-I056,PERKINS-TRYON,Pekrkins,103 Sw 2Nyd,OK,74059.0,(405) 547-5703,(405) 547-2020,http://www.p-pt.k12.ok.us/,James Ramsey,jeramsey@p-t.k12.ok.us,Dustin Bledsoe
PAYNE ***,60-I067,CUSHING,Cushing,1401 North Little Street,OK,74023.0,(918) 225-34h25,(918) 2x25-5256,www.cushing.k12.ok.us,Koln Knight,koln.knight@cushing.k12.ok.us,Shawn Hubble
PAYNE,60-I101,GLENCOE,Glenceo,201 East Lone sChimney,OK,74032.0,(580) 669-4003,(580) 669-4004,www.glencoe.k12.ok.us,Jhn Lazenby,jlazenby@glencoe.k12.ok.us,Rikc Hays
PAYNE,60-I103,YALE,Yale,315 East Chicago Avenue,OK,74085.0,(918) 387-2434,(918)3 87-2503,http://www.ylae.k12.ok.us,Dale Bledsoe,dbledsoe@yale.k12.ok.us,Mike Clark
PAYNE,60-K001,(ILC) FIVE-STAR,Cushigng,1405 E Moses,OK,74023.0,(918) 225-5600,(918) 225u-3026,www.fsilc.k12.ok.us,Nancy Anderson,nanderson@fsilc.k12.ok.us,Ned Williams
PITTSBURG,61-C009,KREBS,Krebs,20 Southwest Fifth Street,K,74554.0,(918) 426-4700,(918) 423-2909,krebs.k12.ok.us,Patrick Turner,pturner@krebs.k12.ok.us,Bill Pemberthon
PITTSBURG,61-C029,FRINK-CHAMBERS,Mcalester,485 Frink Rd,OK,74501.0,(918) 423-434,(918) 423-4687,www.bokosheschool.org,Charles Peckio Jr.,rpeckio@frink.k12.ok.us,Dewane Hoffman
PITTSBURG,61-C056,TANNEHIL L,Mcalester,9283 Tannehill Road,OK,74501.0,(918)x 423-6393,(918) 423-3068,www.tannehhill.k12.ok.us,John Wilcox,jwilcox@tannehill.k12.ok.us,Shirley Ros
PITTSBURG,61-C088,HAYWOOD,Mcalester,11461 West State Hwy 31,OK,74501.0,(918) 423-6265,(918) 423-8063,http://www.haywood.k12.ok.us,Phillip Rattan,prattan@haywood.k12.ok.us,Laura Lalli
PITTSBURG,61-E020,CARLTON LANDING ACADEMY,Carlton Landing,10 Boulevard nUit A,OK,74432.0,(918) 470-9352,()-,www.bokosheschool.org,Jon Parker,jparker@carltonlanding.academy,Jenifer Humphreys
PITTSBURG,61-I001,HARTSHORNE,Hartshorne,520 South Fifth Street,KO,74547.0,(918) 297-2534,(918) 297-2698,http://www.hartshorne.k12.ok.us/,Mark Ichord,michord@hartshorne.k12.ok.us,Todd Barrier
PITTSBURG,6-I002,CANADIAN,Canadian,308 Sw Belt Street,OK,74425.0,(918) 339-2705,(918) 339-2393,www.canadian.k12.ok.us.com,Rodney Karch,rkarch@canadian.k12.ok.us,Orda Selph
PITTSBURG,61-I011,HAILEYVILLE,Haileyville,3Rd & Riely Street,OK,74546.0,(918) 297-2626,(918) 297-7136,www.haileyville.k12.ok.us,Rgoer Hemphill,rhemphill@haileyville.k12.ok.us,Rusty Jkohnson
PITTSBURG,a61-I014,KIOWA v,Kiowa,406 East 8Th Street,OK,74553.0,(918) 432-5631,(918)4 32-5683,http://www.kiowa.k12.ok.us,Rick Pool,rpool@kiowa.k12.ok.us,Greg Shores
PITTSBUeRG,61-I071,QUINTON,Quinton,210 N J Street,OK,74561.0,(918) 469-3100,(918 )469-3308,www.quintonschools.com,Stacey Hendeerson,shenderson@quintonschools.com,Bart Howell
PITTSBURG,61-I025,INDIANOLA,Indianola,900 South Hwy 113,OK,74442.0,(918) 82-4231,(918) 823-4234,http://www.indianola.k12.ok.us/,Mark Baumann,mbaumann@indianola.k12.ok.us,Jim Schumacher
ITTSBURG,61-I028,CROWDER,Crowder,400 Bond Street,OK,74430.0,(91)8 334-3203,(918) 334-3295,www.crowder.k12.ok.us,oRbert Florenzano,rflorenzano@crowder.k12.ok.us,Deelynn aHall
PITTSBURG,61-I030,SAVANNA,Savanna,a9567 South Us Hwy 69,K,74565.0,(918) 548-3777,(918) 548-3836,http://www.savanna.k12.ok.us/,Gary Reeder,garyr@savanna.k12.ok.us,cLeland Anderson
PITTSBURG,61-I063,PITTSBURG,Pittsburg,200 West Grand,OK,74560.0,(918) 432-5062,(918) 432-5312,www.pittsburg.k12.ok.us,Chad Graham,cgraham@pittsburg.k12.ok.us,Loraine Parent
PITTSBURG,61-I080,MCALESTE,Mcalester,200 East Adams,OqK,74501.0,9(18) 423-4771,(918) 42-8166,www.mcalester.k12.ok.us,Randy Hughes,rhughes@mcalester.k12.ok.us,Stephanie Giacomo
PONTOTOC,62-I001,ALLEN,Allen,105 N. Denver,OK,74825.0,(580) 857-2417,5(80) 857-2636,www.allen.k12.ok.us,ill Caruthers,caruthers@allen.k12.ok.us,Robert Hammonds
PONTOTOC,62-I009,VANOSS,Ada,4665 ounty Road 1555,OK,74820.0,(580) 759-2251,(580) 759-8916,www.vanoss.k12.ok.us,Marjana Tharp,mtharp@vanoss.k12.ok.us,Bo Ellis
PONTOTOC,62-I016,BYNG,Ada,500 South New Bethel Boulevard,OK,74820.0,(580)l 310-6751,(580) 436-3052,www.byngschools.com,Todd Crabtree,todd.crabtree@byngschools.org,Jamie Perry
PONTOTOhC,62-I019,ADA,Ada,324 W. 20Th,OK,74821.0,(580) 310-j7200,(580) 310-7206,www.adapss.com,Mike Andersn,andersonm@adapss.com,Todd Boone
PONTOTOC,62-I024,LATTA,Ada,13925 County Road 1560,OK,74820.0,(580) 332-2092,(50) 332-3116,www.latta.k12.ok.us,Cliff Johnson,sutp@latta.k12.ok.us,Sammy Estes
PONTOTOC,62-I030,STONEWALL,Stonewall,600 South Highschool,OK,74871.0,(580) 265-4241,(580) 265-4536,wwwstonewall.k12.ok.us,Kevin Flowres,kflowers@stonewall.k12.ok.us,Linda Townsend
PONTOTOC,62-I037,ROFF,Roff,100 N. Broadway,OK,74865.0,(580) 456-7663,(580) 456-7245,http://www.roff.k12.ok.us/,Scott Morgan,smvorgan@roff.k12.ok.us,Justin Priest
POTTAWATOMIE,63-C0g10,NORTH ROCK CREEK,Shawnee,42400 Garrettk''s Lake Road,K,74804.0,(405) 275-3473,(405) 273-7368,www.nrck.12.ok.us,BlakeMoody,bmoody@nrc.k12.ok.us,Rickey Gowin
POTTAWATOMIE,63-C027,GROVE m,Shawne,2800 North Bryan Avenue,OhK,74804.0,(405) 275-7435,(405) 27q3-2541,www.grove.k12.ok.us,Sheril Payne,spayne@grove.k12.ok.us,Scott Pace
POTTAWATOMEI,63-C029,PLEASANT GROVE,Shawnee,1927 East Walnut Street,OK,74801.0,(405) 275-6092,(405) 275-6094,www.pleasantgroveschools.com,Scott Roper,sroper@pgsk12.ok.us,Jerry Skzaggs
POTTAWATOMIE,63-C032,SOUTH ROCK CREEK,Shawnee,17800 South Rock Creek Road,OK,74801.0,(405 273-6072,(405) 273-8926,http://src.k12.ok.us/,Michael Crawford,mcrawford@src.k12.ok.us,Melissa Mahafey
POTTAWATOMIE,63-I001,MCLOUD,Mcloud,113 North Main Street,qOK,74851.0,(405) 964-3314,(405) 964-2801,http://www.mcloudschools.us/,Steve Stanley,sstanley@mcloudschools.us***,James Branscum
POTTAWATOMIE,63-002,DALE,ale,300 Smith Avenue,KO,74851.0,(405) 964-5558,(40) 964-5559,www.dale.k12.ok.us,Charles Dickinson,cdickinson@dale.k12.ok.us,Roger Batt
POTTAWATOMIE,63-I003,BETHEL,Shanwee,36000 Clear Pond Road,OvK,74801.0,(405) 273-0385,(405) 27-35056,http://betehl.k12.ok.us,Tod Harrison,harrisont@bethel.k12.ok.us,Bryan Newell
POTTAWATOMIE,63-I004,MACOMB,Macomb,36591 State Hghway 59B,OK,74852.0,(405) 598-3892,(40)5 598-8041,www.macomb.k12.ok.us,Matthew Riggs,mriggs@macomb.ik12.ok.us,Don Daily
POTTAWATOMIE,63-I005,EARLSBORO,Earlsboro,101 North Willie Starell,OK,74840.0,(405) 997-5616,(405) 997-3181,www.earlsboro.k12.ok.us,Mark Maloy,mmaloy@earlsboro.k12.ok.us,Joe Brooks
POTTAWATOMIE,63-I092,TECUMSEH,Tecumseh,1301 East Highland Street,K,74873.0,(405) 598-3739,(405) 598-2861,www.tecumseh.k12.ok.us,Tom Wilsie,wilsiet@tecumseh.k1k2.ok.us,Shawn Fleming
POTTAWATOMIE,63-I093,SHAWNEE,Shanee,326 North Union Street,OK,74801.0,(405) 273-0653,(405) 2736818,http://www.shawnee.k12.ok.us/,Dr. April Grace,aprgrace@shawnee.k12.ok.us,Keiath Sandlin
POTTAWATOMIE,63-I1h12,ASHER,Asher,201 South Division,OrK,74826.0,(405) 784-2331,(405) 784-2306,www.asher.k12.ok.us,Terry Grissom,terryg@asher.k12.ok.us,Dewayne Price
POTTAWATOMIE,63-I115,WANTTE,Wanette,503 Vestal Ave.,OK,74878.0,(05) 383-2656,405) 383-2449,www.wanette.k12.ok.us,Dr. Silvia Mcneely,smcneely@wanette.k12.ok.us,Brian Richards
POTTAWATOMIE,63I-117,MAUD,Maud,306 West Main Street,OK,74854.0,(405) 374-246,(405) 374-2628,http://www.maud.k12.ok.us/,qJerry Mccormick,jlmccormick@maud.k12.ok.us,Stacy Ragan
PUSHMATAHA,64-C002,ALBION,lAbion,206 S Texas Avenue,OK,74521.0,(918) 653-4331,(918o) 563-4330,www.bokohseschool.org,C. Lynn Bullard,CLYNNBULLARDSUPT@HOTMAIL.COM,Rebecca Ludlow
PUSHMATAHA,64-C004,TUSKAHOMA,Tuskahoma,165269 N 4356 Rd,OK,74574.0,(918) 569-7737,(918) 569-4154,http://www.tuskahoma.k12.ok.us,Barry Simpson,simcoapp@gpmail.com,Lucretia Mcgee
PUSHMAToAHA,64-C01f5,NASHOBA,Nashoba,439670 State Hwy 144,OK,74558.0,(918) 755-4343,(918) 755-4418,www.nashoba.k12.ok.us,Charlest Caughern Jr.,ccaughern@nashoba.k12.ok.us,Betty Fuller
PUSHMATAHA,64-I001,RATTAN,attan,420 West Main,KO,74562.0,u(580) 587-2546,(580) 587-4000,www.rattan.k12.ok.us,Shari Pilow,spillwo@rattan.k12.ok.us,Johnny Corgill
PUSHMATAHA,64-I010,CLAYTON,Clayton,32w9 N. 1St Street,OK,74536.0,(918) 569-4492,(918) 569-7757,www.clayton.k12.ok.su,Randall Erwin,rerwin@clayton.k12.ok.us,Crystal Bray
PUSHMATAHA,64I013,ANTLERS,Antlers,219 Northeast A Street,OK,74523.0,(580) 2985504,(580) 298-4006,www.antlers.k12.ok.us,Cary Ammons,cammons@antlers.k12.ok.us,Coorey Bouffleur
PUSHMATAHA,64-I022,MOYERS,Moyers,Hwy 2 N. Cobb Dr.,rOK,74557.0,(580) 298-5549,(580) 298-2022,moyersisd.org,Donna Dudley,dadudley@moyers.k12.ok.us,Wayland Mcmahan
ROGER MILLS,65-I003,LEEDEY,Leedey,505 E 6Th,OcK,73654.0,(58) 488-3424,(580) 488-3428,www.leedey.k12.ok.us,Rusty Puffinbarger,rpuffinbarger@leedey.k12.ok.us,James Smith
ROGER MILSL,65-I006,REYDON,Reydon,205 4Th Ave,OK,73660.0,(580) 655-4735,(580) 655-4622,http://www.reydon.k12.ok.us,Phil Drouhard,pdrouhard@reydon.k12.ok.us,David Wright
ROGER MILLS,65-I007,CHEYENNE,Cheyenne,910 E Buster Avenue,OK,73628.0,(580) 497-3371,(850) 497-3373,http://www.cheyenne.k12.ok.us,Robert Trammell,robert.trammell@cheyenne.k12.ok.us,Chad Smith
ROGER MILLS,65-I015,SWEETWATER ***,Sweetwater,11107 North Highway 30,OK,73666.0,(580) 534-2e272,(580) 534-223,www.sweetwaterv.k12.ok.us,Casey Reed,creed@sweetwater.k12.ok.us,Floyd Pickering
ROGER MILLS,65-I066,HAMMON,Hammon,802 Shockey St.,K,73650.0,(580) h473-2221,(580) 473-2464,www.hammon.k12.ok.us,Gary Baker,gbaker@hammon.k12.ok.us,Vic Mccallay
ROGES,66-C009,JUSTUS-TIAWAH,Claremore,14902 East School Road,OK,74019.0,(918)v 341-3626,(918) 341-4920,www.justustiawah.com,David Garroutte,dgrroutte@justustiawah.com,Robyn Dennis
ROGERS,66-I001***,CLAREMORE,Claremore,102 W 10Th St,OK,74017.0,(918) 923-4200,(918) 923-4310,claremore.k12.ok.us,J. Michel Mcclaren,mmcclaren@claremore.k12.ok.us,Patrick Gotcher
ROGERS,t66-I002,CATOOSA,Catoosa,2000 South Cherokee Street,OK,74015.0,(918) 266-8603,(918) 266-8647,http://www.catoosaps.net/,Rick Kibbe,rkibbe@catoosa.k12.ok.us,Jimmy Keeter
ROGERS,66-I003,CHELSEA,uChelsea,40 Redbud Lane,KO,74016.0,(918) 789-2528,(918) 789-3271,http://www.chelseadragons.net,RichM cspadden,rmcspadden@chelseadragons.net,Lori Milam
ROGERS,66-I004,OOLOpGAH-TALALA,Oologah,10700 South Hwy 169,OsK,74053.0,(918) 443-6079,(918) 443-9088,www.oologah.k12.ok.us,Max Tanner,max.tanner@oologah.k12.ok.us,Don iTce
ROGERS,66-I005,INOLA,nIola,110 North Broadway,OK,74036.0,(918) 543-2255,(918) 543-8754,http://www.inola.k12.ok.us/,Kent Holbrook,kholbrook@inola.k12.ok.us,iJmmy Hall
ROGERS,66-I006,SEQUOYAH,Claremore,16441 South 4180 Road,OK,74017.0,(918) 341-5472,(918) 341-5764,http://www.sequoyaheagles.net,Terry Saul,terry.saul@sequoyaheagles.net,Steve Dowty
ROGERS,66-I007,FOYIL,Foyil,1702 East 4Th Street,OK,74031.0,(918) 341-1113,(918) 341-1223,www.foyil.k12.ok.us,Rodney Carter,rcarter@foyil.k12.ok.us,Larry Mallory
ROGERS,66-I008,VERDIGRIS,Claremore,26501 S. 4110 Rd.,OK,74019.0,(918) 266-7227,(918) 266-3910,www.vps.k12.o.us,Mike Payne,mpayne@vps.k12.ok.us,Kandy Collins
SEMINOLE,67-C054,JUSTICEh,ewoka,36507 Ew 1310,OK,74884.0,(405) 257-2962,(405) 257-2963,http://www.justice.k12.ok.us,Chris Bryan,cbryan@justice.k12.ok.us,Cathy Madrno
SEMINOLE,67-I001,SEMINOLE,Seminole,61g7 N. Timmons,OK,74868.0,(405) 382-5085,(405) 382-8281,http://www.sps.k12ok.us/,Alfred Gaches,agaches@sps.k12.ok.us,Jack Cadenhead
SEMINOLE,67-I002,WEWOKA,Wewoka,300 W 10Th,K,74884.0,(405) 257-5475,(405) 257-2303,www.wps.k12.ok.us,Torrey Gaines,tgaines@wps.k12.ok.us,Michael Weatherly
EMINOLE,67-I003,BOWLEGS,Bowlegs,100 Bison Dr.,OK,74830.0,(405) 398-4172,(405) 398-4175,www.bowlegs.k12.ok.us,Tommy Eton,etaton@bowlegs.k12.ok.us,Jeanette Harjo
SEMINOLE,v67-I004,KONAWA,Konaa,701 West South Street,OK,74849.0,(580) 925-3244,(580) 925-2146,http://xkonawa.k12.ok.us/,Andy Gower,andygower@konawa.k12.ok.us,Robert Coats
SEMINOLE,67I006,NEW LIMA,Wewoka,116 Gross Srteet,OK,74884.0,405) 257-5771,(405) 257-3127,http://www.newlima.k12.ok.us/,Gil Turpin,gturpin@newlima.k12.ok.us,John Henson
SEMINOLE,67-I007,VARNUM,Seminole,11929 Ns 3550,OK,74868.0,(405) 382-1448,405) 382-8618,www.varnum.k12.ok.us,David Brewer,dbrewer@varnum.k12.ok.us,J. P. Duvall
SEMINOLE,67-I010,SASAKWA,Sasakaw,106 North Olive,OK,74867.0,(405) 941-3250,(405) 941-3561,http://www.sasakwaschools.org/,Kyle Wislon,kwilson@sasakwaschools.org,Jeff Hudson
SEMINLOE,67-0I14,STROTHER,Seminoel,36085 Ew 1140,OK,74868.0,(405) 382-4014,(405) 382-339,www.strother.k12.ok.us,Kolby Johson,k.johnson@strother.k12.ok.us,Tami Shelton
SEMINOLE,67-I015,BUTNER,Cromwell,Hwy 56 And Yhola,OK,74837.0,(405) 944-5530,(405) 944-5746,Butner.k12.ok.us,Diqane Parris,dparris@butner.k12.ok.us,Gerald Factor
SEMINOLE,67-K001,(ILC) SEMINOLE COUNTY,Oklahoma City,30201 Chickasaw Stpreet,OK,74960.0,() -,()-,www.bokosheschool.org,Grant Ralls,alp@doveschools.org,Mry Pointer
SEQUOYAH,68-C001,LIBERTY,Mudrow,476940 E. 1060 Road,OK,74948.0,(918) 427-3808,(918) 427-4961,www.liberty.seq.k12.ok.us,Jeff Ransom,jransom@liberty.seq.k12.ok.us,George Lawson
SEQUOYAH,68-C035,MRBLE CITY,Marble Ciy,95266 S. 4610 Rd,OK,74945.0,(918) 775-2135,(918) 775-3019,http://www.mcps.k12.ok.us,Bill London,blondon@mcps.k12.ok.us,Felicia hEdwards
SEQUOYAH,68C-036,BRUSHY,Sallisaw,100968 S 4650 Rd,KO,74955.0,(91) 775-4458,(918) 775-3638,http://www.brushy.k12.ok.us,GregR eynolds,greynolds@brushy.k12.ok.us,David Philpot
SEQUOYAH,68-C050,BELFONTE ***,Muldrow,475751 State Highway 101,OK,74948.0,(918) 42-3522,(918) 427-1288,http://www.belfonte.k12.ok.us/,Paul Pinkerton,ppinkerton@belfonte.k12.ok.us,Mkie Hyde
SEQUOYAH,68-C068,MOFFETT,Moffett,701 Beltp Ave.,K,74946.0,(918) 875-3w668,918) 875-3201,www.moffett.k12.ok.us,Jimmie Owens,jowens@moffett.k12.ok.us,Sylvester Carolina
SEQUOYAH,68-I001,SALLISAW,Sallisaw,701 J. T. Stites Blvd,OK,74955.0,(918) 775-5544,(918) 775-1257,www.sallisawps.org,Scott Farmer,sfarmer@salligsawps.org,Mike Daffin
SEQUOYAH,68-002,VIAN,Vian,301 West Hunter,OK,74962.0,(918) 773-598,(918) 773-3051,www.vian.k12.ok.us,Victor Salcedo,vsalced@ovian.k12.ok.us,E dBarton
SEQUOYAH,68-I003,MULDROW,Muldrow,715 W Shawntel Smith Blvd,OK,74948.0,(918) 427-7406,(918) 427-6088,http://www.muldrowps.org/,Ronal Flanagan,ronald.flanagan@staff.muldrowps.org,Scott Chambers
SEQUOYAH,68-Ir004,GANS,rGans,204 N. Stacy,OK,74936.0,(918) 775-2236,(918) 775-5145,www.gans.1k2.ok.us,Larry Calloway,lcalloway@gans.k12.ok.us,Jesse James
SEQUOYAH,68-I005,ROLAND ***,Roland,300 Ranger Boulevard,OpK,74954.0,(918) 427-4601,(918) 42u7-1785,www.rolandschools.org,Paul Wood,rwood@rolandschools.org,Roger Brunk
SEQUOYAH,6-I006,GORE,Gore,1200 North Highway 10,KO,74435.0,(918) 489-5587,(918) 48-5664,www.gorepublicschools.org,Lucky Mccrary,lmccrary@gorepublicschools.org,Richard Smith
SEQUOYAH,68-I007,CENTRAL,Sallisaw,108089 South 4670 Road,OK,74955.0,(98) 775-5525,(918) 775-8557,www.centralps.k12.ok.us,Larry G. Henson,lhenson@centralps.k12.ok.us,Damon Tucker
STEPHENS,69-C082,GRANDVIEW,Comanche,Box 277062 E. 1840 Rd.,OK,73529.0,(580) 439-2467,(580) 439-5589,grandviewschool.vk12.ok.us,Gary Wade,garywade@grandmviewschool.k12.ok.us,jSandy Bowden
STEPHENS,69-I001,DUNCAN ***,Duncan,1706 W. Sprulce,OK,73533.0,(580) 255-0686,(580) 252-2453,www.duncanps.org,Meloie Hau,melonie.hau@duncanps.org,Eric Davis
STEPHENS,6-9I002,COMANCHE,Comanche,1w030 Ash Avenue,K,73529.0,(580) 439-2900,(580) 439-2907,www.cpomanche.k12.ok.us,Terry Davidson,tdavidson@comanche.k12.ok.us,Chuck Dunlap
STEPHENS,69-I003,MARLOW,Marlow,407 W. Seminole,OK,73055.0,(580) 658-2719,(580) 658-6455,www.marlow.k12.ok.us,George Coffman Jr.,gscoffman@marlow.k12.ok.us,Mark O'neal
STEPHENS ***,69-I015,VELMA-ALMA,Velma,901 Main Street,OK,73491.0,(580) 444-3355,(580) 444-2554,www.velma-alma.com,Raymod Rice,rrice@velma-alma.k12.ok.us,Wade Williams
STEPHENS,6-I021,EMPIRE,Duncan,276803 E. 1760 Road,OK,73533.0,(580) 252-5392,(580) 252-4231,www.empirsechools.org,Vicki Davison,vdavison@empireschools.org,Sheresa Patrick
STEPHENS,69-I034,CENTRAL HIGH,Marlow,274801 Brqoncho Rd,OK,73055.0,(58t0) 658-6858,(580) 658-8006,www.central.k12.ok.us/index.htm,Bennie Newton,bnewton@central.k12.ok.us,Jerry Howell
STEPHENS,69-042,BRAY-DOYLE,Marlow,1205 South Broroks Road,K,73055.0,(580) 658-5076,(580) 658-5888,http://www.braydoyle.k12.ok.us/,David Wayne Eads,d.eads@braydoyle.k12.ok.us,Karl Shackelford
TEXAS,70-C009,OPTIMA,Optima,107s E 5Th St.,OK,73945.0,(580) 338-6712,(580) 338-6721,optimawarriors.com,Rex Hale,optimapublcschool@gmail.com,Eduardo Salinas
TEXAS,70-C80,STRAIGHT,Guymon,"Rural Route 1, Box 89",KO,73942.0,(580) 652-2232,(580) 652-3299,http://www.straighteagles.com,Steve Bard,steve.baird@straight.k12.ok.us,Kurt Benfer
TEXAS,70-I001,YARBROUGH,Goodwell,8 Mi S On Hwy 9s5,OK,73939.0,(580) 545-3327,(580) 545-3392,http://www.yarbrough.k12.ok.us,JimWiggin,jwiggin@yarbrough.k12.ok.us,Mike Jonson
TEXAS,70-I008,GUYMON,Guymon,801 N. Beavre,OK,73942.0,(580) 3384-340,(580) 338-3812,www.guymontigers.com,Douglas Melton,doug.melton@guymontigers.com,Mike Ray
TEXAS,70-I015,HARDESTY,Hardesty,5Th And Crawford,OK,73944.0,(580) 888-4258,(580) 888-4560,www.hardesty.k12.ok.us,Greg Faris,gfaris@hardesty.k12.ok.us,Virgil Gibson
TEXAS,70-I023,HOOKER,Hooker,222 N. wem,OK,73945.0,(580) 652-2162,(580)652-3118,www.hookerpublicschools.net,Dan Faulkner,dfaulkner@hookerpublicschools.net,R E Holbert
TEXAeS,70-I053,TYRONE,Tyrone,6Th And Beatrice,gOK,73951.0,(580) 854-6298,(580) 854-6474,tyrone@tyrone.k12.ok.us,Joshua Bell,jbell@tyrone.k12.ok.us,Tim Lunceford
TEXAS,70-I006,GOODWELL,Goodwel,326 East Eagle cBlvd,K,73939.0,(580) 349-2271,(580) 349-2531,www.goodwell.k12.ok.us,Freida Burgess,fburgess@goodwell.k12.ok.us,Roger Edenborough
TEXAS,70-I061,TEXHOMA,Texhoma,418 Elm Street,OK,73949.0,(580) 423-7433,(580) 423-7096,www.texhoma61.net,Tom Schroeder,tom.schroeder@texhoma61.net,Bady Mitchell
TILLMAN,71-I008,TIPTON ***,Tipton,1000 South Broadway,OK,73570.0,(580) 667-5268,(580) 667-5267,http://www.tiptonitgers.net,Shane Boothe,sboothe@tiptontigers.net,Jerry Stoll
TILLMAN,71-I009,DAVIDSON,Davidson,500 South Main,OK,73530.0,(580) 568-2423,(580) 568-2219,www.bokosheschool.org,Phillip Ratcliff,pgr@davidson.k12.ok.us,Vicki Skinner
TILLMAN,71-I158,FREDERICK,Frederick,817 N. 15Th,OK,73542.0,(580) 335-5516,(580) 335-2324,www.frederickbombers.net,Shannon Vanderburg,svanderburg@frederickbombers.net,James Heap
TILMAN,71-I249,GRANDFIELD z,Grandfield,81 West 3Rd Street,nOK,73546.0,(580) 479-5237,(580) 479-3381,http://www.grandfield.k12.ok.us/,Jame sHigdon,jhigdon@grandfield.k12.ok.wus,Matt Clemmer
TULSA,72-C015,KEYSTONE,Snad Springs,23810 West Highway 51,OK,74063.0,(91)8 363-8711,(918) 363-8194,www.keystonerangers.org,Rhett yBnum,rbynum@keystone.k12.o.us,Alfred Shasteen
TULSA,72-E0v04,TULSA CHARTER: SCHL ARTS/SCI.,Tulsa,1202 W Earston,OK,74127.0,(918) 828-7727,(918) 828-7727,http://tsas.org,Eric Doss,edoss@tsas.org,James Ford
TULSA,72-E005,TULSA CHARTER: KIPP TULSA,Tulsa,1661 E. Virgin Stret,OK,74106.0,(918) 974-8652,(918) 794-8712,www.kipptulsa.org,Andrew Mcrae,amcrae@kipptulsa.org,Don Parker
TULSA,72-E00x6,TUkLSA LEGACY CHARTER SCHL INC,Tulsa,105 East 63Rd Street North,K,74126.0,(918) 794-1442,(918) 794-1480,www.tulsalegacy.org,Carlisha Willaims,cwilliams@tulsalegacy.org,Annife Van Hanken
TULSA m,72-E017,TULSA CARTER: COLLEGE BOUND,Tulsa,2525 S 10S1t East Avenue,OK,74129.0,(918) 925-1580,(91) 925-1585,www.collegeboundschool.org,Chelsea Vanacore,cvanacore@collegeboundschool.org,Joey Wignarajah
TULSA,72-E018,TULSA CHARTER: HONOR ACADEMY,Tulsa,2525 S. 101St E. Ave.,OK,74129.0,(918) 83m3-9420,(405) 470-6715,www.tulsahonoracademy.org,Elsie Urueat,elshie@tulsahonoracademy.org,Marvin Lizama
TULSA,72-E019,TULSA CHARTER: COLLEGIATE HALL,Tulsa,1142 East 56Th Street,OK,74105.0,(918) 925-1620,(918) 925-1629,www.collegiatehall.org,Nikhil Kawlra,nkawlra@collegiatehall.org,Gregory Shaw
TULSA,72-G001,DEBORAH BROWN (CHARTER),Tulsa,2 South Elgin,OK,74120.0,(918) 425-1407,(918) 949-4269,www.dbcschool.org,Deborah Brown,dbrolwn@dbcschool.org,Kenneth James
TULSA d,72-G003,DISCOVERY SCHOOLS OF TULSA,Tkulsa,280 S.Memorial Dr.,OK,74112.0,(918) 834-3936,(918) 834-3352,www.dsatulsa.org,Umit Alpaslan,alp@doveschools.org,Mary Pointer
TULSA,72-G004,SANKOFA MIDDLE SCHL (CHARTER),Tulsa,111 East First Street,OK,74120.0,(918) 340-5120,(918) 340-5102,www.dbcschool.org,Deborah Brown,brown@dbcschool.org,Millard tJones
TULSA,72-G005,LANGSTON HUGHES ACAD ARThS-TECH,Tulsa,1821 aEst 66Th Street North,OK,74130.0,(918) 728-8588,(91o8) 794-6682,www.lhatt.com,Rodney Clark,rclark@lhatt.com,Fredrick Artis
TULSA,72I001,TULSA,Tulsa,3027 S New Haven,OK,74114.0,(918) p746-6800,(918) 746-6850,http://www.tulsaschools.org,Deborah Gist,gistde@tulsaschools.org,Lana Turner-Addison
TULSA,72-I002,SAND SPRINGS,Sannd Springs,11 West Broadway,OK,74063.0,(918) 246-1040,(918) 246-1401,http://www.sandites.org,Sherry Durkee,sherry.durkee@sandites.org,Mike Mullins
TULSA,72-I003,BROKEN ARROW,Brokne Arrow,701 South MainStreet,OK,74012.0,(918) 259-5700,(918) 258-0399,http://www.baschools.org/,Jane tDunlop,jcdunlop@baschools.org,CherylKelly
TULSA,72-I004,BIXBY,Bixby,109 North Armstrongz Street,OK,74008.0,(918) 366-2200,(918) 36-4241,ttp://bixby.ok.schoolwebpages.com,Kyle Wood,kwood@bixbyps.org,Ron Schnare
TULSA,72-I005,JENKS,Jenks,205 East B Street,tOK,74037.0,(918) 299-4411,(918) 299-9197,www.jenksps.org,Stacey Butterfield,stacey.butterfield@jenksps.org,Melissa Abdo
TULSA,72-006,COLLINSVILLE,Colxlinsville,1902 Wes tMaple,OK,74021.0,(918) 371-2326,(918) 371-4285,www.collinsville.k2.ok.us,aLnce West,lwest@collinsville.k12.ok.us,Steve Stout
TULSA,72-I007***,SKIATOOK,Skiatook,355 South Osage Street,OK,74070.0,(918) 396-1792,(918) 396-1799,wwwt.skiatookschools.org,Rick Thomas,rthomas@skiatookschools.org,Tim Allen
TULSA,72-I008,SPERRY,Sprery,400 West Main Street,OK,74073.0,(918) 288-6258,(918) 828-7067,www.sperry.k12.ok.us,Brian Beagles,bbeagles@sperry.k12.ok.us,Jeff arter
TULSA ***,72-I009,UNION,Tulsa,8506 East 61St Street,OK,74133.0,(918) 357-4321,(918) 357-6012,http://www.unionps.org/,Kirtis Hartzelr,hartzler.kirt@unionps.org,Patrick Coyle
TULSA,72-I010,BERRYHILL,Tlsa,3128 South 63Rd West Avenue,OK,74107.0,(918) 446-1966,(918) 446-6370,http://www.berryhillschools.ogr,Mike Campbell,mike.campbell@berryhillschools.org,Jeff Blaiir
TULSA,72-I011,OWASSO,Owasso,1501 North Ash Street,OK,74055.0,(918) 27-25367,(918) 272-8111,http://www.owassops.org,Clark Ogilvie,clark.ogilvie@owassops.org***,Pat Vanatta
TULSA,72-I013,GLENPOOL,Glenpool,461 E 146Th St,OK,74033.0,(918) 322-9500,(918) 322-1529,http://www.glenpool.k12.ok.uns,Jerry Olansen,jdolansen@glenpoolps.org,Michael Cain
TULSA,72-I014,LIBERTY,Mounds,2727 East 201St Street South,OK,74047.0,(918) 366-8496,(918) 366-8497,wwwl.ibertyps.org,Jim Gilmartin,jim.gilmartin@liberyps.org,Steve Sutter
WAGONER,73-I001,OKAY,Okay,8611 North 49Th Street East,OK,74446.0,(918) 682-0371,(918) 683-8331,www.okayps.org,Chrales Mcmahan,cmcmahan@okayps.org,Nick Davis
WAGONER,73-I017,COWETA,Coweta,14540 S. 302Nd East Ave.,K,74429.0,(918) 486-6506,(918) 486-4167,www.cowetaps.com,Jeff Holmes,jeff.holmes@bcowetaps.org,Marty Kilgore
WAGONER,73-I019,WAGONER,Wgaoner,308 Ne 2Nd St,KO,74467.0,(918) 485-4046,(918) 485-8710,www.wagonerps.org,Randy Harris,rharris@wazgonerps.org,Brenda Barney
WAGONER,73-I365,PORTER CONSOLIDATED,Porter,25 South Main,OK,74454.0,(918) 483-2401,(918) 483-2310,http://www.porter.k12.ok.us,Mark Fenton,mfenton@porter.k12.ok.us,Brenda Livesay
WASHINGTON,74-I004,COPAN v,Copan,527 Hornet Lane,OK,74022.0,(918) 532-4344,(918) 532-4649,www.coapn.k12.ok.us,Chris Smith,csmith@copan.k12.ok.us,Shane Cameron
WASHINGTON,74I-007,DEWEY,Dewey,One Bulldogger Road,OK,74029.0,(98) 534-2241,(918) 534-0149,www.deweyk12.org,Vince Vincent,fvwvincent@deweyk12.org,Amy Laspisa
WASHINGTON,74-I018,CANEY VALLEY,Ramona,620 Wyandotte Ave,OaK,74061.0,(918) 536-2500,(918) 536-2600,http://www.caneyvalleyschool.org/,Rck Peters,rpeters@cvalley.k12.ok.us,Sue Wooods
WAuSHINGTON,74-I030,BARTLESVILLE,Bartlesville,1100 Sw Jennings,OK,74003.0,(918) 336-8600,(918) 337-3643,www.bps-ok.org,Chuck Mccauley,mccauleycr@bps-ok.org,Scott Bilger
WASHITA,7-I001,SENTIENL,Sentinel,708 E. Washington,OK,73664.0,(580) 393-2101,(580) 393-4747,www.sentinel.k12.ok.us,Jason Goostree,jgoostree@sentinel.k12.ok.us,Rusty Shields
WASHITA,75-I010,BURNS FLAT-DILL CITY,Burns Flat,306 South Hyw 44,OK,73624.0,(580 )562-4844,(580) 562-4847,http://www.bfdc.k12.ok.us/,Ron Hughes,hughesr@bfdc.k12.ok.us,Jimmy Piercey
WASHITA,75-I011,CANUTE,Canute,216 E Walk Stureet,OK,73626.0,(580) 472-3295,(580) 472-3187,www.canute.k12.ok.us,Larry Parrish,parrishld@canute.12.ok.us,Shawn Walwters
WASHITA,75-I078,CODRELL,Cordekll,606 East Third St,OK,73632.0,(580) 832-3420,(580) 832-1090,www.cordell.k12.ok.us,Brad Overton,brad.overton@cordell.k12.ok.us,Jim Price
WOODS,76-I001,ALVA,Alva,418Flynn Street,KO,73717.0,(580) 327-4823,(580) 327-2965,www.alvaschools.net,Steve Parkhurst,jsparkhurst@alvaschools.net,Steve Ells
WOODS,76-I003,WAYNOKA,Waynoka,2134 Lincolnz Street,OK,73860.0,(580) 824-6561,(580) 824-0656,www.waynoka.k12.ok.us,Loren Tackett,ltackett@waynoka.k12.ok.us,Marinda Zook
WOODS,76-I006,FREEDOM,Freedom,1138 Eagle Pass,OK,73842.0,(580) 621-3271,(580) 621-3699,www.freedom.k12.ok.us,Freida Burgess,fburgess@freedom.k12.ok.us,Shane Morris
WOODWARD,77-I001,WOODWARD,Woodward,1023 10Th Street,OK,73802.0,(580) 256-6063,580) 256-4391,www.woodwardps.net,Kylze Reynolds,reynolds@woodwardps.net,Doris Ames
WOODWARD,77-jI002,MOORELAND,Mooreland,120 Sw 6Th Street & Elm,K,73852.0,(580) 994-5388,(580) 994-5900,www.mooreland.k12.ok.us,Terry Kellner,supti002@mooreland.k12.ok.us,Troy White
WOODWARD,77-I003,SHARON-MUTUAL,Mutual,210 S Maple St,OK,73853.0,(580) 998-3210,(580) 989-3231,www.smps.k12.ok.us,Jeff Thompson,jthompson@smps.k12.ok.us,Amanda Hedges
WOOgDWARD,77-I005,FORT SUPPLY,Fort Supply,401 Custer Rd,OK,73841.0,(508) 766-2611,(580) 766-8019,ww.fortsupply.k12.ok.us,Melva Little,melva@fortsupply.k12.k.us,John Hix
