county_name,code,district_name,city,address,state,zip,phone,fax,web_siteurl,superintendent,superintendent_email,board_president
ADAIR       ,01-C024,Peavine                       ,Stilwell,"Rural Route 6, Box 2840",OK,74960.0,(918) 696-2285,(918) 696-2199,http://www.peavinepanthers.net/,Jack Ritchie,jritchie@peavinepanthers.net,Edward Gass
ADAIR       ,01-C022,Maryetta                      ,Stilwell,"Rural Route 6, Box 2840",OK,74960.0,(918) 696-2285,(918) 696-6746,http://www.maryetta.k12.ok.us,Lori Means,lmeans@maryetta.k12.ok.us,Larry Eagleton
ADAIR       ,01-C024,Rocky Mountain                ,Stilwell,"Rural Route 6, Box 2840",OK,74960.0,(918) 696-7509,(918) 696-3654,www.rockymtn.k12.ok.us,Alicia Ketcher,aketcher@rockymtn.k12.ok.us,Tonya Tidwell
ADAIR       ,01-C022,Zion                          ,Stilwell,"Rural Route 2, Box 1",OK,74960.0,(918) 696-2285,(918) 696-6226,www.zionjets.com,Charles Benham,c_benham@zionjets.com,Gary Horn
ADAIR       ,01-C022,Dahlonegah                    ,Stilwell,"Rural Route 1, Box 1795",OK,74960.0,(918) 696-7807,(918) 696-2192,www.dahlonegah.k12.ok.us,Jeff Limore,jtlimore@dahlonegah.k12.ok.us,Randy Mccarter
ADAIR       ,01-C022,Greasy                        ,Bunch,"Rural Route 1, Box 1795",OK,74931.0,(918) 696-7768,(918) 696-7240,NULL,Michael Wolfe,michael.wolfe@greasy.k12.ok.us,Arthur Ross
ADAIR       ,01-C024,Watts                         ,Watts,"Rural Route 2, Box 1",OK,74964.0,(918) 422-5311,(918) 422-5556,wattsschool.com,Lisa Weaver,lweaver@wattsschool.com,Melissa Reynolds
ADAIR       ,01-C022,Westville                     ,Westville,500 W Chincapin,OK,74965.0,(918) 723-3181,(918) 723-3042,http://www.westville.k12.ok.us,Terry Heustis,theustis@westville.k12.ok.us,Chad Eagleton
ADAIR       ,01-C022,Stilwell                      ,Stilwell,1801 West Locust Street,OK,74960.0,(918) 696-7807,(918) 696-2193,http://www.stilwellk12.org,Geri Gilstrap,ggilstrap@stilwellk12.org,Chad Smith
ADAIR       ,01-I030,Cave Springs                  ,Bunch,"Rural Route 6, Box 2840",OK,74931.0,(918) 775-2364,(918) 776-2052,www.cavesprings.k12.ok.us,Geary Brown,gbrown@cavesprings.k12.ok.us,Joanna Harris
ALFALFA     ,01-C022,Burlington                    ,Burlington,"Rural Route 2, Box 1",OK,73722.0,(580) 431-2501,(580) 431-2237,http://www.burlingtonschool.com/,Glen Elliott,gelliott@burlingtonschool.com,Terry Graham
ALFALFA     ,01-C024,Cherokee                      ,Cherokee,412 East 5Th Street,OK,73728.0,(918) 696-2285,(580) 596-2319,http://cherokee.k12.ok.us/,Donna Anderson,andersond@cherokee.k12.ok.us,Kory Littlefield
ALFALFA     ,01-C022,Timberlake                    ,Helena,601 N. Main,OK,73741.0,(580) 852-3307,(580) 852-3280,www.tlake.k12.ok.us,Brent Rousey,rrousey@tlake.k12.ok.us,Chris Clift
ATOKA       ,03-C021,Harmony                       ,Atoka,490 South Bentley Road,OK,74525.0,(918) 696-2285,(580) 889-4631,http://www.harmonyps.org,Brian Walker,bwalker@harmonyps.org,Troy Gammon
ATOKA       ,03-C022,Lane                          ,Lane,601 W. Mcgee Creek Rd.,OK,74555.0,(580) 889-2743,(580) 889-9157,http://lanepublicschool.com/,Roland Smith,rolandsmith@lane.k12.ok.us,Rebecca Sandmann
ATOKA       ,03-I007,Stringtown                    ,Stringtown,304 Highland St.,OK,74569.0,(918) 696-7509,(580) 346-7223,www.stringtown.k12.ok.us,Tony Potts,tpotts@stringtownisd.org,Scott Dunlap
ATOKA       ,03-I015,Atoka                         ,Atoka,801 Greathouse Drive,OK,74525.0,(580) 889-6611,(580) 889-2513,www.atoka.org,Jay Mcadams,jmc@atoka.org,Keith Cochran
ATOKA       ,03-I019,Tushka                        ,Atoka,261 W Boggy Depot Road,KO,74525.0,(580) 852-3307,(580) 889-6144,http://tushka.k12.ok.us,Matthew Simpson,msimpson@tushka.k12.ok.us,Bennie Evans
ATOKA       ,03-I026,Caney                         ,Caney,"Rural Route 6, Box 2840",OK,74533.0,(580) 889-1996,(580) 889-5033,www.caneyisd.org,Lori Boehme,l.boehme@caneyisd.org,Mandy Lawson
BEAVER      ,04-I022,Beaver                        ,Beaver,807 Ave G,OK,73932.0,(580) 625-3444,(580) 625-3690,http://www.beaver.k12.ok.us/,Scott Kinsey,skinsey@beaver.k12.ok.us,Guy Bennett
BEAVER      ,04-I075,Balko                         ,Balko,"Rural Route 1, Box 37",OK,73931.0,(580) 646-3385,(580) 646-3499,http://www.balko.k12.ok.us/,Larry Mills,lmills@balko.k12.ok.us,Aaron Stockton
BEAVER      ,01-C024,Forgan                        ,Forgan,504 West Main,OK,73938.0,(580) 487-3366,(580) 487-3368,www.forgan.k12.ok.us,Travis Smalts,tsmalts@forgan.k12.ok.us,Teryl Leisher
BEAVER      ,04-I128,Turpin                        ,Turpin,316 S Lee,OK,73950.0,(580) 778-3333,(580) 778-3179,http://www.turpinps.org,Bret Rider,brider@turpinps.org,Jay Musgrave
BECKHAM     ,05-I002,Merritt                       ,Elk City,19693 East 1130 Road,OK,73644.0,(918) 696-7509,(580) 225-5469,www.merritt.k12.ok.us,Jeff Daugherty,daughertyj@merritt.k12.ok.us,Dwight Spitz
BECKHAM     ,05-I006,Elk City                      ,Elk City,222 West Broadway Ave,OK,73644.0,(580) 225-0175,(580) 225-8644,www.elkcityschools.com,Buddy Wood,wood@elkcityschools.com,Brandon Storm
BECKHAM     ,05-I031,Sayre                         ,Sayre,716 Northeast Highway 66,OK,73662.0,(580) 928-5531,(580) 928-5538,http://www.sayre.k12.ok.us,Todd Winn,twinn@sayre.k12.ok.us,Vicki Hinkle
BECKHAM     ,05-I051,Erick                         ,Erick,325 S. Pine St.,OK,73645.0,(580) 526-3476,(580) 526-3308,http://www.erickps.k12.ok.us/,Jeff Kelly,jkelly@erickps.k12.ok.us,Brady Greer
BLAINE      ,06-I009,Okeene                        ,Okeene,301 North Main,OK,73763.0,(580) 822-3268,(580) 822-4123,http://okeene.k12.ok.us/,Ron Pittman,rwpitt@okeene.k12.ok.us,Betty Geis
BLAINE      ,06-I042,Watonga                       ,Watonga,1021 N. Weigle,OK,73772.0,(580) 623-7364,(580) 623-7370,www.watongapublicschools.com,Bill Seitter,billseitter@watonga.k12.ok.us,Joyce Lucas
BLAINE      ,06-I080,Geary                         ,Geary,110 Southwest Embree Drive,OK,73040.0,(405) 884-2411,(405) 884-2099,http://www.gearyschools.org/,Todd Glasgow,tglasgow@geary.k12.ok.us,Randall Base
BLAINE      ,06-I105,Canton                        ,Canton,300 E. Main St.,OK,73724.0,(580) 886-3516,(580) 886-3501,http://www.canton.k12.ok.us/,Carl Baker,bakerc@canton.k12.ok.us,Robert Haigler
BRYAN       ,07-I001,Silo                          ,Durant,122 West Bourne Street,OK,74701.0,(580) 924-7000,(580) 920-7988,www.siloisd.org,Kate Mcdonald,k.mcdonald@siloisd.org,Mindy House
BRYAN       ,07-I002,Rock Creek                    ,Bokchito,200 East Steakley Street,OK,74726.0,(580) 295-3137,(580) 295-3762,www.rockcreekisd.net,Preston Burns,pburns@rockcreekisd.net,Frank Converse
BRYAN       ,07-I003,Achille                       ,Achille,101 N 5Th Ave,OK,74720.0,(580) 283-3775,(580) 283-3787,http://www.achilleisd.org/,Richard Beene,rbeene@achilleisd.org,Roger West
BRYAN       ,07-I004,Colbert                       ,Colbert,630 Collins St.,OK,74733.0,(580) 296-2624,(580) 296-2088,www.colbertisd.org,Jarvis Dobbs,dobbsj@colbert.k12.ok.us,Martin Shoopman
BRYAN       ,07-I005,Caddo                         ,Caddo,600 S. Mcpherren St.,OK,74729.0,(580) 367-2208,(580) 367-2837,www.caddoisd.org,Lee Northcutt,lnorthcutt@caddoisd.org,Don Morris
BRYAN       ,07-I040,Bennington                    ,Bennington,729 North Perry Street,OK,74723.0,(580) 847-2737,(580) 847-2787,http://www.benningtonisd.org/,Pamela Reynolds,preynolds@benningtonisd.org,Bryon Underwood
BRYAN       ,07-I048,Calera                        ,Calera,209 N. 3Rd,OK,74730.0,(580) 434-5700,(580) 434-5800,www.caleraisd.k12.ok.us,Gerald Parks,gparks@caleraisd.k12.ok.us,John Carter
BRYAN       ,07-I072,Durant                        ,Durant,1323 Waco Street,OK,74701.0,(580) 924-1276,(580) 924-6019,www.durantisd.org,Duane Merideth,duane.merideth@durantisd.org,Nate Morrison
BRYAN       ,07-K002,(Ilc) Choctaw Nation          ,Durant,810 Waldon Dr,OK,74702.0,(580) 931-0691,(580) 931-0120,http://www.choctawinterlocal.org,Kenneth Keeling,kkeeling@choctawnation.com,Jarvis Dobbs
CADDO       ,08-I011,Hydro-Eakly                   ,Hydro,407 East Seventh Street,OK,73048.0,(405) 663-2774,(405) 663-2139,www.hydroeakly.k12.ok.us,Bill Derryberry,bderryberry@hydroeakly.k12.ok.us,Loyd Lasley
CADDO       ,08-I012,Lookeba Sickles               ,Lookeba,10108 Cr 1150,OK,73053.0,(405) 457-6623,(405) 457-6382,http://www.lookeba.k12.ok.us,Mike Davis,mdavis@lookeba.k12.ok.us,Tommy House
CADDO       ,08-I020,Anadarko                      ,Anadarko,1400 South Mission Street,OK,73005.0,(405) 247-6605,(405) 247-6819,http://www.apswarriors.com,Cindy Hackney,chackney@apswarriors.com,Jackie Mccomas
CADDO       ,08-I033,Carnegie                      ,Carnegie,330 West Wildcat Drive,OK,73015.0,(580) 654-1470,(580) 654-1644,www.carnegieschools.com,Mark Batt,mbatt@carnegie.k12.ok.us,Gerald Peters
CADDO       ,08-I056,Boone-Apache                  ,Apache,522 East Floyd Street,OK,73006.0,(580) 588-3369,(580) 588-3400,http://www.apache.k12.ok.us/,Don Schneberger,dschneberger@apache.k12.ok.us,Charlotte Myers
CADDO       ,08-I064,Cyril                         ,Cyril,326 W. Windle Ave,OK,73029.0,(580) 464-2419,(580) 464-2445,www.cyrilschools.org,Jamie Mitchell,jmitchell@cyrilschools.org,Shancy Brown
CADDO       ,08-I086,Gracemont                     ,Gracemont,417 East Mccall,OK,73042.0,(405) 966-2236,(405) 966-2395,www.gracemont.k12.ok.us,Mike Jones,mjones@gracemont.k12.ok.us,Wesley Savage
CADDO       ,08-I160,Cement                        ,Cement,201 S. Main,OK,73017.0,(405) 489-3216,(405) 489-3219,http://cement.opsrc.net/,Daniel Pittman,dpittman@cement.k12.ok.us,Kimbel Estes
CADDO       ,08-I161,Hinton                        ,Hinton,708 N. Broadway,OK,73047.0,(405) 542-3257,(405) 542-3286,www.hintonschools.org,Richard Brownen,richard.brownen@hintonschools.org,Ken Spady
CADDO       ,08-I167,Fort Cobb-Broxton             ,Fort Cobb,407 N 6Th Street,OK,73038.0,(405) 643-2336,(405) 643-2547,www.fcbmustangs.com,Kyle Lierle,klierle@fcbmustangs.com,Derek Weaver
CADDO       ,08-I168,Binger-Oney                   ,Binger,323 South Apache Ave.,OK,73009.0,(405) 656-2304,(405) 656-2267,http://www.binger-oney.k12.ok.us/,Lisa King,lking@binger-oney.k12.ok.us,Tracey Ingram
CANADIAN    ,09-C029,Riverside                     ,El Reno,4800 East Foreman Street,OK,73036.0,(405) 262-2907,(405) 262-2925,www.riversidenews.webs.com,David Garner,dgarner@riverside.k12.ok.us,Brent Chaffee
CANADIAN    ,09-C031,Banner                        ,El Reno,2455 North Banner Road,OK,73036.0,(405) 262-0598,(405) 262-0628,www.banner.k12.ok.us,Larry York,ljyork68@banner.k12.ok.us,Mike Keller
CANADIAN    ,09-C070,Darlington                    ,El Reno,4408 North Highway 81,OK,73036.0,(405) 262-0137,(405) 262-3215,www.darlingtonps.com,Cheryl Garrison,cgarrison@darlington.k12.ok.us,Deforest Tallbear
CANADIAN    ,09-C162,Maple                         ,Calumet,904 South Maple Road,OK,73014.0,(405) 262-5647,(405) 262-5651,www.mapleschool.us,Arthur Eccard,aeccard@mapleschool.us,David Bilderback
CANADIAN    ,09-I022,Piedmont                      ,Piedmont,713 Piedmont Road North,OK,73078.0,(405) 373-2311,(405) 373-0912,http://www.piedmontschools.org/,James White,james.white@piedmontschools.org,Stanley Nance
CANADIAN    ,09-I027,Yukon                         ,Yukon,600 Maple Street,OK,73099.0,(405) 354-2587,(405) 354-4208,www.yukonps.com,W. Jason Simeroth,jason.simeroth@yukonps.com,Leonard Wells
CANADIAN    ,09-I034,El Reno                       ,El Reno,100 South Bickford Ave,OK,73036.0,(405) 262-1703,(405) 262-8620,www.elrenops.org,Craig Mcvay,cmcvay@elrenops.org,Steve Jensen
CANADIAN    ,09-I057,Union City                    ,Union City,105 W. Division,OK,73090.0,(405) 483-3531,(405) 483-5599,www.unioncity.k12.ok.us,Todd Carel,t.carel@unioncity.k12.ok.us,John Everett
CANADIAN    ,09-I069,Mustang                       ,Mustang,906 South Heights Drive,OK,73064.0,(405) 376-2461,(405) 376-7333,http://www.mustangps.org,Sean Mcdaniel,mcdaniels@mustangps.org,Chad Fulton
CANADIAN    ,09-I076,Calumet                       ,Calumet,110 N. Freehome,OK,73014.0,(405) 893-2222,(405) 893-2409,http://www.chs.k12.ok.us,Keith Weldon,kweldon@chs.k12.ok.us,Gary Tech
CARTER      ,10-C072,Zaneis                        ,Wilson,30515 Us Highway 70,OK,73463.0,(580) 668-2955,(580) 668-2114,NULL,Ryan Cole,zaneis@zaneis.k12.ok.us,Lindsay Southward
CARTER      ,10-I019,Ardmore                       ,Ardmore,800 M Street Ne,OK,73401.0,(580) 226-7650,(580) 226-2472,www.ardmoreschools.org,Nathaniel Bates,sbates@ardmoreschools.org,Scott Carpenter
CARTER      ,10-I021,Springer                      ,Springer,16624 Us Hwy 77,OK,73458.0,(580) 653-2656,(580) 653-2666,www.springerschools.com,Cynthia Hunter,chunter@springer.k12.ok.us,Travis Roberts
CARTER      ,10-I027,Plainview                     ,Ardmore,1140 South Plainview Road,OK,73401.0,(580) 223-6319,(580) 490-3190,www.plainview.k12.ok.us,Karl Stricker,kstricker@plainview.k12.ok.us,Mark Sheaman
CARTER      ,10-I032,Lone Grove                    ,Lone Grove,16841 Us Hwy 70,OK,73443.0,(580) 657-3131,(580) 657-4355,www.lonegrove.k12.ok.us,Meri Jayne Miller,mjmiller@lonegrove.k12.ok.us,Darryl Howard
CARTER      ,10-I043,Wilson                        ,Wilson,1860 Hewitt Road,OK,73463.0,(580) 668-2306,(580) 668-2170,www.wilson.k12.ok.us,Eric Smith,esmith@wilson.k12.ok.us,Suzanne Goode
CARTER      ,10-I055,Healdton                      ,Healdton,2763 Texas Street,OK,73438.0,(580) 229-0566,(580) 229-1522,www.healdtonschools.org,Terry Shaw,tshaw@healdtonschools.org,Chris Sparks
CARTER      ,10-I074,Fox                           ,Fox,100 Creek Ave,OK,73435.0,(580) 673-2081,(580) 673-2389,http://www.foxps.k12.ok.us/,Brent Phelps,bphelps@foxps.k12.ok.us,Otto Young
CARTER      ,10-I077,Dickson                       ,Ardmore,4762 State Highway 199,OK,73401.0,(580) 223-3624,(580) 223-7947,www.dickson.k12.ok.us,Larry Case,lcase@dickson.k12.ok.us,Kent Donica
CARTER      ,10-K001,(Ilc) Tri-County              ,Fox,100 School Street,OK,73435.0,(580) 673-2310,(580) 673-2309,www.ringling.k12.ok.us,Michelle Taylor,mtaylor@ringling.k12.ok.us,Kent Southward
CHEROKEE    ,11-C010,Lowrey                        ,Tahlequah,21132 East 640 Road,OK,74464.0,(918) 456-4053,(918) 458-0647,www.lowrey.k12.ok.us,Bryan Hix,bhix@lowrey.k12.ok.us,Garry Million
CHEROKEE    ,11-C014,Norwood                       ,Hulbert,7966 West 790 Road,OK,74441.0,(918) 478-3092,(918) 478-3833,www.norwood.k12.ok.us,Diana Garnatz,garnatzd@norwood.k12.ok.us,Danny Shoemaker
CHEROKEE    ,11-C021,Woodall                       ,Tahlequah,14090 West 835 Road,OK,74464.0,(918) 458-5444,(918) 456-5015,www.woodall.k12.ok.us,Linda Clinkenbeard,lclink@woodall.k12.ok.us,Tony Delmedico
CHEROKEE    ,11-C026,Shady Grove                   ,Hulbert,11042 West Shady Grove Road,OK,74441.0,(918) 772-2511,(918) 772-2430,NULL,Emmett Thompson,ethompson@shadygrove.k12.ok.us,Lea Arnall
CHEROKEE    ,11-C031,Peggs                         ,Peggs,10821 West Hickory Ave.,OK,74452.0,(918) 598-3412,(918) 598-3833,peggspanthers.com,John Cox,jcox@peggs.k12.ok.us,Tim Applegate
CHEROKEE    ,11-C034,Grand View                    ,Tahlequah,15481 North Jarvis Road,OK,74464.0,(918) 456-5131,(918) 456-1526,www.grandviewchargers.org,Ed Kennedy,ekennedy@grandview.k12.ok.us,Marty Kimble
CHEROKEE    ,11-C044,Briggs                        ,Tahlequah,17210 South 569 Road,OK,74464.0,(918) 456-4221,(918) 456-4049,www.briggs.k12.ok.us,Stephen Haynes,shaynes@briggs.k12.ok.us,Billy Gibson
CHEROKEE    ,11-C066,Tenkiller                     ,Welling,26106 East 863 Road,OK,74471.0,(918) 457-5996,(918) 457-5619,www.tenkiller.k12.ok.us,Randy Rountree,rrountree@tenkiller.k12.ok.us,Charley Holcomb
CHEROKEE    ,11-I006,Keys                          ,Park Hill,26622 South 520 Road,OK,74451.0,(918) 458-1835,(918) 456-1656,www.keys.k12.ok.us,Vol Woods,vwoods@keys.k12.ok.us,Radean Foreman
CHEROKEE    ,11-I016,Hulbert                       ,Hulbert,316 Rider Lane,OK,74441.0,(918) 772-2501,(918) 772-2766,http://www.hulbertriders.com/,Marilyn Dewoody,mdewoody@hulbertriders.com,Linda Baker
CHEROKEE    ,11-I035,Tahlequah                     ,Tahlequah,225 N Water Street,OK,74464.0,(918) 458-4100,(918) 458-4103,www.tahlequahschools.org,Lisa Presley,presleyl@tahlequahschools.org,David Morrison
CHEROKEE    ,11-T001,Cherokee Immersion Charter Sch,Tahlequah,17675 S. Muskogee,OK,74465.0,(918) 453-5400,(918) 458-6257,NULL,Leroy Qualls,leroy-qualls@cherokee.org,Amon Baker
CHOCTAW     ,12-C003,Grant                         ,Grant,201 N. Everidge St.,OK,74738.0,(580) 326-8315,(580) 326-9236,NULL,Buck Hammers,bhammers@grant.k12.ok.us,Dennis Lee
CHOCTAW     ,12-C021,Swink                         ,Swink,500 Jourdan Street,OK,74761.0,(580) 873-2695,(580) 873-9493,www.swink.k12.ok.us,Mark Bush,mbush@swink.k12.ok.us,Darrell Stowers
CHOCTAW     ,12-I001,Boswell                       ,Boswell,604 N. 7Th St.,OK,74727.0,(580) 566-2558,(580) 566-2265,www.boswellschools.org,Keith Edge,kedge@boswellschools.org,John Kerr
CHOCTAW     ,12-I002,Fort Towson                   ,Fort Towson,205 W. 3Rd St.,OK,74735.0,(580) 873-2712,(580) 873-1053,www.forttowson.k12.ok.us,Jason Price,supt@forttowson.k12.ok.us,Glenn Lamza
CHOCTAW     ,12-I004,Soper                         ,Soper,100 St. Louis St.,OK,74759.0,(580) 345-2757,(580) 345-2222,http://www.soperschool.com/,Scott Van Worth,soperschool@live.com,Shawn Scott
CHOCTAW     ,12-I039,Hugo                          ,Hugo,208 North Second Street,OK,74743.0,(580) 326-6483,(580) 326-2480,http://www.hugoschools.com,Tod Harrison,tharrison@hugoschools.com,Shane Spillman
CIMARRON    ,13-I002,Boise City                    ,Boise City,700 Se First Street,OK,73933.0,(580) 544-3110,(580) 544-2972,www.boisecity.k12.ok.us,Dr. Ira Harris,ira.harris@bcpsd.org,Billy Mizer
CIMARRON    ,13-I010,Felt                          ,Felt,101 South Lincoln,OK,73937.0,(580) 426-2220,(580) 426-2799,http://www.felt.k12.ok.us/,Lewetta Hefley,lewetta.hefley@feltps.org,John Fain
CIMARRON    ,13-I011,Keyes                         ,Keyes,3Rd & Mcknab,OK,73947.0,(580) 546-7231,(580) 546-7338,keyes.k12.ok.us,Sherri Hitchings,sherri.hitchings@keyesps.org,Avis Strasner
CLEVELAND   ,14-C016,Robin Hill                    ,Norman,4801 East Franklin Road,OK,73026.0,(405) 321-4186,(405) 321-5179,www.robinhillschool.org,Brandon Voss,bvoss@roboinhill.k12.ok.us,J. B. Southerland
CLEVELAND   ,14-I002,Moore                         ,Moore,1500 Southeast 4Th Street,OK,73160.0,(405) 735-4200,(405) 735-4392,www.mooreschools.com,Robert Romines,robertromines@mooreschools.com,Larry Leemaster
CLEVELAND   ,14-I029,Norman                        ,Norman,131 South Flood Ave,OK,73069.0,(405) 364-1339,(405) 366-5851,www.norman.k12.ok.us,Joseph Siano,jsiano@norman.k12.ok.us,Linda Sexton
CLEVELAND   ,14-I040,Noble                         ,Noble,111 S 4Th,OK,73068.0,(405) 872-3452,(405) 872-3271,www.nobleps.com,Frank Solomon,fsolomon@nobleps.com,Jeanette Smith
CLEVELAND   ,14-I057,Lexington                     ,Lexington,420 Northeast Fourth Street,OK,73051.0,(405) 527-7236,(405) 527-9517,http://www.lexington.k12.ok.us/,Ronda Bass,rbass@lexington.k12.ok.us,Terry Mixon
CLEVELAND   ,14-I070,Little Axe                    ,Norman,2000 168Th Ave Northeast,OK,73026.0,(405) 329-7691,(405) 579-2929,http://www.littleaxe.k12.ok.us/,Jay Thomas,jay.thomas@littleaxeps.org,Beverly Felton
COAL        ,15-C004,Cottonwood                    ,Coalgate,Hwy 31 2 Miles Ne,OK,74538.0,(580) 927-2937,(580) 927-2938,www.cottonwoodschool.net,John Daniel,jdaniel@cottonwoodps.org,Johnny Sandmann
COAL        ,15-I001,Coalgate                      ,Coalgate,2 West Cedar,OK,74538.0,(580) 927-2351,(580) 927-2694,http://www.coalgateschools.org/,Jim Girten,jgirten@coalgateschools.org,Tracy Penney
COAL        ,15-I002,Tupelo                        ,Tupelo,200 South 7Th,OK,74572.0,(580) 845-2460,(580) 845-2565,http://www.tupelo.k12.ok.us,Jerry Romines,jromines@tupelo.k12.ok.us,Joyce Sanders
COMANCHE    ,16-C048,Flower Mound                  ,Lawton,2805 Southeast Flower Mound Road,OK,73501.0,(580) 353-4088,(580) 353-5742,www.flowermound.k12.ok.us,Dax Trent,dtrent@flowermound.k12.ok.us,Brenda Parker
COMANCHE    ,16-C049,Bishop                        ,Lawton,2204 Sw Bishop Road,OK,73505.0,(580) 353-4870,(580) 353-4879,www.Bishop.K12.ok.us,Howard Hampton,hamptonh@bishop.k12.ok.us,Thresa Seabolt
COMANCHE    ,16-I001,Cache                         ,Cache,102 East H Ave,OK,73527.0,(580) 429-3266,(580) 429-3271,www.cacheps.org,Randy Batt,randy.batt@cacheps.org,Lenson Hearn
COMANCHE    ,16-I002,Indiahoma                     ,Indiahoma,307 Chebahtah,OK,73552.0,(580) 246-3448,(580) 246-3372,www.indiahoma.k12.ok.us,Deanna Voegeli,deanna.voegeli@indiahomaps.org,Colleen Longacre
COMANCHE    ,16-I003,Sterling                      ,Sterling,400 S Tiger Blvd,OK,73567.0,(580) 365-4307,(580) 365-4705,www.sterling.k12.ok.us,Julie Poteete,jpoteete@sterling.k12.ok.us,Joe Joiner
COMANCHE    ,16-I004,Geronimo                      ,Geronimo,800 West Main Street,OK,73543.0,(580) 355-3160,(580) 357-8307,www.geronimo.k12.ok.us,Bill Pascoe,bpascoe@geronimo.k12.ok.us,Donald Mccaig
COMANCHE    ,16-I008,Lawton                        ,Lawton,753 Nw Fort Sill Blvd.,OK,73502.0,(580) 357-6900,(580) 585-6319,www.lawtonps.org,Tom Deighan,tom.deighan@lawtonps.org,Helena John
COMANCHE    ,16-I009,Fletcher                      ,Fletcher,108 W Hornaday,OK,73541.0,(580) 549-3016,(580) 549-6016,NULL,Shane Gilbreath,sgilbreath@fletcherschools.org,Aaron Jones
COMANCHE    ,16-I016,Elgin                         ,Elgin,Hwy 17 & Mighty Owl Ave.,OK,73538.0,(580) 492-3663,(580) 492-4084,www.elginps.org,Nathaniel Meraz,nmeraz@elginps.org,Charley Robertson
COMANCHE    ,16-I132,Chattanooga                   ,Chattanooga,507 4Th Street,OK,73528.0,(580) 597-3347,(580) 597-3344,http://www.chatty.k12.ok.us,Jerry Brown,jbrown@chatty.k12.ok.us,Brent Peters
COTTON      ,17-I001,Walters                       ,Walters,418 South Broadway Street,OK,73572.0,(580) 875-2568,(580) 875-2831,www.blued.org,Jimmie Dedmon,jldedmon@waltersps.org,Scott Reed
COTTON      ,17-I101,Temple                        ,Temple,206 School Road,OK,73568.0,(580) 342-6230,(580) 342-6463,www.temple.k12.ok.us,Kolby Johnson,kjohnson@temple.k12.ok.us,Micah Lipscomb
COTTON      ,17-I333,Big Pasture                   ,Randlett,1502 N. 10Th St.,OK,73562.0,(580) 281-3831,(580) 281-3299,http://www.bigpasture.org,Nat Lunn,nlunn@bigpasture.org,Eddie Kuykendall
CRAIG       ,18-C001,White Oak                     ,Vinita,27355 South 4340 Road,OK,74301.0,(918) 256-4484,(918) 256-4486,NULL,Richard Mcspadden,rmcspadden@whiteoakschool.net,Bill Kelsey
CRAIG       ,18-I006,Ketchum                       ,Ketchum,404 N. Boston,OK,74349.0,(918) 782-5091,(918) 782-9018,http://www.ketchumwarriors.com,Pete Hiseley,phiseley@ketchumwarriors.com,Dandy Risman
CRAIG       ,18-I017,Welch                         ,Welch,707 S Curtis Street,OK,74369.0,(918) 788-3129,(918) 788-3734,www.welchwildcats.net,R. Clark Mckeon,cmckeon@welchwildcats.net,Cathey Forrest
CRAIG       ,18-I020,Bluejacket                    ,Bluejacket,276 Ne 3Rd St.,OK,74333.0,(918) 784-2365,(918) 784-2130,www.bluejacket.k12.ok.us,Shellie Baker,sbaker@bluejacket.k12.ok.us,John Rogers
CRAIG       ,18-I065,Vinita                        ,Vinita,114 South Scraper Street,OK,74301.0,(918) 256-6778,(918) 256-5617,www.vinitahornets.com,Kelly Grimmett,grimmekd@vinitahornets.com,Jandra Mayer-Ward
CREEK       ,19-C008,Lone Star                     ,Sapulpa,2945 S. Hickory St.,OK,74066.0,(918) 224-0201,(918) 224-3927,www.lonestar.k12.ok.us,Tracie Hale,thale@lonestar.k12.ok.us,Jim Pilkington
CREEK       ,19-C012,Gypsy                         ,Depew,30899 South 417Th West Ave,OK,74028.0,(918) 324-5365,(918) 324-5003,http://www.gypsy.k12.ok.us,Rachel Collins,rcollins@gypsy.k12.ok.us,Teresa Flatt
CREEK       ,19-C034,Pretty Water                  ,Sapulpa,15223 West 81St Street South,OK,74066.0,(918) 224-4952,(918) 224-4039,www.prettywater.k12.ok.us,Jeff Taylor,jtaylor@prettywater.k12.ok.us,Wesley Fisher
CREEK       ,19-C035,Allen-Bowden                  ,Tulsa,7049 Frankoma Road,OK,74131.0,(918) 224-4440,(918) 224-0617,http://www.allenbowden.k12.ok.us/,Kelly Husted,k-husted@allenbowden.k12.ok.us,Mark Mcadams
CREEK       ,19-I002,Bristow                       ,Bristow,420 North Main,OK,74010.0,(918) 367-5555,(918) 367-5848,www.bristow.k12.ok.us,Curtis Shelton,cshelton@bristow.k12.ok.us,Patricia Lawrence
CREEK       ,19-I003,Mannford                      ,Mannford,136 Evans Ave,OK,74044.0,(918) 865-4062,(918) 865-3405,http://www.mannford.k12.ok.us/,Steve Waldvogel,waldvogels@mannford.k12.ok.us,Wayne Burk
CREEK       ,19-I005,Mounds                        ,Mounds,1603 Russell Ave,OK,74047.0,(918) 827-6100,(918) 827-3704,http://www.moundsps.com,Alfred Gaches,agaches@moundsps.com,Joe Carner
CREEK       ,19-I017,Olive                         ,Drumright,9352 South 436Th West Ave,OK,74030.0,(918) 352-9567,(918) 352-4379,http://www.olive.k12.ok.us,Jimmy Reynolds,jreynolds@olive.k12.ok.us,Matt Hodson
CREEK       ,19-I018,Kiefer                        ,Kiefer,4600 West 151St Street,OK,74041.0,(918) 321-3421,(918) 321-5216,www.kiefer.k12.ok.us,Mary Murrell,mmurrell@kiefer.k12.ok.us,Jess Mccullough
CREEK       ,19-I020,Oilton                        ,Oilton,309 E. Peterson,OK,74052.0,(918) 862-3954,(918) 862-3955,www.oilton.k12.ok.us,Matt Posey,mposey@oilton.k12.ok.us,Roy Cardwell
CREEK       ,19-I021,Depew                         ,Depew,725 Simms St,OK,74028.0,(918) 324-5466,(918) 324-5336,www.depew.k12.ok.us,Leon Hiett,lhiett@depew.k12.ok.us,Bobby Howard
CREEK       ,19-I031,Kellyville                    ,Kellyville,144 S. Elm,OK,74039.0,(918) 247-6133,(918) 247-6120,www.kellyvilleschools.org,Joe Pierce,jpierce@kellyvilleschools.org,Todd Gollihare
CREEK       ,19-I033,Sapulpa                       ,Sapulpa,511 East Lee,OK,74066.0,(918) 224-3400,(918) 227-8347,http://www.sapulpaps.org/,Kevin Burr,kburr@sapulpaps.org,Steve Mccormick
CREEK       ,19-I039,Drumright                     ,Drumright ,505 W. 2Nd Street,OK,74030.0,(918) 352-2492,(918) 352-4430,www.drumright.k12.ok.us,Robby Dorsey,rdorsey@drumright.k12.ok.us,Anthony Sylvester
CUSTER      ,20-I005,Arapaho-Butler                ,Arapaho,214 N. 12Th Street,OK,73620.0,(580) 323-3262,(580) 323-5886,http://www.arapaho.k12.ok.us/,James Edelen,jedelen@arapaho.k12.ok.us,Jason Rose
CUSTER      ,20-I007,Thomas-Fay-Custer Unified Dist,Thomas,920 N. Main,OK,73669.0,(580) 661-3527,(580) 661-3589,www.thomas.k12.ok.us,Rob Royalty,rob@thomas.k12.ok.us,Richard Bright
CUSTER      ,20-I026,Weatherford                   ,Weatherford,516 North Broadway Street,OK,73096.0,(580) 772-3327,(580) 774-0821,www.wpsok.org,Chad Wilson,cwilson@wpsok.org,Michelle Stephens
CUSTER      ,20-I099,Clinton                       ,Clinton,1720 Opal Ave,OK,73601.0,(580) 323-1800,(580) 323-1804,www.clintonokschools.org,Kevin Hime,kevin.hime@clintonokschools.org,Richard Phillips
DELAWARE    ,21-C006,Cleora                        ,Afton,451358 East 295 Road,OK,74331.0,(918) 256-6401,(918) 256-2128,http://www.cleora.net,Kenny Guthrie,kguthrie@cleora.net,Billy Jarvis
DELAWARE    ,21-C014,Leach                         ,Rose,55979 S. 530 Road,OK,74364.0,(918) 868-2277,(918) 868-3501,www.leachschool.net,Andrea Sealock,asealock@leachschool.net,Alaka Back
DELAWARE    ,21-C030,Kenwood                       ,Salina,48625 South 502 Road,OK,74365.0,(918) 434-5799,(918) 434-6552,NULL,Billy Taylor,billyt@sstelco.com,Anthony Davis
DELAWARE    ,21-C034,Moseley                       ,Colcord,7904 North Moseley Road,OK,74338.0,(918) 505-1000,(918) 422-5971,NULL,Charlene Carter,charlene@moseleyschool.com,James Dunham
DELAWARE    ,21-I001,Jay                           ,Jay,821 N. Main,OK,74346.0,(918) 253-4293,(918) 253-8970,www.jay.k12.ok.us,Charles Thomas,cthomas@jay.k12.ok.us,Monte Rutherford
DELAWARE    ,21-I002,Grove                         ,Grove,310 S Broadway,OK,74344.0,(918) 786-3003,(918) 786-9365,www.ridgerunners.net,Sandy Jo Coaly,scoaly@ridgerunners.net,Clara Mills
DELAWARE    ,21-I003,Kansas                        ,Kansas,700 N. Wood Ave.,OK,74347.0,(918) 868-2562,(918) 868-3103,www.kansasps.com,Leann Barnwell,leann@kansasps.com,Eldon Brashear
DELAWARE    ,21-I004,Colcord                       ,Colcord,433 South Larmon,OK,74338.0,(918) 326-4116,(918) 326-4471,http://www.colcordschools.com/,Bud Simmons,bsimmons@colcordschools.com,David Ramsey
DELAWARE    ,21-I005,Oaks-Mission                  ,Oaks,357 W. Main,OK,74359.0,(918) 868-2183,(918) 868-2707,NULL,John Sheridan,oakssupt@oaksschools.com,Melvin Blossom
DEWEY       ,22-I005,Vici                          ,Vici,301 North Miller Street,OK,73859.0,(580) 995-4744,(580) 995-3101,www.vicischools.k12.ok.us,Coby Nelson,cnelson@vicischools.k12.ok.us,Kim White
DEWEY       ,22-I008,Seiling                       ,Seiling,100 N. Elm,OK,73663.0,(580) 922-7383,(580) 922-8019,www.seiling.k12.ok.us,Randy Seifried,rseifried@seiling.k12.ok.us,Kelly Chain
DEWEY       ,22-I010,Taloga                        ,Taloga,500 West Ruble,OK,73667.0,(580) 328-5577,(580) 328-5237,http://www.taloga.k12.ok.us,Darci Brown,dbrown@taloga.k12.ok.us,Ruth Ann Barron
ELLIS       ,23-I002,Fargo                         ,Fargo,513 S Main,OK,73840.0,(580) 698-2298,(580) 698-8019,http://www.fargo.k12.ok.us/,Terry Stevens,tstevens@fargo.k12.ok.us,Lindsey Schneider
ELLIS       ,23-I003,Arnett                        ,Arnett,103 W. Haskell,OK,73832.0,(580) 885-7811,(580) 885-7307,www.arnett.k12.ok.us,Danny Cochran,dcochran@arnett.k12.ok.us,Rocky West
ELLIS       ,23-I039,Gage                          ,Gage,202 W Hwy 15,OK,73843.0,(580) 923-7909,(580) 923-7907,http://www.gage.k12.ok.us/,Greg Gregory,ggregory@gage.k12.ok.us,Rod Crouse
ELLIS       ,23-I042,Shattuck                      ,Shattuck,602 South Hickory,OK,73858.0,(580) 938-2586,(580) 938-8019,www.shattuck.k12.ok.us,Randy Holley,rholley@shattuck.k12.ok.us,Mark Bay
GARFIELD    ,24-I001,Waukomis                      ,Waukomis,209 West Locust,OK,73773.0,(580) 758-3247,(580) 758-3834,www.waukomis.k12.ok.us,Shawn Tennyson,shawntennyson@waukomis.k12.ok.us,Linda Mcelroy
GARFIELD    ,24-I018,Kremlin-Hillsdale             ,Kremlin,705 Fifth,OK,73753.0,(580) 874-2284,(580) 874-4488,www.kremlin.k12.ok.us,Jim Patton,pattonj@kremlin.k12.ok.us,Dusty Bittle
GARFIELD    ,24-I042,Chisholm                      ,Enid,300 Colorado Ave,OK,73701.0,(580) 237-5512,(580) 234-5334,www.chisholm.k12.ok.us,Roydon Tilley,rtilley@chisholm.k12.ok.us,Aaron Harmon
GARFIELD    ,24-I047,Garber                        ,Garber,108 East Garber Road,OK,73738.0,(580) 863-2220,(580) 863-2259,http://www.garber.k12.ok.us/,Jim Lamer,jlamer@pldi.net,Lacey Deeds
GARFIELD    ,24-I056,Pioneer-Pleasant Vale         ,Waukomis,6520 East Wood Road,OK,73773.0,(580) 758-3282,(580) 758-3504,www.ppv.k12.ok.us,Brent Koontz,bkoontz@ppv.k12.ok.us,Clee Jay Hedges
GARFIELD    ,24-I057,Enid                          ,Enid,500 South Independence Ave,OK,73701.0,(580) 366-7000,(580) 366-8900,www.enidpublicschools.org,Darrell Floyd,dgfloyd@enidk12.org,Ernie Currier
GARFIELD    ,24-I085,Drummond                      ,Drummond,South Hwy 132,OK,73735.0,(580) 493-2216,(580) 493-2273,www.drummond.k12.ok.us,Mike Woods,mwoods@drummond.k12.ok.us,James Wilson
GARFIELD    ,24-I094,Covington-Douglas             ,Covington,400 E Maine,OK,73730.0,(580) 864-7481,(580) 864-7644,www.c-d.k12.ok.us,Darren Sharp,dsharp@cdwildcats.com,Paula Harak
GARVIN      ,25-C016,Whitebead                     ,Pauls Valley,16476 North County Road 3200,OK,73075.0,(405) 238-3021,(405) 238-6258,http://www.whitebead.org,Mary Smith,msmith@wbead.k12.ok.us,Brent Thompson
GARVIN      ,25-I002,Stratford                     ,Stratford,341 North Elm Street,OK,74872.0,(580) 759-3615,(580) 759-2669,www.stratford.k12.ok.us,Michael Blackburn,mblackburn@stratford.k12.ok.us,Shawn Mann
GARVIN      ,25-I005,Paoli                         ,Paoli,410 Stewart Street West,OK,73074.0,(405) 484-7336,(405) 484-7268,http://www.paoli.k12.ok.us/,David Morris,dmorris@paoli.k12.ok.us,Lindsey Meiwes
GARVIN      ,25-I007,Maysville                     ,Maysville,600 First Street,OK,73057.0,(888) 806-5220,(405) 867-4864,NULL,Shelly Hildebrand-Beach,shildebrand@maysville.k12.ok.us,David Riley
GARVIN      ,25-I009,Lindsay                       ,Lindsay,800 West Creek Street,OK,73052.0,(405) 756-3131,(405) 756-8819,www.lindsay.k12.ok.us,Dan Chapman,dchapman@lindsay.k12.ok.us,Gena Fletcher
GARVIN      ,25-I018,Pauls Valley                  ,Pauls Valley,301 North Chickasaw,OK,73075.0,(405) 238-6453,(405) 238-9178,www.paulsvalleyschools.com,Mike Martin,mmartin@paulsvalley.k12.ok.us,Brett Agee
GARVIN      ,25-I038,Wynnewood                     ,Wynnewood,702 East Robert S. Kerr Blvd,OK,73098.0,(405) 665-2004,(405) 665-5425,www.wynnewood.k12.ok.us,Raymond Cole,rcole@wynnewood.k12.ok.us,Jamie Williamson
GARVIN      ,25-I072,Elmore City-Pernell           ,Elmore City,100 North Muse Ave,OK,73433.0,(580) 788-2566,(580) 788-4624,www.ecphs.k12.ok.us,Donny Darrow,ddarrow@ecphs.k12.ok.us,Kristi Drennan
GRADY       ,26-C037,Friend                        ,Chickasha,1307 County Road 1350,OK,73018.0,(405) 224-3822,(405) 222-5416,http://www.friend.k12.ok.us,Alton Rawlins,amrawlins@friend.k12.ok.us,Joshua Kirby
GRADY       ,26-C096,Middleberg                    ,Blanchard,2130 County Road 1317,OK,73010.0,(405) 485-3612,(405) 485-3204,www.middleberg.k12.ok.us,Randy Hughes,rhughes@middleberg.k12.ok.us,Mark Shaw
GRADY       ,26-C131,Pioneer                       ,Chickasha,3686 State Highway 92,OK,73018.0,(405) 224-2700,(405) 224-2755,pioneerk8.k12.ok.us,Tyler Locke,tlocke@pioneerk8.k12.ok.us,Monty Baker
GRADY       ,26-I001,Chickasha                     ,Chickasha,900 West Choctaw Ave,OK,73018.0,(405) 222-6500,(405) 222-6590,www.chickasha.k12.ok.us,David Cash,dcash@chickasha.k12.ok.us,Julie Badgett Sinn
GRADY       ,26-I002,Minco                         ,Minco,311 Sw 6Th Street,OK,73059.0,(405) 352-4867,(405) 352-4006,http://www.minco.k12.ok.us/,Kevin Sims,ksims@minco.k12.ok.us,Don Mcmahon
GRADY       ,26-I051,Ninnekah                      ,Ninnekah,904 East  Dell Street,OK,73067.0,(405) 224-4092,(405) 224-4096,http://www.ninnekah.ok.nph.schoolinsites.com/,Todd Bunch,tbunch@ninnekah.k12.ok.us,Jack Garrett
GRADY       ,26-I056,Alex                          ,Alex,209 South 2Nd Street,OK,73002.0,(405) 785-2605,(405) 785-2914,http://www.alex.k12.ok.us/,Jason James,jjames@alex.k12.ok.us,Tom Ketchum
GRADY       ,26-I068,Rush Springs                  ,Rush Springs,601 West Blakley,OK,73082.0,(580) 476-3929,(580) 476-2018,http://www.rushsprings.k12.ok.us/,Mike Zurline,mzurline@rushsprings.k12.ok.us,Eddie Rathbun
GRADY       ,26-I095,Bridge Creek                  ,Blanchard,2209 East Sooner Road,OK,73010.0,(405) 387-4880,(405) 387-4882,www.bridgecreek.k12.ok.us,David Morrow,dmorrow@bridgecreek.k12.ok.us,Jeff Hill
GRADY       ,26-I097,Tuttle                        ,Tuttle,515 East Main,OK,73089.0,(405) 381-2605,(405) 381-4008,www.tuttleschools.info,Bobby Waitman,bwaitman@tuttleschools.info,Tim Hogland
GRADY       ,26-I099,Verden                        ,Verden,100 South Locust,OK,73092.0,(405) 453-7247,(405) 453-7246,www.verdenschools.org,David Davidson,ddavidson@verdenschools.org,Cindi Nichols
GRADY       ,26-I128,Amber-Pocasset                ,Amber,401 East Main Street,OK,73004.0,(405) 224-5768,(405) 224-5115,www.ampo.k12.ok.us,Chad Hance,chance@amposchools.org,Deann Mittelstaedt
GRANT       ,27-I054,Medford                       ,Medford,301 North Main Street,OK,73759.0,(580) 395-2392,(580) 395-2391,www.medford.k12.ok.us,Mickey Geurkink,mgeurkink@medford.k12.ok.us,Travis Jantzen
GRANT       ,27-I090,Pond Creek-Hunter             ,Pond Creek,200 East Broadway,OK,73766.0,(580) 532-4242,(580) 532-4965,http://www.pondcreek-hunter.k12.ok.us/,Joel Quinn,jquinn@pondcreek-hunter.k12.ok.us,Micah Barr
GRANT       ,27-I095,Deer Creek-Lamont             ,Lamont,1192 Harrison Ave,OK,74643.0,(580) 388-4333,(580) 388-4341,www.dclak12.org,James Lewis,jlewis@dclak12.org,Mike Williams
GREER       ,28-I001,Mangum                        ,Mangum,400 North Pennsylvania Ave,OK,73554.0,(580) 782-3371,(580) 782-2313,www.mangum.k12.ok.us,Mike Southall,mike.southall@mangum.k12.ok.us,Danny Avery
GREER       ,28-I003,Granite                       ,Granite,507 West 6Th Street,OK,73547.0,(580) 535-2104,(580) 535-2106,www.granite.k12.ok.us,Rodney Calhoun,rcalhoun@granite.k12.ok.us,Johnny Wilson
HARMON      ,29-I066,Hollis                        ,Hollis,415 N Main,OK,73550.0,(580) 688-3450,(580) 688-2532,www.hollis.k12.ok.us,Jennifer Mcqueen,jmcqueen@hollis.k12.ok.us,Terry Bogle
HARPER      ,30-I001,Laverne                       ,Laverne,605 W. Jane Jayroe Blvd.,OK,73848.0,(580) 921-3362,(580) 921-3636,http://www.laverne.k12.ok.us,Eddie Thomas,thomas@laverne.k12.ok.us,Richard Wells
HARPER      ,30-I004,Buffalo                       ,Buffalo,605 Se 2Nd,OK,73834.0,(580) 735-2448,(580) 735-2619,www.buffalo.k12.ok.us,Martin Adams,madams@buffalo.k12.ok.us,Dr. Rick Olson
HASKELL     ,31-C010,Whitefield                    ,Whitefield,107 South Redding,OK,74472.0,(918) 967-8572,(918) 967-0007,www.whitefield.k12.ok.us,Scott Shepherd,sshepherd@whitefield.k12.ok.us,Royce Alverson
HASKELL     ,31-I013,Kinta                         ,Kinta,Jct Hwy 2 & 31,OK,74552.0,(918) 768-3338,(918) 768-3221,www.kinta.k12.ok.us,Patricia Deville,pdeville@kinta.k12.ok.us,Roy King
HASKELL     ,31-I020,Stigler                       ,Stigler,309 Northwest E Street,OK,74462.0,(918) 967-2805,(918) 967-4550,https://www.stigler.k12.ok.us,Monty Guthrie,mguthrie@stigler.k12.ok.us,Susan White
HASKELL     ,31-I037,Mccurtain                     ,Mccurtain,Hwy 26 & Cole Street,OK,74944.0,(918) 945-7237,(918) 945-7064,www.mccurtain.k12.ok.us,Dart Drummonds,ddrummonds@mccurtain.k12.ok.us,Kim Satterfield
HASKELL     ,31-I043,Keota                         ,Keota,110 Northeast 6Th Street,OK,74941.0,(918) 966-3950,(918) 966-3247,http://www.keota.k12.ok.us/,Chad Harp,charp@keota.k12.ok.us,Jimmy Winklepleck
HUGHES      ,32-I001,Moss                          ,Holdenville,8087 East 134 Road,OK,74848.0,(405) 379-2273,(405) 379-2333,http://www.moss.k12.ok.us/,Gil Turpin,gturpin@moss.k12.ok.us,Randy Fletcher
HUGHES      ,32-I005,Wetumka                       ,Wetumka,416 South Tiger Street,OK,74883.0,(405) 452-5150,(405) 452-3052,http://www.wetumka.k12.ok.us,Donna Mcgee,dmcgee@wetumka.k12.ok.us,Rufus Scott
HUGHES      ,32-I035,Holdenville                   ,Holdenville,210 Grimes Street,OK,74848.0,(405) 379-5483,(405) 379-5874,www.holdenville.k12.ok.us,Randy Davenport,rdavenport@holdenville.k12.ok.us,Terry Swayze
HUGHES      ,32-I048,Calvin                        ,Calvin,229 Third Street,OK,74531.0,(405) 645-2411,(405) 645-2384,www.calvin.k12.ok.us,Christopher Karch,ckarch@calvin.k12.ok.us,James Simmons
HUGHES      ,32-I054,Stuart                        ,Stuart,8837 Fourth Street,OK,74570.0,(918) 546-2476,(918) 546-2329,www.stuart.k12.ok.us,Tracy Blasengame,tblas@stuart.k12.ok.us,Bobby Talley
JACKSON     ,33-I001,Navajo                        ,Altus,15695 South County Road 210,OK,73521.0,(580) 482-7742,(580) 482-7749,www.navajo.k12.ok.us,Vicki Nance,vnance@navajo.k12.ok.us,Matt Muller
JACKSON     ,33-I014,Duke                          ,Duke,300 North Chickasaw,OK,73532.0,(580) 679-3014,(580) 679-3017,www.dukeschools.com,Kevin Brown,kbrown@dukeschools.com,Rafe Hall
JACKSON     ,33-I018,Altus                         ,Altus,219 N. Lee,OK,73521.0,(580) 481-2100,(580) 481-2129,http://www.altusps.com,Roger Hill,rhill@altusps.com,Debora Phillips
JACKSON     ,33-I025,Eldorado                      ,Eldorado,200 North 7Th Street,OK,73537.0,(580) 633-2219,(580) 633-2316,http://www.eldorado.k12.ok.us,Michael Parsons,mparsons@eldorado.k12.ok.us,Jackie Kenmore
JACKSON     ,33-I035,Olustee                       ,Olustee,606 East 6Th Street,OK,73560.0,(580) 648-2243,(580) 648-2501,http://www.olustee.k12.ok.us/,Gaylene Freeman,gfreeman@olustee.k12.ok.us,Bryan Walker
JACKSON     ,33-I054,Blair                         ,Blair,610 Zinn Street,OK,73526.0,(580) 563-2632,(580) 563-9166,www.blairschool.org,Jimmy Smith,jsmith@blairschool.org,Joe Poulin
JEFFERSON   ,34-C003,Terral                        ,Terral,340 Apache Ave,OK,73569.0,(580) 437-2244,(580) 437-2246,NULL,Greg Fouse,gfouse@terral.k12.ok.us,Glen Martin
JEFFERSON   ,34-I001,Ryan                          ,Ryan,1201 Washington Street,OK,73565.0,(580) 757-2308,(580) 757-2609,http://www.ryan.k12.ok.us,Larry Ninman,lninman@ryan.k12.ok.us,Timmy Good
JEFFERSON   ,34-I014,Ringling                      ,Ringling,706 N. 5Th St Unit G,OK,73456.0,(580) 662-2385,(580) 662-2683,http://www.ringling.k12.ok.us/,Kent Southward,ksouthward@ringling.k12.ok.us,Brian Mcgahey
JEFFERSON   ,34-I023,Waurika                       ,Waurika,600 East Florida Ave,OK,73573.0,(580) 228-3373,(580) 228-3428,www.waurikaschools.org,Roxie Terry,rterry@waurikaschools.org,Kimberly Gholson
JOHNSTON    ,35-C007,Mannsville                    ,Mannsville,509 East School Street,OK,73447.0,(580) 371-2892,(580) 371-9336,NULL,David Herron,mannsvilleschool@yahoo.com,Roy Justice
JOHNSTON    ,35-C010,Ravia                         ,Ravia,305 Mill Street,OK,73455.0,(580) 371-9163,(580) 371-3067,www.ravia.k12.ok.us,David Duncan,dduncan@ravia.k12.ok.us,Dewayne Carroll
JOHNSTON    ,35-I002,Mill Creek                    ,Mill Creek,602 South Chickasaw Ave,OK,74856.0,(580) 384-5514,(580) 384-3920,www.millcreek.k12.ok.us,Lorinda Chancellor,lorindac@millcreek.k12.ok.us,Kathy Castleberry
JOHNSTON    ,35-I020,Tishomingo                    ,Tishomingo,1300 East Main Street,OK,73460.0,(580) 371-9190,(580) 371-3765,www.tishomingo.k12.ok.us,Kevin Duncan,kduncan@tishomingo.k12.ok.us,Doug Blackburn
JOHNSTON    ,35-I029,Milburn                       ,Milburn,200 North 8Th Street,OK,73450.0,(580) 443-5522,(580) 443-5303,http://www.milburnps.org,Joey Mcbride,jmcbride@milburnps.org,Mike West
JOHNSTON    ,35-I035,Coleman                       ,Coleman,451 W. Main,OK,73432.0,(580) 937-4418,(580) 937-4615,http://www.colemanschools.org,James Miller,james.miller@coleman.k12.ok.us,Kevin Harner
JOHNSTON    ,35-I037,Wapanucka                     ,Wapanucka,502 S. Choctaw,OK,73461.0,(580) 937-4466,(580) 937-4801,wpss.k12.ok.us,Max Rowland,mrowland@wpss.k12.ok.us,Jeff Baxter
KAY         ,36-C027,Peckham                       ,Newkirk,7175 West School Street,OK,74647.0,(580) 362-2633,(580) 362-3970,www.peckham.k12.ok.us,Gary Young,gyoung@peckham.k12.ok.us,Kim Case
KAY         ,36-C050,Kildare                       ,Ponca City,1265 Church Street,OK,74604.0,(580) 362-2811,(580) 362-3342,Kidare.k12.ok.us,Bruce Shelley,bshelley@kildare.k12.ok.us,Dustin Schickram
KAY         ,36-I045,Blackwell                     ,Blackwell,201 East Blackwell Ave,OK,74631.0,(580) 363-2570,(580) 363-5513,www.blackwell.k12.ok.us,Richard Riggs,rriggs@blackwell.k12.ok.us,Stacey Husted
KAY         ,36-I071,Ponca City                    ,Ponca City,613 East Grand Ave,OK,74601.0,(580) 767-8000,(580) 767-9569,www.pcps.us,David Pennington,pennid@pcps.us,Marvin Clark
KAY         ,36-I087,Tonkawa                       ,Tonkawa,500 East North Ave,OK,74653.0,(580) 628-3597,(580) 628-5132,www.tonkawa.k12.ok.us,Lori Simpson,lsimpson@tonkawa.k12.ok.us,Mark Cranford
KAY         ,36-I125,Newkirk                       ,Newkirk,625 West South Street,OK,74647.0,(580) 362-2388,(580) 362-3413,www.newkirkps.com,Steve Stanley,sstanley@newkirk.k12.ok.us,Russell Cobb
KINGFISHER  ,37-I002,Dover                         ,Dover,201 N Taylor,OK,73734.0,(405) 828-4206,(405) 828-7150,www.dover.k12.ok.us,Shannon Grimes,sgrimes@dover.k12.ok.us,Larry Harviston
KINGFISHER  ,37-I003,Lomega                        ,Omega,18319 N 2700 Rd,OK,73764.0,(405) 729-4215,(405) 729-4666,www.lomega.k12.ok.us,Karen Castonguay,karenc@lomega.k12.ok.us,Terry Marks
KINGFISHER  ,37-I007,Kingfisher                    ,Kingfisher,602 West Chisholm Drive,OK,73750.0,(405) 375-4194,(405) 375-5565,http://www.kingfisher.k12.ok.us/,Jason Sternberger,jason.sternberger@kingfisher.k12.ok.us,Michael Copeland
KINGFISHER  ,37-I016,Hennessey                     ,Hennessey,604 East Oklahoma Street,OK,73742.0,(405) 853-4321,(405) 853-4439,www.hps.k12.ok.us,Joe Mcculley,jmcculley@hps.k12.ok.us,James Matousek
KINGFISHER  ,37-I089,Cashion                       ,Cashion,101 North Euclid,OK,73016.0,(405) 433-2741,(405) 433-2646,www.cashionps.org,Sammy Jackson,sjackson@cashionps.org,Steve Andrews
KINGFISHER  ,37-I105,Okarche                       ,Okarche,632 West Oklahoma Ave,OK,73762.0,(405) 263-7300,(405) 263-7515,www.okarche.k12.ok.us,Robert Friesen,friesenr@okarche.k12.ok.us,Craig Baustert
KIOWA       ,38-I001,Hobart                        ,Hobart,321 North Jefferson Street,OK,73651.0,(580) 726-5691,(580) 726-2855,www.hobart.k12.ok.us,Cathy Hunt,huntc@hobart.k12.ok.us,Karla Branam
KIOWA       ,38-I002,Lone Wolf                     ,Lone Wolf,1001 7Th St.,OK,73655.0,(580) 846-9091,(580) 846-5266,lonewolfschool.com,James Sutherland,jsutherland@itlnet.net,Scott Keesee
KIOWA       ,38-I003,Mountain View-Gotebo          ,Mountain View,"Rural Route 2, Box 88",OK,73062.0,(580) 347-2211,(580) 347-2869,www.mvgschools.com,Sam Belcher,sbelcher@mvgschools.com,Jennifer Sechrist
KIOWA       ,38-I004,Snyder                        ,Mt. Park,218 N Highway 183,OK,73559.0,(580) 569-2773,(580) 569-4205,www.snyder.k12.ok.us,Robert Trammell,rtrammell@snyder.k12.ok.us,Mike Roberts
LATIMER     ,39-I001,Wilburton                     ,Wilburton,1201 West Blair Ave,OK,74578.0,(918) 465-2100,(918) 465-3086,www.wilburtondiggers.org,Beatrice Butler,trice.butler@wilburtondiggers.org,Charles Adams
LATIMER     ,39-I002,Red Oak                       ,Red Oak,404 N. Main,OK,74563.0,(918) 754-2426,(918) 754-2898,www.redoak.k12.ok.us,Bryan Deatherage,bdeatherage@redoak.k12.ok.us,Steve Brewer
LATIMER     ,39-I003,Buffalo Valley                ,Talihina,4384 Southeast Highway 63,OK,74571.0,(918) 522-4426,(918) 522-4287,www.bvpsd.org,Justin Kennedy,jkennedy@bvpsd.org,Russell Shaw
LATIMER     ,39-I004,Panola                        ,Wilburton,5558 Ne 104Th Rd,OK,74578.0,(918) 465-3298,(918) 465-3656,http://panolabearcats.org/,Brad Corcoran,brad.corcoran@panolabearcats.org,Bobby Ketcher
LE FLORE    ,40-C004,Shady Point                   ,Shady Point,22838 Wheelus ,OK,74956.0,(918) 963-2595,(918) 963-2605,www.spk12.org,Bruce Gillham,bruce.gillham@spk12.org,Marcus Blair
LE FLORE    ,40-C011,Monroe                        ,Monroe,36709 Boyd Street,OK,74947.0,(918) 658-3516,(918) 658-3347,www.monroe.k12.ok.us,Karen Larosa,klarosa@monroe.k12.ok.us,Skip Baxter
LE FLORE    ,40-C014,Hodgen                        ,Hodgen,Schoolhouse Road,OK,74939.0,(918) 653-4476,(918) 653-2525,http://www.hodgen.k12.ok.us/,Ward Brown,wbrown@hodgen.k12.ok.us,Debbie Humphrey
LE FLORE    ,40-C039,Fanshawe                      ,Fanshawe,Hwy 270,OK,74935.0,(918) 659-2341,(918) 659-2275,NULL,Wes Mcgowen,wmcgowen@fanshawe.k12.ok.us,Doug Horne
LE FLORE    ,40-I002,Spiro                         ,Spiro,600 West Broadway Street,OK,74959.0,(918) 962-2463,(918) 962-2757,www.spiro.k12.ok.us,Don Atkinson,donatkinson@spiro.k12.ok.us,Justin Sebo
LE FLORE    ,40-I003,Heavener                      ,Heavener,500 West 2Nd Street,OK,74937.0,(918) 653-7223,(918) 653-7843,http://heavenerschools.org,Edward Wilson,ewilson@heavenerschools.org,Danny Yandell
LE FLORE    ,40-I007,Pocola                        ,Pocola,600 East Pryor Ave,OK,74902.0,(918) 436-2424,(918) 436-2437,http://www.pocola.k12.ok.us,Lawrence Barnes,lbarnes@pocola.k12.ok.us,Roger Lairamore
LE FLORE    ,40-I016,Le Flore                      ,Leflore,43172 South Booth Ave,OK,74942.0,(918) 753-2345,(918) 753-2604,www.lefloreps.k12.ok.us,Lane Jackson,ljackson@leflore.k12.ok.us,Doylene Heaton
LE FLORE    ,40-I017,Cameron                       ,Cameron,26661 W. 5Th St,OK,74932.0,(918) 654-3225,(918) 654-7387,www.cameronps.org,Jim Caughern,caughja@cameronps.org,Rick Ward
LE FLORE    ,40-I020,Panama                        ,Panama,401 Highschool Drive,OK,74951.0,(918) 963-2215,(918) 963-4860,http://www.panama.k12.ok.us/,Grant Ralls,gralls@panama.k12.ok.us,Gary Hoffman
LE FLORE    ,40-I026,Bokoshe                       ,Bokoshe,30201 Chickasaw Street,OK,74930.0,(918) 969-2491,(918) 969-2493,www.bokosheschool.org,Dennis Shoup,dshoup@bokoshe.k12.ok.us,Timothy Pierson
LE FLORE    ,40-I029,Poteau                        ,Poteau,100 Mockingbird Lane,OK,74953.0,(918) 647-7700,(918) 647-9357,www.poteau.k12.ok.us,Don Sjoberg,sjobergdon@poteau.k12.ok.us,Ron Hall
LE FLORE    ,40-I049,Wister                        ,Wister,201 Logan Street,OK,74966.0,(918) 655-7381,(918) 655-7402,http://www.wisterschools.org,Rachel Pugh,rachel.pugh@wisterschools.org,Leon Mitchell
LE FLORE    ,40-I052,Talihina                      ,Talihina,301 Isherwood St.,OK,74571.0,(918) 567-2259,(918) 567-3507,www.talihina.k12.ok.us,Jason Lockhart,jlockhart@talihina.k12.ok.us,Steven Ramsey
LE FLORE    ,40-I062,Whitesboro                    ,Whitesboro,35069 St Hwy 63,OK,74577.0,(918) 567-2556,(918) 567-2842,whitesborops.k12.ok.us,Katie Blagg,kblagg@whitesboro.k12.ok.us,Russell Barron
LE FLORE    ,40-I067,Howe                          ,Howe,21444 E.N. Railroad Street,OK,74940.0,(918) 658-3666,(918) 658-2233,www.howeschools.org,Scott Parks,sparks@howeschools.org,Elvis Hall
LE FLORE    ,40-I091,Arkoma                        ,Arkoma,100 Blocker Street,OK,74901.0,(918) 875-3351,(918) 875-3780,https://sites.google.com/site/arkomak12/,John Turner,jturner@arkoma.k12.ok.us,J. L. Henry
LINCOLN     ,41-C005,White Rock                    ,Mcloud,334998 East 1010 Road,OK,74851.0,(405) 964-3428,(405) 964-3427,http://www.whiterock.k12.ok.us,Travis Gates,tgates@whiterock.k12.ok.us,Randy Sherman
LINCOLN     ,41-I001,Chandler                      ,Chandler,901 South Chs Street,OK,74834.0,(405) 258-1450,(405) 258-2657,http://www.chandler.k12.ok.us/,Wayland Kimble,wkimble@chandler.k12.ok.us,Joseph Irby
LINCOLN     ,41-I003,Davenport                     ,Davenport,417 Broadway,OK,74026.0,(918) 377-2277,(918) 377-2553,http://www.davenportk12.com/,Danny Acord,dacord@davenport.k12.ok.us,Dr. Dan Waters
LINCOLN     ,41-I004,Wellston                      ,Wellston,800 Birch,OK,74881.0,(405) 356-2534,(405) 356-2838,http://www.wellstonschools.org,Dwayne Danker,ddanker@wellstonschools.org,Amanda Tillison
LINCOLN     ,41-I054,Stroud                        ,Stroud,212 West 7Th Street,OK,74079.0,(918) 968-2541,(918) 968-2582,www.stroud.k12.ok.us,Joe Van Tuyl,jvantuyl@stroud.k12.ok.us,John Cook
LINCOLN     ,41-I095,Meeker                        ,Meeker,214 East Carl Hubbell Blvd,OK,74855.0,(405) 788-4540,(405) 279-2765,www.meeker.k12.ok.us,Jeffrey S. Pruitt,jpruitt@meeker.k12.ok.us,Marc Chapman
LINCOLN     ,41-I103,Prague                        ,Prague,1100 Blue Bell,OK,74864.0,(405) 567-4455,(405) 567-3095,www.prague.k12.ok.us,Justin Lockwood,jlockwood@prague.k12.ok.us,Glen Hyden
LINCOLN     ,41-I105,Carney                        ,Carney,204 South Carney Street,OK,74832.0,(405) 865-2344,(405) 865-2345,www.carney.k12.ok.us,Alicia O'donnell,aodonnell@carney.k12.ok.us,Raymond Hemphill
LINCOLN     ,41-I134,Agra                          ,Agra,112 South Main,OK,74824.0,(918) 375-2261,(918) 375-2263,http://www.agra.k12.ok.us/,Don Gray,dgray@agra.k12.ok.us,Joe Selcer
LOGAN       ,42-I001,Guthrie                       ,Guthrie,802 East Vilas Ave,OK,73044.0,(405) 282-8900,(405) 282-5904,http://www.guthrie.k12.ok.us,Dr. Mike Simpson,mike.simpson@guthrieps.net,Terry Pennington
LOGAN       ,42-I002,Crescent                      ,Crescent,106 North Magnolia St,OK,73028.0,(405) 969-3738,(405) 969-2003,www.crescentok.com,Mickey Hart,mhart@crescentok.com,Tom Clark
LOGAN       ,42-I003,Mulhall-Orlando               ,Mulhall,215 S Lewis,OK,73063.0,(405) 649-2000,(405) 649-2020,www.mulhall-orlando.k12.ok.us/,Rodney Vollmer,rvollmer@mulhall-orlando.k12.ok.us,Damon Yost
LOGAN       ,42-I014,Coyle                         ,Coyle,700 S Cottingham,OK,73027.0,(405) 466-2242,(405) 466-2448,www.coyle.k12.ok.us,Josh Sumrall,jsumrall@coyle.k12.ok.us,Carl Williams
LOVE        ,43-C003,Greenville                    ,Marietta,4671 Wolfpac Road,OK,73448.0,(580) 276-2968,(580) 276-4605,http://greenville.k12.ok.us,Jason Midkiff,jmidkiff@gpsmail.org,Betty Sue Tow
LOVE        ,43-I004,Thackerville                  ,Thackerville,18943 Us Highway 77,OK,73459.0,(580) 276-2630,(580) 276-2638,http://thackerville.opsrc.net,Greg Raper,graper@tpsmail.org,Kevin Wolfe
LOVE        ,43-I005,Turner                        ,Burneyville,22069 State Hwy.32,OK,73430.0,(580) 276-1307,(580) 276-5223,www.turnerisd.org,Burl Solie,bsolie@turnerisd.org,Lance Parker
LOVE        ,43-I016,Marietta                      ,Marietta,800 S 4Th Street,OK,73448.0,(580) 276-9444,(580) 276-4037,http://www.mariettaisd.org,Joel Neely,jneely@mariettaisd.org,Frank L. Lornes
MAJOR       ,44-I001,Ringwood                      ,Ringwood,101 W. 5Th,OK,73768.0,(580) 883-2202,(580) 883-2220,http://www.ringwood.k12.ok.us/,Wade Detrick,wdetrick@ringwood.k12.ok.us,Dennis Burnett
MAJOR       ,44-I004,Aline-Cleo                    ,Aline,301 East Ash,OK,73716.0,(580) 463-2255,(580) 463-2256,alinecleo.k12.ok.us,Barry Nault,bnault@alinecleo.k12.ok.us,Scott Robinson
MAJOR       ,44-I084,Fairview                      ,Fairview,408 East Broadway Street,OK,73737.0,(580) 227-2531,(580) 227-2642,http://www.fairviewhigh.com/,Rocky Burchfield,burchfield@auroraok.org,Eva Martens
MAJOR       ,44-I092,Cimarron                      ,Lahoma,301 Main St.,OK,73754.0,(580) 796-2204,(580) 796-2350,http://www.cimarron.k12.ok.us/,Steve Walker,supt@cimarron.k12.ok.us,Larry Frey
MARSHALL    ,45-I002,Madill                        ,Madill,601 West Mcarthur Street,OK,73446.0,(580) 795-3303,(580) 795-3210,www.madillok.com,Jon Tuck,jtuck@madillok.com,Tony Hawkins
MARSHALL    ,45-I003,Kingston                      ,Kingston,400 Ne 3Rd,OK,73439.0,(580) 564-9033,(580) 564-9516,http://www.kingston.k12.ok.us/,Ron Whipkey,rwhipkey@kingston.k12.ok.us,Gary Cluck
MAYES       ,46-C021,Spavinaw                      ,Spavinaw,100 Lake Avenute,OK,74366.0,(918) 589-2228,(918) 589-2476,NULL,Christine Midgley,cmidgley@spavinawok.net,Dalton Jones
MAYES       ,46-C035,Wickliffe                     ,Salina,11176 East 470,OK,74365.0,(918) 434-5558,(918) 434-3592,http://www.wickliffeschool.com,Teresia Knott,teresia.knott@wickliffeschool.com,Stephanie Beck
MAYES       ,46-C043,Osage                         ,Pryor,7960 West 490,OK,74361.0,(918) 825-2550,(918) 825-1433,NULL,Melinda Fink,mfink@osageelementary.com,Greg Mckinney
MAYES       ,46-I001,Pryor                         ,Pryor,521 Se 1St St.,OK,74361.0,(918) 825-1255,(918) 825-3938,www.pryorschools.org,Don Raleigh,raleighd@pryorschools.org,Fred Sordahl
MAYES       ,46-I002,Adair                         ,Adair,202 Se 1St St.,OK,74330.0,(918) 785-2424,(918) 785-2491,http://www.adair.k12.ok.us,Tom Linihan,tlinihan@adairschools.org,Russell Langley
MAYES       ,46-I016,Salina                        ,Salina,212 E Ferry St,OK,74365.0,(918) 434-5091,(918) 434-5346,www.salina.k12.ok.us,Tony Thomas,tthomas@salina.k12.ok.us,Johnny Morris
MAYES       ,46-I017,Locust Grove                  ,Locust Grove,302 E Joe Koelsch,OK,74352.0,(918) 479-5243,(918) 479-6468,www.lg.k12.ok.us,Lori Helton,lhelton@lg.k12.ok.us,Rick Condit
MAYES       ,46-I032,Chouteau-Mazie                ,Chouteau,521 North Mccracken,OK,74337.0,(918) 476-8376,(918) 476-8538,http://www.chouteauwildcats.com/,Kenny Mason,kmason@chouteauwildcats.com,James Grossman
MCCLAIN     ,47-I001,Newcastle                     ,Newcastle,101 North Main Street,OK,73065.0,(405) 387-2890,(405) 387-3482,http://www.newcastle.k12.ok.us,Tony O'brien,tobrien@newcastle.k12.ok.us,James Albertson
MCCLAIN     ,47-I002,Dibble                        ,Blanchard,22092 Old Town First,OK,73010.0,(405) 344-6375,(405) 344-6977,http://dibblepublicschools.schoolinsites.com/,Chad Clanton,clanton@dibble.k12.ok.us,Steve Long
MCCLAIN     ,47-I005,Washington                    ,Washington,101 East Kerby,OK,73093.0,(405) 288-6190,(405) 288-6214,www.washington.k12.ok.us,A.J. Brewer,ajbrewer@washington.k12.ok.us,Jason Hendrix
MCCLAIN     ,47-I010,Wayne                         ,Wayne,212 South Seifried Street,OK,73095.0,(405) 449-3646,(405) 449-7095,www.wayne.k12.ok.us,David Powell,zacpowell@wayne.k12.ok.us,Junior Welch
MCCLAIN     ,47-I015,Purcell                       ,Purcell,919 1/2 North Ninth Ave,OK,73080.0,(405) 527-2146,(405) 527-6366,http://www.purcellps.org,Jerry Swayze,swayzej@purcellps.org,Rick Schmidt
MCCLAIN     ,47-I029,Blanchard                     ,Blanchard,211 North Tyler Ave,tOK,73010.0,(405) 485-3391,(405) 485-2985,www.blanchard.k12.ok.us,Jim Beckham,drbeckham@blanchard.k12.ok.us,Andy Martin
MCCURTAIN   ,48-C001,Forest Grove                  ,Garvin,1941 Forest Grove Road,OK,74736.0,(580) 286-3961,(580) 286-3974,forestgrove.k12.ok.us,John Smith,john.smith@forestgrove.k12.ok.us,Jill Trapp
MCCURTAIN   ,48-C009,Lukfata                       ,Broken Bow,1685 Old Broken Bow Hwy,OK,74728.0,(580) 584-6834,(580) 584-9473,NULL,Kurt Neal,kneal@lukfata.org,Chet Patel
MCCURTAIN   ,48-C023,Glover                        ,Broken Bow,701 Lavender Rd.,OK,74728.0,(580) 420-3232,(580) 420-3226,www.freeriver.org,Tanya Whisenhunt,twhisenhunt@freeriver.org,Jamie Stewart
MCCURTAIN   ,48-C037,Denison                       ,Idabel,3001 East Washington,OK,74745.0,(580) 286-3319,(580) 286-5743,http://www.denison.k12.ok.us,Jordan Hill,jhill@denison.k12.ok.us,Darrell Ward
MCCURTAIN   ,48-C072,Holly Creek                   ,Broken Bow,401 Holly Creek Road,OK,74728.0,(580) 420-6961,(580) 420-7022,www.hollycreek.org,Harvey Brumley,hbrumley@hollycreek.org,Tony Hester
MCCURTAIN   ,48-I005,Idabel                        ,Idabel,200 Northeast Ave C,OK,74745.0,(580) 286-7639,(580) 286-8276,http://www.idabelps.org/,Doug Brown,doug.brown@idabelps.org,Brent Bolen
MCCURTAIN   ,48-I006,Haworth                       ,Haworth,300 North Maple Street,OK,74740.0,(580) 245-1406,(580) 245-2265,www.haworth.k12.ok.us,Ted Brewer,tbrewer@haworth.k12.ok.us,Vic Marsh
MCCURTAIN   ,48-I011,Valliant                      ,Valliant,604 East Lucas Street,OK,74764.0,(580) 933-7232,(580) 933-7289,www.vpsd.org,Craig Wall,cwall@vpsd.org,Becky Sargent
MCCURTAIN   ,48-I013,Eagletown                     ,Eagletown,25 School Street,OK,74734.0,(580) 835-2242,(580) 835-7420,http://www.eagletownisd.org/index.htm,Brian Armstrong,barmstrong@eagletownisd.org,Rodney Short
MCCURTAIN   ,48-I014,Smithville                    ,Smithville,339 Main St.,OK,74957.0,(580) 244-3333,(580) 244-7583,http://www.smithville.k12.ok.us/,Delbert Mcbroom,dmcbroom@smithville.k12.ok.us,Lee Brown
MCCURTAIN   ,48-I039,Wright City                   ,Wright City,601 School Street,OK,74766.0,(580) 981-2824,(580) 981-2115,www.wcisd.org,David Hawkins,dhawkins@wcisd.org,James Carper
MCCURTAIN   ,48-I071,Battiest                      ,Broken Bow,5635 Unit E Battiest Pickens Road,OK,74728.0,(580) 241-7810,(580) 241-7847,NULL,Stace Ebert,eberts@battiest.k12.ok.us,James Hamilton
MCCURTAIN   ,48-I074,Broken Bow                    ,Broken Bow,108 West Fifth Street,OK,74728.0,(580) 584-3306,(580) 584-9482,www.bbisd.org,Carla Ellisor,cjellisor@bbisd.org,Tim Moyer
MCCURTAIN   ,48-K002,(Ilc) Southeastern Oklahoma   ,Idabel,103 Ne Ave A,OK,74745.0,(580) 286-3344,(580) 286-5598,soic.k12.ok.us,Tracy Mussett,tracy@soic.k12.ok.us,Craig Wall
MCINTOSH    ,49-C003,Ryal                          ,Henryetta,115035 S 3960 Rd,OK,74437.0,(918) 652-7461,(918) 652-7635,www.ryal.k12.ok.us,Lynn Maxwell,lmaxwell@ryal.k12.ok.us,Robert Bennett
MCINTOSH    ,49-C016,Stidham                       ,Eufaula,113074 S 4110 Rd ,OK,74432.0,(918) 689-5241,(918) 689-9163,www.stidham.k12.ok.us,Danny Williams,sup@stidham.k12.ok.us,Abe Mcintosh
MCINTOSH    ,49-I001,Eufaula                       ,Eufaula,1717 W. Jm Bailey Hwy,OK,74432.0,(918) 689-2152,(918) 689-1080,http://www.eufaula.k12.ok.us/,Jeanette Smith,jfsmith@eufaula.k12.ok.us,Shirley Breedlove
MCINTOSH    ,49-I019,Checotah                      ,Checotah,310 Sw 2Nd St.,OK,74426.0,(918) 473-5610,(918) 473-1020,www.checotah.k12.ok.us,Janet Blocker,jblocker@checotah.k12.ok.us,Marcus Burkhalter
MCINTOSH    ,49-I027,Midway                        ,Council Hill,316 South Pine,OK,74428.0,(918) 474-3434,(918) 474-3636,http://midway.k12.ok.us/,Bruce Douglas,bdouglas@midway.k12.ok.us,Gary Duvall
MCINTOSH    ,49-I064,Hanna                         ,Hanna,301 E. Second St.,OK,74845.0,(918) 657-2523,(918) 657-2424,http://www.hanna.k12.ok.us/,Richard Boatright,rboatright@hanna.k12.ok.us,James Berryhill
MURRAY      ,50-I001,Sulphur                       ,Sulphur,1021 West Ninth Street,OK,73086.0,(580) 622-2061,(580) 622-6789,www.sulphurk12.org,Gary Jones,gary.jones@sulphurk12.org,Key Tammy
MURRAY      ,50-I010,Davis                         ,Davis,400 East Atlanta Ave,OK,73030.0,(580) 369-2386,(580) 369-3507,www.davis.k12.ok.us,Todd Garrison,tgarrison@davis.k12.ok.us,Dorena White
MUSKOGEE    ,51-C009,Wainwright                    ,Wainwright,115 E. Walnut,OK,74468.0,(918) 474-3484,(918) 474-3744,NULL,Jim Ogden,wainwright.ps@lycos.com,Ron Watson
MUSKOGEE    ,51-I002,Haskell                       ,Haskell,900 North Ohio,OK,74436.0,(918) 482-5221,(918) 482-3346,http://www.haskellps.org,Doyle Bates,dbates@haskellps.org,John Dillingham
MUSKOGEE    ,51-I003,Fort Gibson                   ,Fort Gibson,500 South Ross Ave,OK,74434.0,(918) 478-2474,(918) 478-8533,www.ftgibson.k12.ok.us,Derald Glover,d_glover@ftgibson.k12.ok.us,Larry Sand
MUSKOGEE    ,51-I006,Webbers Falls                 ,Webbers Falls,206 Gibson St.,OK,74470.0,(918) 464-2334,() -,www.webbersfalls.k12.ok.us,Dixie Swearingen,dswearingen@webbersfalls.k12.ok.us,Terry Hayes
MUSKOGEE    ,51-I008,Oktaha                        ,Oktaha,531 E. Prairie,OK,74450.0,(918) 687-7556,(918) 687-0074,http://www.oktahaschool.com/,Jerry Needham,jneedham@oktahaschool.com,James Murr
MUSKOGEE    ,51-I020,Muskogee                      ,Muskogee,202 West Broadway Street,OK,74401.0,(918) 684-3700,(918) 684-3827,www.mpsi20.org,Mike Garde,mike.garde@mpsi20.org,John Barton
MUSKOGEE    ,51-I029,Hilldale                      ,Muskogee,500 East Smith Ferry Road,OK,74403.0,(918) 683-0273,(918) 683-8725,www.hilldale.k12.ok.us,Dr. Kaylin Coody,kcoody@hilldaleps.org,Mark Grandstaff
MUSKOGEE    ,51-I046,Braggs                        ,Braggs,300 Madden Ave,OK,74423.0,(918) 487-5265,(918) 487-2012,www.braggs.k12.ok.us,Michael Broyles,mbroyles@braggs.k12.ok.us,Alicia Beasley
MUSKOGEE    ,51-I074,Warner                        ,Warner,1012 5Th Ave.,OK,74469.0,(918) 463-5171,(918) 463-2542,www.warner.k12.ok.us,David Vinson,davidvinson@warner.k12.ok.us,Dale Wiggins
MUSKOGEE    ,51-I088,Porum                         ,Porum,4Th & Osage,OK,74455.0,(918) 484-5121,(918) 484-2310,http://www.porum.k12.ok.us,Curtis Curry,ccurry@porum.k12.ok.us,Keith Shrum
NOBLE       ,52-I001,Perry                         ,Perry,900 Fir Street,OK,73077.0,(580) 336-4511,(580) 336-5185,www.perry.k12.ok.us,Scott Chenoweth,schenoweth@perry.k12.ok.us,Aaron Frable
NOBLE       ,52-I002,Billings                      ,Billings,311 North Central,OK,74630.0,(580) 725-3271,(580) 725-3278,www.billings.k12.ok.us,Rustin Clark,rclark@billings.k12.ok.us,Aimie Learned
NOBLE       ,52-I004,Frontier                      ,Red Rock,17750 Valley Rd,OK,74651.0,(580) 723-4361,(580) 723-4516,www.frontierok.com,Tracy Kincannon,tkincannon@frontierok.com,Brad Childs
NOBLE       ,52-I006,Morrison                      ,Morrison,2Nd Street And C Ave,OK,73061.0,(580) 724-3341,(580) 724-3004,www.morrisonps.com,Jay Vernon,jayvernon@morrisonps.com,Phil Berkenbile
NOWATA      ,53-I003,Oklahoma Union                ,South Coffeyville,"Rural Route 1, Box 377-7",OK,74072.0,(918) 255-6550,(918) 255-6817,okunion.k12.ok.us,Kevin Stacy,kstacy@okunion.k12.ok.us,Eric Epperson
NOWATA      ,53-I040,Nowata                        ,Nowata,707 West Osage Ave,OK,74048.0,(918) 273-3425,(918) 273-2105,www.npsok.org,Leon Ashlock,lashlock@npsok.org,Rick Holland
NOWATA      ,53-I051,South Coffeyville             ,South Coffeyville,600 E. 5Th ,OK,74072.0,(918) 255-6202,(918) 255-6230,http://scps.k12.ok.us,Clemo Haddox,cfhaddox@scps.k12.ok.us,Barry Kallenberger
OKFUSKEE    ,54-C029,Bearden                       ,Okemah,372006 Hwy 48,OK,74859.0,(918) 623-0156,(918) 623-9349,http://www.bearden.k12.ok.us,Danielle Deere,ddeere@bearden.k12.ok.us,Robert George
OKFUSKEE    ,54-I002,Mason                         ,Mason,374006 E. 1000 Road,OK,74859.0,(918) 623-0231,(918) 623-0884,http://www.mason.k12.ok.us/,Jerry Bogle,masonsupt@mason.k12.ok.us,Dick Ladd
OKFUSKEE    ,54-I014,Paden                         ,Paden,10Th & Elm,OK,74860.0,(405) 932-5053,(405) 932-4132,www.paden.k12.ok.us,Stiles Michelle,mstiles@paden.k12.ok.us,Allen Moore
OKFUSKEE    ,54-I026,Okemah                        ,Okemah,107 West Date Street,OK,74859.0,(918) 623-1874,(918) 623-1203,www.okemah.k12.ok.us,Tony Dean,tdean@okemahk12.com,Patti Miller
OKFUSKEE    ,54-I031,Weleetka                      ,Weleetka,302 E. 6Th,OK,74880.0,(405) 786-2203,(405) 786-2625,www.weleetka.k12.ok.us,Chris Carter,ccarter@weleetka.k12.ok.us,Roger Birdcreek
OKFUSKEE    ,54-I054,Graham-Dustin                 ,Weleetka,116118 Highway 84,OK,74880.0,(918) 652-8935,(918) 652-2422,www.graham.k12.ok.us,Dusty Chancey,dchancey@graham.k12.ok.us,Ken Kelsey
OKLAHOMA    ,55-C029,Oakdale                       ,Edmond,5701 E Hefner Road,OK,73013.0,(405) 771-3373,(405) 771-5220,www.oakdale.org,Kim Lanier,klanier@oakdale.org,Kelli Mitchell
OKLAHOMA    ,55-C074,Crutcho                       ,Oklahoma City,2401 North Air Depot Blvd,OK,73141.0,(405) 427-3771,(405) 427-3816,www.crutchoesd.org,Teresa Mcafee,tmcafee@crutchoesd.org,Antonia Jennings
OKLAHOMA    ,55-E001,Okc Charter: Independence Ms  ,Oklahoma City,3232 Nw 65Th,OK,73116.0,(405) 767-3000,(405) 767-3007,http://www.icmsokc.com,Vana Baker,vanabaker@yahoo.com,Bill Greer
OKLAHOMA    ,55-E002,Okc Charter: Seeworth Academy ,Okc,12600 N Kelley Ave.,OK,73131.0,(405) 475-6400,(405) 475-5561,NULL,Janet Grigg,mamajisok@seeworthacademy.org,Beverly Patchell
OKLAHOMA    ,55-E003,Okc Charter: Hupfeld/W Village,Oklahoma City,1508 Nw 106Th,OK,73114.0,(405) 751-1774,(405) 752-6833,www.wvacademy.com,Tobi Campbell,tobi.campbell@integrisok.com,Jason Elliot
OKLAHOMA    ,55-E005,Okc Charter: Dove Science Acad,Oklahoma City,919 Nw 23Rd St.,OK,73106.0,(405) 524-9762,(405) 524-9471,http://www.dsaokc.org/,Umit Alpaslan,alp@doveschools.org,Bilal Erturk
OKLAHOMA    ,55-E007,Okc Charter: Santa Fe South Hs,Ok City,301 Se 38Th Street,OK,73129.0,(405) 631-6100,(405) 681-6993,http://www.santafesouth.org,Chris Brewster,cbrewster@santafesouth.org,Jace Kirk
OKLAHOMA    ,55-E008,Okc Charter: Harding Charter  ,Oklahoma City,3333 N Shartel Ave,OK,73118.0,(405) 606-8742,(405) 609-1677,www.hardingcharterprep.org,Mylo Miller,mmiller@hardingcharterprep.org,Rhonda Thompson
OKLAHOMA    ,55-E010,Okc Charter: Harding Fine Arts,Oklahoma City ,3333 N. Shartel Ave,OK,73118.0,(405) 702-4322,(405) 601-0904,www.hardingfinearts.org,Barry Schmelzenbach,bach@hfaaokc.org,Sally Bentley
OKLAHOMA    ,55-E011,Okc Charter: Santa Fe South Ms,Oklahoma City,4712 S. Santa Fe Blvd. ,OK,73109.0,(405) 635-1053,(405) 681-6993,NULL,Christopher Brewster,cbrewster@santafesouth.org,Jace Kirk
OKLAHOMA    ,55-E012,Okc Charter: Kipp Reach Coll. ,Oklahoma City,1901 Ne 13Th Street,OK,73117.0,(405) 425-4622,(405) 425-4624,www.kippreach.org,Tracy Mcdaniel,tmcdaniel@kippreach.org,Brandon Clark
OKLAHOMA    ,55-E013,Okc Charter: Dove Science Es  ,Oklahoma City,4901 N Lincoln Blvd,OK,73105.0,(405) 605-5566,(405) 605-5578,www.dsaelementary.org,Umit Alpaslan,alp@doveschools.org,Bilal Erturk
OKLAHOMA    ,55-E016,Okc Charter: Harper Academy   ,Oklahoma City,1215 N.E. 34Th Street,OK,73111.0,(405) 605-2600,(405) 605-2644,www.harpercharterschools.org,Melvin Perry,mperry@harpercharterschools.org,Harvey Bethany
OKLAHOMA    ,55-E020,Okc Charter: Lighthouse Okc   ,Oklahoma City,4906 South Santa Fe,OK,73109.0,(405) 600-7038,(405) 437-2545,http://www.lighthouse-academies.org/,Carlisha Williams,cawilliams@lhacs.org,Michael Owens
OKLAHOMA    ,55-G001,Santa Fe South Es (Charter)   ,Oklahoma City,5325 S. Pennsylvania Ave,KO,73119.0,(405) 681-7480,(405) 681-7484,NULL,Christopher Brewster,cbrewster@santafesouth.org,Jace Kirk
OKLAHOMA    ,55-G004,Astec Charters                ,Oklahoma City,"2401 Nw 23Rd Street, Ste. 39A",OK,73107.0,(405) 947-6272,(405) 947-0035,www.asteccharterschools.com,Freda Deskin,fdeskin@asteccharterschools.com,Brad Martin
OKLAHOMA    ,55-G007,John W Rex Charter Elementary ,Oklahoma City,500 West Sheridan,OK,73102.0,(405) 587-8100,(405) 587-8105,www.johnrexschool.org,Joseph Pierce,jpierce@johnrexschool.org,Kirk Humphries
OKLAHOMA    ,55-I001,Putnam City                   ,Warr Acres,5401 Northwest 40Th Street,OK,73122.0,(405) 495-5200,(405) 787-4870,www.putnamcityschools.org,Fred Rhodes,frhodes@putnamcityschools.org,Cindy Gibbs
OKLAHOMA    ,55-I003,Luther                        ,Luther,900 South Dogwood,OK,73054.0,(405) 277-3233,(405) 277-3498,www.lutherlions.org,Sheldon Buxton,sbuxton@lutherlions.org,Aaron Bachhofer
OKLAHOMA    ,55-I004,Choctaw-Nicoma Park           ,Choctaw,12880 Northeast Tenth Street,OK,73020.0,(405) 769-4859,(405) 769-9821,http://www.cnpschools.org/,Jim Mccharen,supt@cnpschools.org,Daryl Crusoe
OKLAHOMA    ,55-I006,Deer Creek                    ,Edmond,20701 North Macarthur Blvd,OK,73012.0,(405) 348-6100,(405) 348-3049,www.deercreekschools.org,Ranet Tippens,ranettippens@dcsok.org,John Robertson
OKLAHOMA    ,55-I007,Harrah                        ,Harrah,20670 Walker Street,OK,73045.0,(405) 454-6244,(405) 454-0022,www.harrahschools.com,Paul Blessington,pblessington@harrahschools.com,Trey Swan
OKLAHOMA    ,55-I009,Jones                         ,Jones,9200 N. Hiwassee Rd.,OK,73049.0,(405) 399-9215,(405) 399-9212,www.jones.k12.ok.us,Carl Johnson,cjohnson@joneshs.k12.ok.us,Ken Guthery
OKLAHOMA    ,55-I012,Edmond                        ,Edmond,1001 West Danforth Road,OK,73003.0,(405) 340-2828,(405) 340-2835,http://www.edmondschools.net,Bret Towne,bret.towne@edmondschools.net,Kathleen Duncan
OKLAHOMA    ,55-I037,Millwood                      ,Oklahoma City,6724 North Martin Luther King Ave,OK,73111.0,(405) 478-1336,(405) 478-4698,http://www.millwoodps.org,Cecilia Robinson,crobinson@millwoodps.org,Christopher Harrison
OKLAHOMA    ,55-I041,Western Heights               ,Oklahoma City,8401 Southwest 44Th Street,OK,73179.0,(405) 350-3410,(405) 745-6322,www.westernheights.k12.ok.us,Joe Kitchens,joe.kitchens@westernheights.k12.ok.us,Jann Davenport
OKLAHOMA    ,55-I052,Midwest City-Del City         ,Midwest City,7217 Se 15Th Street,OK,73110.0,(405) 737-4461,(405) 739-1615,www.mid-del.net,Rick Cobb,rcobb@mid-del.net,Tim Blanton
OKLAHOMA    ,55-I053,Crooked Oak                   ,Oklahoma City,1450 S Eastern Aveneue,OK,73129.0,(405) 677-5252,(405) 670-8070,www.crookedoak.org,Brad Richards,brichards@crookedoak.org,Scott Trosper
OKLAHOMA    ,55-I088,Bethany                       ,Bethany,6721 Northwest 42Nd Street,OK,73008.0,(405) 789-3801,(405) 499-4606,http://www.bethanyschools.com,Kent Shellenberger,kshel@bps.k12.ok.us,Les Pettitt
OKLAHOMA    ,55-I089,Oklahoma City                 ,Oklahoma City,900 North Klein Ave,OK,73106.0,(405) 587-0000,(405) 587-0443,www.okcps.org,Robert Neu,rrneu@okcps.org,Lynne Hardin
OKLAHOMA    ,55-K001,(Ilc) Pooled Investment       ,NULL,NULL,NULL,NULL,() -,() -,NULL,NULL,NULL,NULL
OKLAHOMA    ,55-Z001,Epic One On One Charter School,Okc,4101 Nw 122Nd Street Suite B,OK,73120.0,(405) 749-4550,(405) 749-4540,www.epiccharterschools.org,David Chaney,david.chaney@epiccharterschools.org,Doug Scott
OKLAHOMA    ,55-Z002,Oklahoma Virtual Charter Acad ,Nicoma Park,11601 Jeffords Ave Suite 100,OK,73066.0,(405) 259-9478,(405) 259-8332,www.k12.com/ovca,Sheryl Tatum,statum@k12.com,Kristi Gifford
OKLAHOMA    ,55-Z003,Oklahoma Connections Academy  ,Bartlesville ,2425 Nowata Pl,OK,74006.0,(918) 977-3286,(918) 331-3629,www.connectionseducation.com/okca,Tammy Shepherd,tshepherd@connectionseducation.com,Jabar Shumate
OKLAHOMA    ,55-Z004,Insight School Of Oklahoma    ,Choctaw,11601 Jeffords Ave Suite 200,K,73066.0,(405) 835-2133,() -,ok.insightschools.net,Sheryl Tatum,statum@k12.com,Deanna Gwatney
OKLAHOMA    ,55-Z005,Able Charter Able Learning    ,Oklahoma City,"4500 N. Classen Blvd., Suite 205",OK,73118.0,(405) 990-2282,(800) 598-0115,www.ablecharterschool.com,Dr. Kenneth Kuczynski,kenk@ablecharterschool.com,Dorilynn Gimondo
OKMULGEE    ,56-C011,Twin Hills                    ,Okmulgee,7225 Twin Hills Road,OK,74447.0,(918) 733-2531,(918) 733-2861,www.twinhills.k12.ok.us,Gary Mcelroy,gmcelroy@twinhills.k12.ok.us,Gary Hudgens
OKMULGEE    ,56-I001,Okmulgee                      ,Okmulgee,316 E. 8Th Street ,OK,74447.0,(918) 758-2000,(918) 758-2088,www.okmulgeeps.com,Tod Williams,tmwilliams@okmulgeeps.com,Rod Wiemer
OKMULGEE    ,56-I002,Henryetta                     ,Henryetta,1801 Troy Aikman Dr,OK,74437.0,(918) 652-6523,(918) 652-6510,http://www.henryetta.k12.ok.us/,Dwayne Noble,dnoble@henryetta.k12.ok.us,James Williams
OKMULGEE    ,56-I003,Morris                        ,Morris,307 South 6Th Street,OK,74445.0,(918) 733-9072,(918) 733-4205,www.morrisschools.net,James Lyons,jlyons@morrisschools.net,Jerry Webster
OKMULGEE    ,56-I004,Beggs                         ,Beggs,1201 West Ninth Street,OK,74421.0,(918) 267-3628,(918) 267-3635,http://www.beggs.k12.ok.us,Rondald Martin,cswearingen@beggs.k12.ok.us,Michael Hubbell
OKMULGEE    ,56-I005,Preston                       ,Preston,10061 Pringey Ave,OK,74456.0,(918) 756-3388,(918) 756-2122,http://www.preston.k12.ok.us/,Mark Hudson,mhudson@preston.k12.ok.us,David Reagor
OKMULGEE    ,56-I006,Schulter                      ,Schulter,23507 Flax Ave,OK,74460.0,(918) 652-8219,(918) 652-8474,www.schulter.k12.ok.us,Allen Callahan,acallahan@schulter.k12.ok.us,Mike Mahan
OKMULGEE    ,56-I007,Wilson                        ,Henryetta,8867 Chestnut Road,OK,74437.0,(918) 652-3374,(918) 652-8140,NULL,Andrea James,ajames@wpstigers.k12.ok.us,Jimmy Floyd
OKMULGEE    ,56-I008,Dewar                         ,Dewar,204 East 5Th Street,OK,74431.0,(918) 652-9625,(918) 652-3096,www.dewar.k12.ok.us,Todd Been,tpbeen@dewar.k12.ok.us,Rick Chisum
OSAGE       ,57-C003,Osage Hills                   ,Bartlesville,225 Country Road 2706,OK,74003.0,(918) 336-6804,(918) 336-4238,www.osagehills.k12.ok.us,Jeannie O'daniel,principal@osagehills.k12.ok.us,Tom Culver
OSAGE       ,57-C007,Bowring                       ,Pawhuska,87 County Road 3304,OK,74056.0,(918) 336-6892,(918) 336-1348,www.bowringps.k12.ok.us,Nicole Hinkle,nhinkle@bowringps.k12.ok.us,John Strom
OSAGE       ,57-C035,Avant                         ,Avant,145 Cherokee Ave,OK,74001.0,(918) 263-2135,(918) 263-2143,www.avant.k12.ok.us,Michael Young,myoung@avant.k12.ok.us,Sheilla Hutchcraft
OSAGE       ,57-C052,Anderson                      ,Sand Springs,2195 Anderson Road,OK,74063.0,(918) 245-0289,(918) 245-3281,www.andersontrojans.org,Brett Banker,bbanker@andersontrojans.org,Freddie Smith
OSAGE       ,57-C077,Mccord                        ,Ponca City,977 South Mccord Road,OK,74604.0,(580) 765-8806,(580) 765-8552,www.mccord.k12.ok.us,Boyd Braden,bbraden@mccord.k12.ok.us,Joy Neal
OSAGE       ,57-I002,Pawhuska                      ,Pawhuska,1801 Mckenzie Road,OK,74056.0,(918) 287-1265,(918) 287-4461,www.pawhuskadistrict.org,Landon Berry,lberry@ppshuskies.org,Justin Sellers
OSAGE       ,57-I011,Shidler                       ,Shidler,213 S Wg Ward,OK,74652.0,(918) 793-2021,(918) 793-2061,www.shidlerpublicschools.com,John Herzig,jherzig@shidlerps.org,Michael Godfrey
OSAGE       ,57-I029,Barnsdall                     ,Barnsdall,200 S 8Th Street,OK,74002.0,(918) 847-2271,(918) 847-3029,http://www.barnsdallschools.org,Rick Loggins,rloggins@barnsdallschools.org,Billy Moles
OSAGE       ,57-I030,Wynona                        ,Wynona,108 W. Third,OK,74084.0,(918) 846-2467,(918) 846-2883,www.wynona.k12.ok.us,Shelly Shulanberger,sshulanberger@wynona.k12.ok.us,Katherine Hollowell
OSAGE       ,57-I038,Hominy                        ,Hominy,200 South Pettit Ave,OK,74035.0,(918) 885-6511,(918) 885-2538,www.hominy.k12.ok.us,Russell Hull,hmsrhull@hominy.k12.ok.us,Chrissie Fairweather
OSAGE       ,57-I050,Prue                          ,Prue,104 Broadway,OK,74060.0,(918) 242-3351,(918) 242-3888,www.prue.k12.ok.us,Tom Scully,tscully@prue.k12.ok.us,Gerald Jackson
OSAGE       ,57-I090,Woodland                      ,Fairfax,100 North 6Th Street,OK,74637.0,(918) 642-3297,(918) 642-1355,http://www.woodland.k12.ok.us/,Todd Kimrey,tkimrey@woodland.k12.ok.us,Kyle Welch
OSAGE       ,57-K001,(Ilc) Osage County            ,Hominy,207 E. Main Street,OK,74035.0,(918) 885-2667,(918) 885-6742,ocic.k12.ok.us,Jacque Canady,jcanady@ocic.k12.ok.us,Rick Peters
OTTAWA      ,58-C010,Turkey Ford                   ,Wyandotte,23900 South 670 Road,OK,74370.0,(918) 786-4902,(918) 787-5015,www.turkeyford.net,Tamyra Larson,tlarson@turkeyford.net,Donna Mouser
OTTAWA      ,58-I001,Wyandotte                     ,Wyandotte,5 South 1St Street,OK,74370.0,(918) 678-2255,(918) 678-2304,http://www.wyandotte.k12.ok.us,Troy Gray,tgray@wyandotte.k12.ok.us,Russell Mccloud
OTTAWA      ,58-I014,Quapaw                        ,Quapaw,305 West First Street,OK,74363.0,(918) 674-2501,(918) 674-2721,http://qps-ok.schoolloop.com/,Randy Darr,rdarr@quapaw.k12.ok.us,William Nichols
OTTAWA      ,58-I018,Commerce                      ,Commerce,217 Commerce St,OK,74339.0,(918) 675-4316,(918) 675-4464,http://www.commercetigers.net,Jimmy Haynes,jhaynes@commercetigers.net,Kenny Smith
OTTAWA      ,58-I023,Miami                         ,Miami,26 North Main,OK,74354.0,(918) 542-8455,(918) 542-1236,www.miami.k12.ok.us,Terry James,tjames@mpswardogs.com,Donni Long
OTTAWA      ,58-I026,Afton                         ,Afton,410 S. Main,OK,74331.0,(918) 257-4470,(918) 257-4846,www.aftonschools.net,Randy Gardner,rgardner@aftonschools.net,Lora Gibson
OTTAWA      ,58-I031,Fairland                      ,Fairland,202 West Washington Ave,OK,74343.0,(918) 676-3811,(918) 676-3594,http://www.fairlandowls.com/,Mark Alexander,malexander@fairlandowls.com,Ray Davis
PAWNEE      ,59-C002,Jennings                      ,Jennings,600 North Oak Street,OK,74038.0,(918) 757-2536,(877) 549-7011,www.jennings.k12.ok.us,Chris Ballenger,cballenger@jennings.k12.ok.us,Lloyd Mitchell
PAWNEE      ,59-I001,Pawnee                        ,Pawnee,615 Denver Street,OK,74058.0,(918) 762-3676,(918) 762-2704,http://www.pawnee.k12.ok.us/,Ned Williams,ned.williams@pawnee.k12.ok.us,Suzanne Spears
PAWNEE      ,59-I006,Cleveland                     ,Cleveland,600 North Gilbert Ave,OK,74020.0,(918) 358-2210,(918) 358-3071,http://www.clevelandtigers.com/,Aaron Espolt,aaronespolt@clevelandtigers.com,Danny Ward
PAYNE       ,60-C104,Oak Grove                     ,Cushing,8409 East Ninth Street,OK,74023.0,(918) 352-2889,(918) 352-4187,www.oakgrove.k12.ok.us,Jon Aven,javen@oakgrove.k12.ok.us,Joann Baugus
PAYNE       ,60-I003,Ripley                        ,Ripley,403 E. Cook St.,OK,74062.0,(918) 372-4567,(918) 372-4608,www.ripley.k12.ok.us,Kenny Beams,beamsk@ripley.k12.ok.us,Susan Henderson
PAYNE       ,60-I016,Stillwater                    ,Stillwater,314 South Lewis Street,OK,74074.0,(405) 533-6300,(405) 533-6311,www.stillwaterschools.com,Gay Washington,gayw@stillwaterschools.com,John Price
PAYNE       ,60-I056,Perkins-Tryon                 ,Perkins,103 Sw 2Nd,OK,74059.0,(405) 547-5703,(405) 547-2020,http://www.p-t.k12.ok.us/,James Ramsey,jeramsey@p-t.k12.ok.us,Rick Lomenick
PAYNE       ,60-I067,Cushing                       ,Cushing,1401 North Little Street,OK,74023.0,(918) 225-3425,(918) 225-5256,www.cushing.k12.ok.us,Koln Knight,koln.knight@cushing.k12.ok.us,Shawn Hubble
PAYNE       ,60-I101,Glencoe                       ,Glencoe,201 East Lone Chimney,OK,74032.0,(580) 669-4003,(580) 669-4004,www.glencoe.k12.ok.us,John Lazenby,jlazenby@glencoe.k12.ok.us,Rick Hays
PAYNE       ,60-I103,Yale                          ,Yale,315 East Chicago Ave,OK,74085.0,(918) 387-2434,(918) 387-2503,http://www.yale.k12.ok.us,Dale Bledsoe,dbledsoe@yale.k12.ok.us,Becki Foster
PAYNE       ,60-K001,(Ilc) Five-Star               ,Cushing,1405 E Moses,OK,74023.0,(918) 225-5600,(918) 225-3026,www.fsilc.k12.ok.us,Nancy Anderson,nanderson@fsilc.k12.ok.us,Ned Williams
PITTSBURG   ,61-C009,Krebs                         ,Krebs,20 Southwest Fifth Street,OK,74554.0,(918) 426-4700,(918) 423-2909,krebs.k12.ok.us,Patrick Turner,pturner@krebs.k12.ok.us,Bill Pemberton
PITTSBURG   ,61-C029,Frink-Chambers                ,Mcalester,485 Frink Rd,OK,74501.0,(918) 423-2434,(918) 423-4687,NULL,Charles Peckio Jr.,rpeckio@frink.k12.ok.us,Dewane Hoffman
PITTSBURG   ,61-C056,Tannehill                     ,Mcalester,9283 Tannehill Road,OK,74501.0,(918) 423-6393,(918) 423-3068,www.tannehill.k12.ok.us,John Wilcox,jwilcox@tannehill.k12.ok.us,Shirley Ross
PITTSBURG   ,61-C088,Haywood                       ,Mcalester,11461 West State Hwy 31,OK,74501.0,(918) 423-6265,(918) 423-8063,http://www.haywood.k12.ok.us,Phillip Rattan,prattan@haywood.k12.ok.us,Laura Lalli
PITTSBURG   ,61-I001,Hartshorne                    ,Hartshorne,520 South Fifth Street,OK,74547.0,(918) 297-2534,(918) 297-2698,http://www.hartshorne.k12.ok.us/,Mark Ichord,michord@hartshorne.k12.ok.us,Randy Wilcox
PITTSBURG   ,61-I002,Canadian                      ,Canadian,308 Sw Belt Street,OK,74425.0,(918) 339-2705,(918) 339-2393,www.canadian.k12.ok.us.com,Rodney Karch,rkarch@canadian.k12.ok.us,Orda Selph
PITTSBURG   ,61-I011,Haileyville                   ,Haileyville,3Rd & Riley Street,OK,74546.0,(918) 297-2626,(918) 297-7136,www.haileyville.k12.ok.us,Roger Hemphill,rhemphill@haileyville.k12.ok.us,Rusty Johnson
PITTSBURG   ,61-I014,Kiowa                         ,Kiowa,406 East 8Th Street,OK,74553.0,(918) 432-5631,(918) 432-5683,http://www.kiowa.k12.ok.us,Rick Pool,rpool@kiowa.k12.ok.us,Greg Shores
PITTSBURG   ,61-I017,Quinton                       ,Quinton,210 N J Street,OK,74561.0,(918) 469-3100,(918) 469-3308,www.qps.edu,Don Cox,dcox@quintonschools.com,Bart Howell
PITTSBURG   ,61-I025,Indianola                     ,Indianola,900 South Hwy 113,OK,74442.0,(918) 823-4231,(918) 823-4234,http://www.indianola.k12.ok.us/,Mark Baumann,mbaumann@indianola.k12.ok.us,Jim Schumacher
PITTSBURG   ,61-I028,Crowder                       ,Crowder,400 Bond Street,OK,74430.0,(918) 334-3203,(918) 334-3295,www.crowder.k12.ok.us,Robert Florenzano,rflorenzano@crowder.k12.ok.us,Chester Mason
PITTSBURG   ,61-I030,Savanna                       ,Savanna,9567 South Us Hwy 69,OK,74565.0,(918) 548-3777,(918) 548-3836,http://www.savanna.k12.ok.us/,Gary Reeder,garyr@savanna.k12.ok.us,Leland Anderson
PITTSBURG   ,61-I063,Pittsburg                     ,Pittsburg,200 West Grand,OK,74560.0,(918) 432-5062,(918) 432-5312,www.pittsburg.k12.ok.us,Chad Graham,cgraham@pittsburg.k12.ok.us,Loraine Parent
PITTSBURG   ,61-I080,Mcalester                     ,Mcalester,200 East Adams,OK,74501.0,(918) 423-4771,(918) 423-8166,www.mcalester.k12.ok.us,James Northcutt,jnorthcutt@mcalester.k12.ok.us,Angie Nelson
PONTOTOC    ,62-I001,Allen                         ,Allen,105 N. Denver,OK,74825.0,(580) 857-2417,(580) 857-2636,www.allen.k12.ok.us,Cleadis Robert (Bob) Gragg,bgragg@allen.k12.ok.us,Robert Hammonds
PONTOTOC    ,62-I009,Vanoss                        ,Ada,4665 County Road 1555,OK,74820.0,(580) 759-2251,(580) 759-3080,www.vanoss.k12.ok.us,Marjana Tharp,mtharp@vanoss.k12.ok.us,Noralene Groves
PONTOTOC    ,62-I016,Byng                          ,Ada,500 South New Bethel Blvd,OK,74820.0,(580) 310-6751,(580) 436-3052,www.byngschools.com,Todd Crabtree,todd@byngschools.com,Jamie Perry
PONTOTOC    ,62-I019,Ada                           ,Ada,324 W. 20Th,OK,74821.0,(580) 310-7200,(580) 310-7206,www.adapss.com,Pat Harrison,harrisonp@adapss.com,Doug Haney
PONTOTOC    ,62-I024,Latta                         ,Ada,13925 County Road 1560,OK,74820.0,(580) 332-2092,(580) 332-3116,www.latta.k12.ok.us,Cliff Johnson,supt@latta.k12.ok.us,Donnie Moore
PONTOTOC    ,62-I030,Stonewall                     ,Stonewall,600 South Highschool,OK,74871.0,(580) 265-4241,(580) 265-4536,www.stonewall.k12.ok.us,Kevin Flowers,kflowers@stonewall.k12.ok.us,Charlie Hall
PONTOTOC    ,62-I037,Roff                          ,Roff,100 N. Broadway,OK,74865.0,(580) 456-7663,(580) 456-7245,http://www.roff.k12.ok.us/,Scott Morgan,smorgan@roff.k12.ok.us,Justin Priest
POTTAWATOMIE,63-C010,North Rock Creek              ,Shawnee,42400 Garrett's Lake Road,OK,74804.0,(405) 275-3473,(405) 273-7368,www.nrc.k12.ok.us,Blake Moody,bmoody@nrc.k12.ok.us,Rickey Gowin
POTTAWATOMIE,63-C027,Grove                         ,Shawnee,2800 North Bryan Ave,KO,74804.0,(405) 275-7435,(405) 273-2541,www.grove.k12.ok.us,Sheril Payne,spayne@grove.k12.ok.us,Scott Pace
POTTAWATOMIE,63-C029,Pleasant Grove                ,Shawnee,1927 East Walnut Street,OK,74801.0,(405) 275-6092,(405) 275-6094,www.pleasantgroveschools.com,Scott Roper,sroper@pgs.k12.ok.us,Jerry Skaggs
POTTAWATOMIE,63-C032,South Rock Creek              ,Shawnee,17800 South Rock Creek Road,OK,74801.0,(405) 273-6072,(405) 273-8926,http://src.k12.ok.us/,Michael Crawford,mcrawford@src.k12.ok.us,Mary Mcneil
POTTAWATOMIE,63-I001,Mcloud                        ,Mcloud,113 North Main Street,OK,74851.0,(405) 964-3314,(405) 964-2801,http://www.mcloudschools.us/,Doran Smith,dsmith@mcloudschools.us,Annetta Abbott
POTTAWATOMIE,63-I002,Dale                          ,Dale,300 Smith Ave,OK,74851.0,(405) 964-5558,(405) 964-5559,www.dale.k12.ok.us,Charles Dickinson,cdickinson@dale.k12.ok.us,Robin Wiley-Greene
POTTAWATOMIE,63-I003,Bethel                        ,Shawnee,36000 Clear Pond Road,OK,74801.0,(405) 273-0385,(405) 273-5056,http://bethel.k12.ok.us,Jerry M. Johnson,johnsonj@bethel.k12.ok.us,Keith Mitchell
POTTAWATOMIE,63-I004,Macomb                        ,Macomb,36591 State Highway 59B,OK,74852.0,(405) 598-3892,(405) 598-8041,www.macomb.k12.ok.us,Matthew Riggs,mriggs@macomb.k12.ok.us,Pat Cope
POTTAWATOMIE,63-I005,Earlsboro                     ,Earlsboro,100 East Main,OK,74840.0,(405) 997-5616,(405) 997-3181,www.earlsboro.k12.ok.us,Mark Maloy,mmaloy@earlsboro.k12.ok.us,Joe Brooks
POTTAWATOMIE,63-I092,Tecumseh                      ,Tecumseh,1301 East Highland Street,OK,74873.0,(405) 598-3739,(405) 598-2861,www.tecumseh.k12.ok.us,Tom Wilsie,wilsiet@tecumseh.k12.ok.us,Shawn Fleming
POTTAWATOMIE,63-I093,Shawnee                       ,Shawnee,326 North Union Street,OK,74801.0,(405) 273-0653,(405) 273-6818,http://www.shawnee.k12.ok.us/,Dr. Marc Moore,mmoore@shawnee.k12.ok.us,Keith Sandlin
POTTAWATOMIE,63-I112,Asher                         ,Asher,201 South Division,OK,74826.0,(405) 784-2331,(405) 784-2306,www.asher.k12.ok.us,Terry Grissom,terryg@asher.k12.ok.us,Dewayne Price
POTTAWATOMIE,63-I115,Wanette                       ,Wanette,503 Vestal Ave.,OK,74878.0,(405) 383-2656,(405) 383-2449,www.wanette.k12.ok.us,Crystal Shaw,cshaw@wanette.k12.ok.us,Kelly Teague
POTTAWATOMIE,63-I117,Maud                          ,Maud,306 West Main Street,OK,74854.0,(405) 374-2416,(405) 374-2628,http://www.maud.k12.ok.us/,Jerry Mccormick,jlmccormick@maud.k12.ok.us,Stacy Ragan
PUSHMATAHA  ,64-C002,Albion                        ,Albion,206 S Texas Ave,OK,74521.0,(918) 563-4331,(918) 563-4330,NULL,C. Lynn Bullard,clynnbullardsupt@hotmail.com,Rebecca Ludlow
PUSHMATAHA  ,64-C004,Tuskahoma                     ,Tuskahoma,Hwy 271 Tuskahoma School Rd.,OK,74574.0,(918) 569-7737,(918) 569-4154,htp://www.tuskahoma.com/,Barry Simpson,bsimpson@tuskahoma.k12.ok.us,Lucretia Mcgee
PUSHMATAHA  ,64-C015,Nashoba                       ,Nashoba,439670 State Hwy 144,OK,74558.0,(918) 755-4343,(918) 755-4418,www.nashoba.k12.ok.us,Charles Caughern Jr.,ccaughern@nashoba.k12.ok.us,Betty Fuller
PUSHMATAHA  ,64-I001,Rattan                        ,Rattan,420 West Main,OK,74562.0,(580) 587-2546,(580) 587-4000,www.rattan.k12.ok.us,Shari Pillow,spillow@rattan.k12.ok.us,Johnny Corgill
PUSHMATAHA  ,64-I010,Clayton                       ,Clayton,329 N. 1St Street,OK,74536.0,(918) 569-4492,(918) 569-7757,www.clayton.k12.ok.us,Randall Erwin,rerwin@clayton.k12.ok.us,Leeanna Martin
PUSHMATAHA  ,64-I013,Antlers                       ,Antlers,219 Northeast A Street,OK,74523.0,(580) 298-5504,(580) 298-4006,www.antlers.k12.ok.us,Cary Ammons,cammons@antlers.k12.ok.us,Jason Baggett
PUSHMATAHA  ,64-I022,Moyers                        ,Moyers,Hwy 2 N. Cobb Dr.,OK,74557.0,(580) 298-5549,(580) 298-2022,moyersisd.org,Donna Dudley,dadudley@moyers.k12.ok.us,Eddie Napier
ROGER MILLS ,65-I003,Leedey                        ,Leedey,505 E 6Th,OK,73654.0,(580) 488-3424,(580) 488-3428,www.leedey.k12.ok.us,Rusty Puffinbarger,rpuffinbarger@leedey.k12.ok.us,James Smith
ROGER MILLS ,65-I006,Reydon                        ,Reydon,205 4Th Ave,OK,73660.0,(580) 655-4375,(580) 655-4622,http://www.reydon.k12.ok.us,Phil Drouhard,pdrouhard@reydon.k12.ok.us,David Wright
ROGER MILLS ,65-I007,Cheyenne                      ,Cheyenne,910 E Buster Ave,OK,73628.0,(580) 497-3371,(580) 497-3373,http://www.cheyenne.k12.ok.us,Rick Garrison,rgarrison@cheyenne.k12.ok.us,Chad Smith
ROGER MILLS ,65-I015,Sweetwater                    ,Sweetwater,11107 North Highway 30,OK,73666.0,(580) 534-2272,(580) 534-2273,www.sweetwater.k12.ok.us,Casey Reed,creed@sweetwater.k12.ok.us,Floyd Pickering
ROGER MILLS ,65-I066,Hammon                        ,Hammon,802 Shockey St.,OK,73650.0,(580) 473-2221,(580) 473-2464,www.hammon.k12.ok.us,Robert Stafford,wstafford@hammon.k12.ok.us,Robert Chaney
ROGERS      ,66-C009,Justus-Tiawah                 ,Claremore,14902 East School Road,OK,74019.0,(918) 341-3626,(918) 341-4920,www.justustiawah.com,David Garroutte,dgarroutte@justustiawah.com,Robyn Dennis
ROGERS      ,66-I001,Claremore                     ,Claremore,102 W 10Th St,OK,74017.0,(918) 923-4200,(918) 923-4310,claremore.k12.ok.us,J. Michael Mcclaren,mmcclaren@claremore.k12.ok.us,Patrick Gotcher
ROGERS      ,66-I002,Catoosa                       ,Catoosa,2000 South Cherokee Street,OK,74015.0,(918) 266-8603,(918) 266-8647,http://www.catoosaps.net/,Rick Kibbe,rkibbe@catoosa.k12.ok.us,Dean Miller
ROGERS      ,66-I003,Chelsea                       ,Chelsea,401 Redbud Lane,OK,74016.0,(918) 789-2528,(918) 789-3271,http://www.chelseadragons.net,Rich Mcspadden,rmcspadden@chelseadragons.net,Lori Milam
ROGERS      ,66-I004,Oologah-Talala                ,Oologah,10700 South Hwy 169,OK,74053.0,(918) 443-6079,(918) 443-9088,www.oologah.k12.ok.us,Max Tanner,max.tanner@oologah.k12.ok.us,Don Tice
ROGERS      ,66-I005,Inola                         ,Inola,110 North Broadway,OK,74036.0,(918) 543-2255,(918) 543-8754,http://www.inola.k12.ok.us/,Kent Holbrook,kholbrook@inola.k12.ok.us,Steve Maner
ROGERS      ,66-I006,Sequoyah                      ,Claremore,16441 South 4180 Road,OK,74017.0,(918) 341-5472,(918) 341-5764,http://www.sequoyaheagles.net,Terry Saul,terry.saul@sequoyaheagles.net,Dave Eaton
ROGERS      ,66-I007,Foyil                         ,Foyil,17002 East 4Th Street,OK,74031.0,(918) 341-1113,(918) 341-1223,www.foyil.k12.ok.us,Rodney Carter,rcarter@foyil.k12.ok.us,Larry Mallory
ROGERS      ,66-I008,Verdigris                     ,Claremore,26501 S. 4110 Rd.,OK,74019.0,(918) 266-7227,(918) 266-3910,www.vps.k12.ok.us,Mike Payne,mpayne@vps.k12.ok.us,Kandy Collins
SEMINOLE    ,67-C054,Justice                       ,Wewoka,36507 Ew 1310,OK,74884.0,(405) 257-2962,(405) 257-2963,http://www.justice.k12.ok.us,Chris Bryan,cbryan@justice.k12.ok.us,Cathy Madron
SEMINOLE    ,67-I001,Seminole                      ,Seminole,617 N. Timmons,OK,74868.0,(405) 382-5085,(405) 382-8281,http://www.sps.k12.ok.us/,Bill Weldon,bweldon@sps.k12.ok.us,Cai Levy
SEMINOLE    ,67-I002,Wewoka                        ,Wewoka,300 W 10Th,OK,74884.0,(405) 257-5475,(405) 257-2303,www.wps.k12.ok.us,Torrey Gaines,tgaines@wps.k12.ok.us,Michael Weatherly
SEMINOLE    ,67-I003,Bowlegs                       ,Bowlegs,100 Bison Dr.,OK,74830.0,(405) 398-4172,(405) 398-4175,www.bowlegs.k12.ok.us,Tommy Eaton,teaton@bowlegs.k12.ok.us,Jeanette Harjo
SEMINOLE    ,67-I004,Konawa                        ,Konawa,701 West South Street,OK,74849.0,(580) 925-3244,(580) 925-2146,http://konawa.k12.ok.us/,Andy Gower,andygower@konawa.k12.ok.us,Robert Coats
SEMINOLE    ,67-I006,New Lima                      ,Wewoka,116 Gross Street,OhK,74884.0,(405) 257-5771,(405) 257-2587,http://www.newlima.k12.ok.us/,Gil Turpin,gturpin@newlima.k12.ok.us,John Henson
SEMINOLE    ,67-I007,Varnum                        ,Seminole,11929 Ns 3550,OK,74868.0,(405) 382-1448,(405) 382-8618,www.varnum.k12.ok.us,David Brewer,dbrewer@varnum.k12.ok.us,J. P. Duvall
SEMINOLE    ,67-I010,Sasakwa                       ,Sasakwa,106 North Olive,OK,74867.0,(405) 941-3250,(405) 941-3561,http://www.sasakwaschools.org/,Kyle Wilson,kwilson@sasakwaschools.org,Jeff Hudson
SEMINOLE    ,67-I014,Strother                      ,Seminole,36085 Ew 1140,OK,74868.0,(405) 382-4014,(405) 382-3339,www.strother.k12.ok.us,Chad Broughton,c.broughton@strother.k12.ok.us,Rhonda Coates
SEMINOLE    ,67-I015,Butner                        ,Cromwell,Hwy 56 And Yahola,OK,74837.0,(405) 944-5530,(405) 944-5746,Butner.k12.ok.us,Diane Parris,dparris@butner.k12.ok.us,Linda Goodnight
SEMINOLE    ,67-K001,(Ilc) Seminole County         ,NULL,NULL,NULL,NULL,() -,( -,NULL,NULL,NULL,NULL
SEQUOYAH    ,68-C001,Liberty                       ,Muldrow,476490 E. 1060 Road,OK,74948.0,(918) 427-3808,(918) 427-4961,www.liberty.seq.k12.ok.us,Jeff Ransom,jransom@liberty.seq.k12.ok.us,George Lawson
SEQUOYAH    ,68-C035,Marble City                   ,Marble City,95266 S. 4610 Rd,OK,74945.0,(918) 775-2135,(918) 775-3019,http://www.mcps.k12.ok.us,Bill London,blondon@mcps.k12.ok.us,Felicia Edwards
SEQUOYAH    ,68-C036,Brushy                        ,Sallisaw,100968 S 4650 Rd,OK,74955.0,(918) 775-4458,(918) 775-3638,http://www.brushy.k12.ok.us,Greg Reynolds,greynolds@brushy.k12.ok.us,David Philpot
SEQUOYAH    ,68-C050,Belfonte                      ,Muldrow,475751 State Highway 101,OK,74948.0,(918) 427-3522,(918) 427-1288,http://www.belfonte.k12.ok.us/,Paul Pinkerton,ppinkerton@belfonte.k12.ok.us,Mike Hyde
SEQUOYAH    ,68-C068,Moffett                       ,Moffett,701 Belt Ave.,OK,74946.0,(918) 875-3668,(918) 875-3201,www.moffett.k12.ok.us,Jimmie Owens,jowens@moffett.k12.ok.us,Sylvester Carolina
SEQUOYAH    ,68-I001,Sallisaw                      ,Sallisaw,701 J. T. Stites Blvd,OK,74955.0,(918) 775-5544,(918) 775-1257,www.sallisawps.org,Scott Farmer,sfarmer@sallisaw.k12.ok.us,Jason Ely
SEQUOYAH    ,68-I002,Vian                          ,Vian,301 West Hunter,OK,74962.0,(918) 773-5798,(918) 773-3051,www.vian.k12.ok.us,Victor Salcedo,vsalcedo@vian.k12.ok.us,Gary Seay
SEQUOYAH    ,68-I003,Muldrow                       ,Muldrow,715 W Shawntel Smith Blvd,OK,74948.0,(918) 427-7406,(918) 427-6088,http://www.muldrowps.org/,Ronal Flanagan,ronald.flanagan@staff.muldrowps.org,Chad Sutton
SEQUOYAH    ,68-I004,Gans                          ,Gans,204 N. Stacy,OK,74936.0,(918) 775-2236,(918) 775-5145,www.gans.k12.ok.us,Larry Calloway,lcalloway@gans.k12.ok.us,Jesse James
SEQUOYAH    ,68-I005,Roland                        ,Roland,300 Ranger Blvd,OK,74954.0,(918) 427-4601,(918) 427-1785,www.rolandschools.org,Paul Wood,rwood@rolandschools.org,Roger Brunk
SEQUOYAH    ,68-I006,Gore                          ,Gore,1200 North Highway 10,OK,74435.0,(918) 489-5587,(918) 489-5664,www.gore.k12.ok.us,Lucky Mccrary,lmccrary@gorepublicschools.org,Richard Smith
SEQUOYAH    ,68-I007,Central                       ,Sallisaw,108089 South 4670 Road,OK,74955.0,(918) 775-5525,(918) 775-8557,www.centralps.k12.ok.us,Larry G. Henson,lhenson@centralps.k12.ok.us,Waylon Johnson
STEPHENS    ,69-C082,Grandview                     ,Comanche,Box 277062 E. 1840 Rd.,OK,73529.0,(580) 439-2467,(580) 439-5589,grandviewschool.k12.ok.us,Gary Wade,garywade@grandviewschool.k12.ok.us,Sandy Bowden
STEPHENS    ,69-I001,Duncan                        ,Duncan,1706 W. Spruce,OK,73533.0,(580) 255-0686,(580) 252-2453,www.duncanps.org,Melonie Hau,melonie.hau@duncanps.org,Eric Davis
STEPHENS    ,69-I002,Comanche                      ,Comanche,1030 Ash Ave,OK,73529.0,(580) 439-2900,(580) 439-2907,www.comanche.k12.ok.us,Terry Davidson,td@cpsok.org,Garland Davis
STEPHENS    ,69-I003,Marlow                        ,Marlow,407 W. Seminole,OK,73055.0,(580) 658-2719,(580) 658-6455,www.marlow.k12.ok.us,George Coffman Jr.,gcoffman@marlow.k12.ok.us,Terry Turner
STEPHENS    ,69-I015,Velma-Alma                    ,Velma,901 Main Street,OK,73491.0,(580) 444-3355,(580) 444-2554,www.velma-alma.com,Raymond Rice,rrice@velma-alma.k12.ok.us,Andy Mcguire
STEPHENS    ,69-I021,Empire                        ,Duncan,276803 E. 1760 Road,OK,73533.0,(580) 252-5392,(580) 252-4231,www.empireschools.org,Vicki Davison,vdavison@empireschools.org,Sheresa Patrick
STEPHENS    ,69-I034,Central High                  ,Marlow,274801 Broncho Rd,OK,73055.0,(580) 658-6858,(580) 658-8006,www.central.k12.ok.us/index.htm,Bennie Newton,bnewton@central.k12.ok.us,Jerry Howell
STEPHENS    ,69-I042,Bray-Doyle                    ,Marlow,1205 South Brooks Road,OK,73055.0,(580) 658-5076,(580) 658-5888,http://www.braydoyle.k12.ok.us/,David Wayne Eads,d.eads@braydoyle.k12.ok.us,Cris Sparks
TEXAS       ,70-C009,Optima                        ,Optima,107 E 5Th St.,OK,73945.0,(580) 338-6712,(580) 338-6721,optimawarriors.com,Rex Hale,optima@ptsi.net,Clyde Fischer
TEXAS       ,70-C080,Straight                      ,Guymon,"Rural Route 1, Box 89",OK,73942.0,(580) 652-2232,(580) 652-3299,http://www.straighteagles.com,Steve Baird,steve.baird@straight.k12.ok.us,Kurt Benfer
TEXAS       ,70-I001,Yarbrough                     ,Goodwell,8 Mi S On Hwy 95,OK,73939.0,(580) 545-3327,(580) 545-3392,http://www.yarbrough.k12.ok.us,Jim Wiggin,jwiggin@yarbrough.k12.ok.us,James Oswald
TEXAS       ,70-I008,Guymon                        ,Guymon,801 N. Beaver,OK,73942.0,(580) 338-4340,(580) 338-3812,www.guymontigers.com,Douglas Melton,doug.melton@guymontigers.com,Kevin Bruer
TEXAS       ,70-I015,Hardesty                      ,Hardesty,5Th And Crawford,OK,73944.0,(580) 888-4258,(580) 888-4560,www.hardesty.k12.ok.us,Greg Faris,gfaris@hardesty.k12.ok.us,Virgil Gibson
TEXAS       ,70-I023,Hooker                        ,Hooker,222 N. Swem,OK,73945.0,(580) 652-2162,(580) 652-3118,www.hookerpublicschools.net,Dan Faulkner,dfaulkner@hookerps.k12.ok.us,Kevin Hofferber
TEXAS       ,70-I053,Tyrone                        ,Tyrone,6Th And Beatrice,OK,73951.0,(580) 854-6298,(580) 854-6474,tyrone@tyrone.k12.ok.us,Joshua Bell,jbell@tyrone.k12.ok.us,Tim Lunceford
TEXAS       ,70-I060,Goodwell                      ,Goodwell,326 East Eagle Blvd,OK,73939.0,(580) 349-2271,(580) 349-2531,www.goodwell.k12.ok.us,Freida Burgess,fburgess@goodwell.k12.ok.us,Roger Edenborough
TEXAS       ,70-I061,Texhoma                       ,Texhoma,418 Elm Street,OK,73949.0,(580) 423-7433,(580) 423-7096,www.texhoma61.net,Tom Schroeder,tom.schroeder@texhoma61.net,Brady Mitchell
TILLMAN     ,71-I008,Tipton                        ,Tipton,1000 South Broadway,OK,73570.0,(580) 667-5268,(580) 667-5267,http://www.tiptontigers.net,Shane Boothe,sboothe@tiptontigers.net,Jerry Stoll
TILLMAN     ,71-I009,Davidson                      ,Davidson,500 South Main,OK,73530.0,(580) 568-2423,(580) 568-2219,NULL,Phillip Ratcliff,pgr@davidson.k12.ok.us,Vicki Skinner
TILLMAN     ,71-I158,Frederick                     ,Frederick,817 N. 15Th,OK,73542.0,(580) 335-5516,(580) 335-2324,www.frederickbombers.net,Shannon Vanderburg,svanderburg@frederickbombers.net,James Heap
TILLMAN     ,71-I249,Grandfield                    ,Grandfield,811 West 3Rd Street,OK,73546.0,(580) 479-5237,(580) 479-3381,http://www.grandfield.k12.ok.us/,Eva Spaulding,espaulding@grandfield.k12.ok.us,Mitchel Witt
TULSA       ,72-C015,Keystone                      ,Sand Springs,23810 West Highway 51,OK,74063.0,(918) 363-8711,(918) 363-8194,www.keystonerangers.org,Rhett Bynum,rbynum@keystone.k12.ok.us,Christopher Nelson
TULSA       ,72-E004,Tulsa Charter: Schl Arts/Sci. ,Tulsa,3441 E Archer,OK,74115.0,(918) 828-7727,(918) 828-7747,http://tsas.org,Eric Doss,edoss@tsas.org,James Ford
TULSA       ,72-E005,Tulsa Charter: Kipp Tulsa     ,Tulsa,1661 E. Virgin Street,OK,74106.0,(918) 794-8652,(918) 794-8712,www.kipptulsa.org,John Wolfkill,jwolfkill@kipptulsa.org,Don Parker
TULSA       ,72-E006,Tulsa Legacy Charter Schl Inc ,Tulsa,105 East 63Rd Street North,OK,74126.0,(918) 794-1442,(918) 794-1480,www.tulsalegacy.org,Carlisha Williams,cwilliams@tulsalegacy.org,Annie Van Hanken
TULSA       ,72-E017,Tulsa Charter: College Bound  ,Tulsa,2525 S 101St East Ave,OK,74129.0,(918) 925-1580,(918) 925-1585,www.collegeboundschool.org,Chelsea Vanacore,cvanacore@collegeboundschool.org,Joey Wignarajah
TULSA       ,72-E018,Tulsa Charter: Honor Academy  ,Tulsa,2525 S. 101St E. Ave. ,OK,74129.0,(918) 833-9420,(405) 470-6715,www.tulsahonoracademy.org,Elsie Urueat,elsie@tulsahonoracademy.org,Marvin Lizama
TULSA       ,72-E019,Tulsa Charter: Collegiate Hall,Tulsa,1142 East 56Th Street ,OK,74105.0,(918) 925-1620,(918) 925-1629,www.collegiatehall.org,Nikhil Kawlra,nkawlra@collegiatehall.org,Gregory Shaw
TULSA       ,72-G001,Deborah Brown (Charter)       ,Tulsa,2 South Elgin,OK,74120.0,(918) 425-1407,(918) 949-4269,www.dbcschool.org,Deborah Brown,dbrown@dbcschool.org,Kenneth James
TULSA       ,72-G003,Discovery Schools Of Tulsa    ,Tulsa,280 S.Memorial Dr.,OK,74112.0,(918) 834-3936,(918) 834-3352,www.dsatulsa.org,Umit Alpaslan,alp@doveschools.org,Bilal Erturk
TULSA       ,72-G004,Sankofa Middle Schl (Charter) ,Tulsa,111 East First Street,OK,74120.0,(918) 340-5120,(918) 340-5102,www.dbcschool.org,Deborah Brown,dbrown@dbcschool.org,Millard Jones
TULSA       ,72-G005,Langston Hughes Acad Arts-Tech,Tulsa,5424 N. Madison Ave,OK,74126.0,(918) 728-8588,(918) 794-6682,www.lhatt.com,Rodney Clark,rclark@lhatt.com,Fredrick Artis
TULSA       ,72-I001,Tulsa                         ,Tulsa,3027 S New Haven,OK,74114.0,(918) 746-6800,(918) 746-6850,http://www.tulsaschools.org,Deborah Gist,gistde@tulsaschools.org,Lana Turner-Addison
TULSA       ,72-I002,Sand Springs                  ,Sand Springs,11 West Broadway,OK,74063.0,(918) 246-1400,(918) 246-1401,http://www.sandites.org,Lloyd Snow,lloyd.snow@sandites.org,Bo Naugle
TULSA       ,72-I003,Broken Arrow                  ,Broken Arrow,701 South Main Street,OK,74012.0,(918) 259-5700,(918) 258-0399,http://www.baschools.org/,Jarod Mendenhall,jmendenhall@baschools.org,Cheryl Kelly
TULSA       ,72-I004,Bixby                         ,Bixby,109 North Armstrong Street,OK,74008.0,(918) 366-2200,(918) 366-4241,http://bixby.ok.schoolwebpages.com,Kyle Wood,kwood@bixbyps.org,Lisa Kramer
TULSA       ,72-I005,Jenks                         ,Jenks,205 East B Street,OK,74037.0,(918) 299-4411,(918) 299-9197,www.jenksps.org,Stacey Butterfield,stacey.butterfield@jenksps.org,Tracy Kennedy
TULSA       ,72-I006,Collinsville                  ,Collinsville,1902 West Maple,OK,74021.0,(918) 371-2326,(918) 371-4285,www.collinsville.k12.ok.us,Lance West,lwest@collinsville.k12.ok.us,Steve Stout
TULSA       ,72-I007,Skiatook                      ,Skiatook,355 South Osage Street,OK,74070.0,(918) 396-1792,(918) 396-1799,www.skiatookschools.org,Rick Thomas,rthomas@skiatookschools.org,Tim Allen
TULSA       ,72-I008,Sperry                        ,Sperry,400 West Main Street,OK,74073.0,(918) 288-6258,(918) 288-7067,www.sperry.k12.ok.us,Brian Beagles,bbeagles@sperry.k12.ok.us,Jeff Carter
TULSA       ,72-I009,Union                         ,Tulsa,8506 East 61St Street,OK,74133.0,(918) 357-4321,(918) 357-6012,http://www.unionps.org/,Kirtis Hartzler,hartzler.kirt@unionps.org,Patrick Coyle
TULSA       ,72-I010,Berryhill                     ,Tulsa,3128 South 63Rd West Ave,OK,74107.0,(918) 446-1966,(918) 446-6370,http://www.berryhillschools.org,Mike Campbell,mike.campbell@berryhillschools.org,Patricia Lawson
TULSA       ,72-I011,Owasso                        ,Owasso,1501 North Ash Street,OK,74055.0,(918) 272-5367,(918) 272-8111,http://www.owassops.org,Clark Ogilvie,clark.ogilvie@owassops.org,Pat Vanatta
TULSA       ,72-I013,Glenpool                      ,Glenpool,461 E 146Th St,OK,74033.0,(918) 322-9500,(918) 322-1529,http://www.glenpool.k12.ok.us,Jerry Olansen,jdolansen@glenpoolps.org,Jim Vonholten
TULSA       ,72-I014,Liberty                       ,Mounds,2727 East 201St Street South,OK,74047.0,(918) 366-8496,(918) 366-8497,www.liberty.k12.ok.us,Donna Campo,dcampo@liberty.k12.ok.us,Steve Sutter
WAGONER     ,73-I001,Okay                          ,Okay,8611 North 49Th Street East,OK,74446.0,(918) 682-2548,(918) 683-8331,www.okayps.org,Charles Mcmahan,cmcmahan@okayps.org,Nick Davis
WAGONER     ,73-I017,Coweta                        ,Coweta,14540 S. 302Nd East Ave.,OK,74429.0,(918) 486-6506,(918) 486-4167,www.cowetaps.com,Jeff Holmes,jeff.holmes@cowetaps.org,Marty Kilgore
WAGONER     ,73-I019,Wagoner                       ,Wagoner,308 Ne 2Nd St,OK,74467.0,(918) 485-4046,(918) 485-8710,www.wagonerps.org,Randy Harris,rharris@wagonerps.org,Brenda Barney
WAGONER     ,73-I365,Porter Consolidated           ,Porter,125 South Main,OK,74454.0,(918) 483-2401,(918) 483-2310,http://www.porter.k12.ok.us,Mark Fenton,mfenton@porter.k12.ok.us,Brian Jones
WASHINGTON  ,74-I004,Copan                         ,Copan,527 Hornet Lane,OK,74022.0,(918) 532-4344,(918) 532-4649,www.copan.k12.ok.us,Rick Ruckman,rruckman@copan.k12.ok.us,James Carver
WASHINGTON  ,74-I007,Dewey                         ,Dewey,One Bulldogger Road,OK,74029.0,(918) 534-2241,(918) 534-0149,www.deweyk12.org,David Wilkins,wilkins@deweyk12.org,Chad Williams
WASHINGTON  ,74-I018,Caney Valley                  ,Ramona,620 Wyandotte Ave,OK,74061.0,(918) 536-2500,(918) 536-2600,http://www.caneyvalleyschool.org/,Rick Peters,rpeters@cvalley.k12.ok.us,Sue Woods
WASHINGTON  ,74-I030,Bartlesville                  ,Bartlesville,1100 Sw Jennings,OK,74003.0,(918) 336-8600,(918) 337-3643,www.bps-ok.org,Gary Quinn,quinngw@bps-ok.org,Doug Divelbiss
WASHITA     ,75-I001,Sentinel                      ,Sentinel,708 E. Washington,OK,73664.0,(580) 393-2101,(580) 393-4747,www.sentinel.k12.ok.us,Jason Goostree,jgoostree@sentinel.k12.ok.us,Rusty Shields
WASHITA     ,75-I010,Burns Flat-Dill City          ,Burns Flat,306 South Hwy 44,OK,73624.0,(580) 562-4844,(580) 562-4847,http://www.bfdc.k12.ok.us/,Ron Hughes,hughesr@bfdc.k12.ok.us,Jimmy Piercey
WASHITA     ,75-I011,Canute                        ,Canute,216 E Walk Street,OK,73626.0,(580) 472-3295,(580) 472-3187,www.canute.k12.ok.us,Larry Parrish,parrishld@canute.k12.ok.us,Kenneth Morgan
WASHITA     ,75-I078,Cordell                       ,Cordell,606 East Third St,OK,73632.0,(580) 832-3420,(580) 832-1090,www.cordell.k12.ok.us,Brad Overton,brad.overton@cordell.k12.ok.us,Randy Abernathy
WOODS       ,76-I001,Alva                          ,Alva,418 Flynn Street,OK,73717.0,(580) 327-4823,(580) 327-2965,www.alvaschools.net,Steve Parkhurst,jsparkhurst@alvaschools.net,Steve Ellis
WOODS       ,76-I003,Waynoka                       ,Waynoka,2134 Lincoln Street,OK,73860.0,(580) 824-6561,(580) 824-0656,www.waynoka.k12.ok.us,Loren Tackett,ltackett@waynoka.k12.ok.us,Marinda Zook
WOODS       ,76-I006,Freedom                       ,Freedom,1138 Eagle Pass,OK,73842.0,(580) 621-3271,(580) 621-3699,www.freedom.k12.ok.us,Danny Mccuiston,dmccuiston@freedom.k12.ok.us,Joe Jessup
WOODWARD    ,77-I001,Woodward                      ,Woodward,1023 10Th Street,OK,73802.0,(580) 256-6063,(580) 256-4391,www.woodwardps.net,Kyle Reynolds,reynolds@woodwardps.net,Glenn Billings
WOODWARD    ,77-I002,Mooreland                     ,Mooreland,Sw 6Th Street & Elm,OK,73852.0,(580) 994-5388,(580) 994-5900,www.mooreland.k12.ok.us,Terry Kellner,supti002@mooreland.k12.ok.us,Troy White
WOODWARD    ,77-I003,Sharon-Mutual                 ,Mutual,210 S Maple St,OK,73853.0,(580) 989-3210,(580) 989-3241,www.smps.k12.ok.us,Jeff Thompson,jthompson@smps.k12.ok.us,Reed Schmeling
WOODWARD    ,77-I005,Fort Supply                   ,Fort Supply,302 Reservation Road,OK,73841.0,(580) 766-2611,(580) 766-8019,www.fortsupply.k12.ok.us,Melva Little,melva@fortsupply.k12.ok.us,Kirby Wanger
