name,streetaddress,city,state,zipcode,latitude,longitude,localizability,datasourcename,datasourceurl,primarykeyfromrocket,assettype
Kuhn's Market,5878 Northumberland  Street,Pittsburgh,PA,15202,40.4971622083202,-80.06027922446,fixed,WPRDC Dataset: Allegheny County Restaurant/Food Facility Inspections and Locations: Geocoded Food Facilities,https://data.wprdc.org/dataset/allegheny-county-restaurant-food-facility-inspection-violations/resource/112a3821-334d-4f3f-ab40-4de1220b1a0a,36519,supermarkets
Food Shoppe,5878 Northumberland  Street,Pittsburgh,PA,15217,40.4415613067987,-79.9205356682313,fixed,WPRDC Dataset: Allegheny County Restaurant/Food Facility Inspections and Locations: Geocoded Food Facilities,https://data.wprdc.org/dataset/allegheny-county-restaurant-food-facility-inspection-violations/resource/112a3821-334d-4f3f-ab40-4de1220b1a0a,36519,supermarkets
Shop 'n Save / Shaler,1620 Babcock  Boulevard,Pittsburgh,PA,15209,40.4991465632107,-79.9789010794588,fixed,WPRDC Dataset: Allegheny County Restaurant/Food Facility Inspections and Locations: Geocoded Food Facilities,https://data.wprdc.org/dataset/allegheny-county-restaurant-food-facility-inspection-violations/resource/112a3821-334d-4f3f-ab40-4de1220b1a0a,36519,supermarkets
Giant Eagle #61,5878 Northumberland  Street,Pittsburgh,PA,15203,40.4311319291128,-79.9766070844995,fixed,WPRDC Dataset: Allegheny County Restaurant/Food Facility Inspections and Locations: Geocoded Food Facilities,https://data.wprdc.org/dataset/allegheny-county-restaurant-food-facility-inspection-violations/resource/112a3821-334d-4f3f-ab40-4de1220b1a0a,38879,supermarkets
Safrans Market,5878 Northumberland  Street,Sewickley,PA,15143,40.5410391195376,-80.1822622094134,fixed,WPRDC Dataset: Allegheny County Restaurant/Food Facility Inspections and Locations: Geocoded Food Facilities,https://data.wprdc.org/dataset/allegheny-county-restaurant-food-facility-inspection-violations/resource/112a3821-334d-4f3f-ab40-4de1220b1a0a,30265,supermarkets
T-Bones,1620 Babcock  Boulevard,Wexford,PA,15090,40.6169113511392,-80.0924641751422,fixed,WPRDC Dataset: Allegheny County Restaurant/Food Facility Inspections and Locations: Geocoded Food Facilities,https://data.wprdc.org/dataset/allegheny-county-restaurant-food-facility-inspection-violations/resource/112a3821-334d-4f3f-ab40-4de1220b1a0a,39139,supermarkets
Shop 'n Save #1076 Mt. Washington,125 Virginia Avenue,Pittsburgh,PA,15211,40.4294207827719,-80.0079707599967,fixed,WPRDC Dataset: Allegheny County Restaurant/Food Facility Inspections and Locations: Geocoded Food Facilities,https://data.wprdc.org/dataset/allegheny-county-restaurant-food-facility-inspection-violations/resource/112a3821-334d-4f3f-ab40-4de1220b1a0a,37868,supermarkets
Shursave,4401 Liberty  Avenue,Pittsburgh,PA,15224,40.4641309781166,-79.9520630304225,fixed,WPRDC Dataset: Allegheny County Restaurant/Food Facility Inspections and Locations: Geocoded Food Facilities,https://data.wprdc.org/dataset/allegheny-county-restaurant-food-facility-inspection-violations/resource/112a3821-334d-4f3f-ab40-4de1220b1a0a,38101,supermarkets
Shop 'n Save,4647 Buttermilk Hollow  Road,West Mifflin,PA,15122,40.360992148186,-79.9065353115039,fixed,WPRDC Dataset: Allegheny County Restaurant/Food Facility Inspections and Locations: Geocoded Food Facilities,https://data.wprdc.org/dataset/allegheny-county-restaurant-food-facility-inspection-violations/resource/112a3821-334d-4f3f-ab40-4de1220b1a0a,35607,supermarkets
Giant Eagle #74,1165 McKinney Lane #100,Pittsburgh,PA,15220,40.4230005232593,-80.0350228161454,fixed,WPRDC Dataset: Allegheny County Restaurant/Food Facility Inspections and Locations: Geocoded Food Facilities,https://data.wprdc.org/dataset/allegheny-county-restaurant-food-facility-inspection-violations/resource/112a3821-334d-4f3f-ab40-4de1220b1a0a,35578,supermarkets
Coraopolis Cash Market,1017 4th  Avenue,Coraopolis,PA,15108,40.5183067281232,-80.1628130642656,fixed,WPRDC Dataset: Allegheny County Restaurant/Food Facility Inspections and Locations: Geocoded Food Facilities,https://data.wprdc.org/dataset/allegheny-county-restaurant-food-facility-inspection-violations/resource/112a3821-334d-4f3f-ab40-4de1220b1a0a,34765,supermarkets
Giant Eagle #77,254 Yost  Boulevard,Pittsburgh,PA,15221,40.4144911501518,-79.8552918228808,fixed,WPRDC Dataset: Allegheny County Restaurant/Food Facility Inspections and Locations: Geocoded Food Facilities,https://data.wprdc.org/dataset/allegheny-county-restaurant-food-facility-inspection-violations/resource/112a3821-334d-4f3f-ab40-4de1220b1a0a,30226,supermarkets
Giant Eagle #25,1029 West View Park Drive,Pittsburgh,PA,15229,NULL,NULL,fixed,WPRDC Dataset: Allegheny County Restaurant/Food Facility Inspections and Locations: Geocoded Food Facilities,https://data.wprdc.org/dataset/allegheny-county-restaurant-food-facility-inspection-violations/resource/112a3821-334d-4f3f-ab40-4de1220b1a0a,34317,supermarkets
Shop 'n Save / Russellton,908 Little Deer Creek Valley Road,Russellton,PA,15076,40.6086628976599,-79.833503856548,fixed,WPRDC Dataset: Allegheny County Restaurant/Food Facility Inspections and Locations: Geocoded Food Facilities,https://data.wprdc.org/dataset/allegheny-county-restaurant-food-facility-inspection-violations/resource/112a3821-334d-4f3f-ab40-4de1220b1a0a,25315,supermarkets
Shop 'n Save / Brownsville Road,1119 Brownsville  Road,Pittsburgh,PA,15210,40.4048249476727,-79.989721255342,fixed,WPRDC Dataset: Allegheny County Restaurant/Food Facility Inspections and Locations: Geocoded Food Facilities,https://data.wprdc.org/dataset/allegheny-county-restaurant-food-facility-inspection-violations/resource/112a3821-334d-4f3f-ab40-4de1220b1a0a,38008,supermarkets
Giant Eagle #78,230 Rodi Road,Pittsburgh,PA,15235,40.4617445773283,-79.8252122711155,fixed,WPRDC Dataset: Allegheny County Restaurant/Food Facility Inspections and Locations: Geocoded Food Facilities,https://data.wprdc.org/dataset/allegheny-county-restaurant-food-facility-inspection-violations/resource/112a3821-334d-4f3f-ab40-4de1220b1a0a,2848,supermarkets
Giant Eagle #37,5 Quaker Village Shopping Center,Leetsdale,PA,15056,NULL,NULL,fixed,WPRDC Dataset: Allegheny County Restaurant/Food Facility Inspections and Locations: Geocoded Food Facilities,https://data.wprdc.org/dataset/allegheny-county-restaurant-food-facility-inspection-violations/resource/112a3821-334d-4f3f-ab40-4de1220b1a0a,2811,supermarkets
Shop 'n Save McKeesport ,815 5th Ave,Mc Keesport,PA,15132,40.3519055509553,-79.8560283571471,fixed,WPRDC Dataset: Allegheny County Restaurant/Food Facility Inspections and Locations: Geocoded Food Facilities,https://data.wprdc.org/dataset/allegheny-county-restaurant-food-facility-inspection-violations/resource/112a3821-334d-4f3f-ab40-4de1220b1a0a,56556,supermarkets
Giant Eagle #64,3812 O'Neil Blvd,Mc Keesport,PA,15132,NULL,NULL,fixed,WPRDC Dataset: Allegheny County Restaurant/Food Facility Inspections and Locations: Geocoded Food Facilities,https://data.wprdc.org/dataset/allegheny-county-restaurant-food-facility-inspection-violations/resource/112a3821-334d-4f3f-ab40-4de1220b1a0a,2370,supermarkets
Wal-Mart Super Center #2588,100 Wal-Mart Dr,North Versailles,PA,15137,NULL,NULL,fixed,WPRDC Dataset: Allegheny County Restaurant/Food Facility Inspections and Locations: Geocoded Food Facilities,https://data.wprdc.org/dataset/allegheny-county-restaurant-food-facility-inspection-violations/resource/112a3821-334d-4f3f-ab40-4de1220b1a0a,199901260002,supermarkets
Giant Eagle #0004,5055 Library  Road,Bethel Park,PA,15102,40.3389236351549,-80.0254781207211,fixed,WPRDC Dataset: Allegheny County Restaurant/Food Facility Inspections and Locations: Geocoded Food Facilities,https://data.wprdc.org/dataset/allegheny-county-restaurant-food-facility-inspection-violations/resource/112a3821-334d-4f3f-ab40-4de1220b1a0a,2154,supermarkets
Giant Eagle #65,4110 Brighton Road,Pittsburgh,PA,15212,40.4892632674544,-80.0434660161438,fixed,WPRDC Dataset: Allegheny County Restaurant/Food Facility Inspections and Locations: Geocoded Food Facilities,https://data.wprdc.org/dataset/allegheny-county-restaurant-food-facility-inspection-violations/resource/112a3821-334d-4f3f-ab40-4de1220b1a0a,2050,supermarkets
Giant Eagle #45,225 Blazier Dr,Pittsburgh,PA,15237,NULL,NULL,fixed,WPRDC Dataset: Allegheny County Restaurant/Food Facility Inspections and Locations: Geocoded Food Facilities,https://data.wprdc.org/dataset/allegheny-county-restaurant-food-facility-inspection-violations/resource/112a3821-334d-4f3f-ab40-4de1220b1a0a,2051,supermarkets
Sam's Club #6575,249 Summit Park Drive,Pittsburgh,PA,15275,40.4495538766619,-80.1779904349046,fixed,WPRDC Dataset: Allegheny County Restaurant/Food Facility Inspections and Locations: Geocoded Food Facilities,https://data.wprdc.org/dataset/allegheny-county-restaurant-food-facility-inspection-violations/resource/112a3821-334d-4f3f-ab40-4de1220b1a0a,55897,supermarkets
Giant Eagle #0052,132 Ben Avon Heights Rd,Pittsburgh,PA,15237,40.5216393149771,-80.0691386522503,fixed,WPRDC Dataset: Allegheny County Restaurant/Food Facility Inspections and Locations: Geocoded Food Facilities,https://data.wprdc.org/dataset/allegheny-county-restaurant-food-facility-inspection-violations/resource/112a3821-334d-4f3f-ab40-4de1220b1a0a,57792,supermarkets
Giant Eagle #0073,9901 Mountain View  Drive,West Mifflin,PA,15122,40.3396577028123,-79.9497507234932,fixed,WPRDC Dataset: Allegheny County Restaurant/Food Facility Inspections and Locations: Geocoded Food Facilities,https://data.wprdc.org/dataset/allegheny-county-restaurant-food-facility-inspection-violations/resource/112a3821-334d-4f3f-ab40-4de1220b1a0a,56268,supermarkets
Murray Avenue Kosher,1912 Murray  Avenue,Pittsburgh,PA,15217,40.4355414383475,-79.9231754772003,fixed,WPRDC Dataset: Allegheny County Restaurant/Food Facility Inspections and Locations: Geocoded Food Facilities,https://data.wprdc.org/dataset/allegheny-county-restaurant-food-facility-inspection-violations/resource/112a3821-334d-4f3f-ab40-4de1220b1a0a,56065,supermarkets
Giant Eagle #646,51 Walsh Road,Pittsburgh,PA,15205,40.4405981739094,-80.0720081639852,fixed,WPRDC Dataset: Allegheny County Restaurant/Food Facility Inspections and Locations: Geocoded Food Facilities,https://data.wprdc.org/dataset/allegheny-county-restaurant-food-facility-inspection-violations/resource/112a3821-334d-4f3f-ab40-4de1220b1a0a,55556,supermarkets
Giant Eagle #17,6320 Shakespeare St,Pittsburgh,PA,15206,40.4586694165469,-79.920755192051,fixed,WPRDC Dataset: Allegheny County Restaurant/Food Facility Inspections and Locations: Geocoded Food Facilities,https://data.wprdc.org/dataset/allegheny-county-restaurant-food-facility-inspection-violations/resource/112a3821-334d-4f3f-ab40-4de1220b1a0a,1878,supermarkets
Giant Eagle #38,1901 Murray Avenue,Pittsburgh,PA,15217,40.4356644808696,-79.9225606363348,fixed,WPRDC Dataset: Allegheny County Restaurant/Food Facility Inspections and Locations: Geocoded Food Facilities,https://data.wprdc.org/dataset/allegheny-county-restaurant-food-facility-inspection-violations/resource/112a3821-334d-4f3f-ab40-4de1220b1a0a,1880,supermarkets
Giant Eagle #63,4250  Murray Ave,Pittsburgh,PA,15217,40.422252855852,-79.9294231858365,fixed,WPRDC Dataset: Allegheny County Restaurant/Food Facility Inspections and Locations: Geocoded Food Facilities,https://data.wprdc.org/dataset/allegheny-county-restaurant-food-facility-inspection-violations/resource/112a3821-334d-4f3f-ab40-4de1220b1a0a,1881,supermarkets
Robert Wholey Co,1711 Penn Avenue,Pittsburgh,PA,15222,40.4501010031256,-79.9858632975096,fixed,WPRDC Dataset: Allegheny County Restaurant/Food Facility Inspections and Locations: Geocoded Food Facilities,https://data.wprdc.org/dataset/allegheny-county-restaurant-food-facility-inspection-violations/resource/112a3821-334d-4f3f-ab40-4de1220b1a0a,1795,supermarkets
Giant Eagle #60,4010 Monroeville Boulevard,Monroeville,PA,15146,40.432094206355,-79.7726641316603,fixed,WPRDC Dataset: Allegheny County Restaurant/Food Facility Inspections and Locations: Geocoded Food Facilities,https://data.wprdc.org/dataset/allegheny-county-restaurant-food-facility-inspection-violations/resource/112a3821-334d-4f3f-ab40-4de1220b1a0a,57877,supermarkets
Wal-Mart Super Center #2300,250 Summit Park Drive,Pittsburgh,PA,15275,40.4472891084208,-80.1762439814093,fixed,WPRDC Dataset: Allegheny County Restaurant/Food Facility Inspections and Locations: Geocoded Food Facilities,https://data.wprdc.org/dataset/allegheny-county-restaurant-food-facility-inspection-violations/resource/112a3821-334d-4f3f-ab40-4de1220b1a0a,55920,supermarkets
Giant Eagle #695,200 Allegheny River Boulevard,Verona,PA,15147,40.4992344638881,-79.8444725515873,fixed,WPRDC Dataset: Allegheny County Restaurant/Food Facility Inspections and Locations: Geocoded Food Facilities,https://data.wprdc.org/dataset/allegheny-county-restaurant-food-facility-inspection-violations/resource/112a3821-334d-4f3f-ab40-4de1220b1a0a,47614,supermarkets
Giant Eagle #2,1800 McKees Rocks Rd,Mc Kees Rocks,PA,15136,40.4677890700157,-80.0976432288596,fixed,WPRDC Dataset: Allegheny County Restaurant/Food Facility Inspections and Locations: Geocoded Food Facilities,https://data.wprdc.org/dataset/allegheny-county-restaurant-food-facility-inspection-violations/resource/112a3821-334d-4f3f-ab40-4de1220b1a0a,53202,supermarkets
Shop 'n Save Penn Hills ,2820 Universal  Road,Pittsburgh,PA,15235,NULL,NULL,fixed,WPRDC Dataset: Allegheny County Restaurant/Food Facility Inspections and Locations: Geocoded Food Facilities,https://data.wprdc.org/dataset/allegheny-county-restaurant-food-facility-inspection-violations/resource/112a3821-334d-4f3f-ab40-4de1220b1a0a,47108,supermarkets
Sam's Club #6677,3621 Wm Penn Hwy,Monroeville,PA,15146,40.4364851928196,-79.7995118358429,fixed,WPRDC Dataset: Allegheny County Restaurant/Food Facility Inspections and Locations: Geocoded Food Facilities,https://data.wprdc.org/dataset/allegheny-county-restaurant-food-facility-inspection-violations/resource/112a3821-334d-4f3f-ab40-4de1220b1a0a,51243,supermarkets
Giant Eagle #1691,400 Northtowne  Square,Gibsonia,PA,15044,40.6364706790034,-79.9422997344717,fixed,WPRDC Dataset: Allegheny County Restaurant/Food Facility Inspections and Locations: Geocoded Food Facilities,https://data.wprdc.org/dataset/allegheny-county-restaurant-food-facility-inspection-violations/resource/112a3821-334d-4f3f-ab40-4de1220b1a0a,49211,supermarkets
Giant Eagle Store #600,2001 Lincoln  Way,Mc Keesport,PA,15131,40.3355093395296,-79.8040198034118,fixed,WPRDC Dataset: Allegheny County Restaurant/Food Facility Inspections and Locations: Geocoded Food Facilities,https://data.wprdc.org/dataset/allegheny-county-restaurant-food-facility-inspection-violations/resource/112a3821-334d-4f3f-ab40-4de1220b1a0a,51792,supermarkets
Donatelli's Italian Food Center,4711 Liberty Avenue,Pittsburgh,PA,15224,40.4621478401123,-79.9493419627557,fixed,WPRDC Dataset: Allegheny County Restaurant/Food Facility Inspections and Locations: Geocoded Food Facilities,https://data.wprdc.org/dataset/allegheny-county-restaurant-food-facility-inspection-violations/resource/112a3821-334d-4f3f-ab40-4de1220b1a0a,43796,supermarkets
Giant Eagle / Market District South Hills #14,7000 Oxford  Drive,Bethel Park,PA,15102,40.3472222182917,-80.0465464537892,fixed,WPRDC Dataset: Allegheny County Restaurant/Food Facility Inspections and Locations: Geocoded Food Facilities,https://data.wprdc.org/dataset/allegheny-county-restaurant-food-facility-inspection-violations/resource/112a3821-334d-4f3f-ab40-4de1220b1a0a,43711,supermarkets
Shop 'n Save,450 56th Street,Pittsburgh,PA,15201,40.4832210796356,-79.9486161713864,fixed,WPRDC Dataset: Allegheny County Restaurant/Food Facility Inspections and Locations: Geocoded Food Facilities,https://data.wprdc.org/dataset/allegheny-county-restaurant-food-facility-inspection-violations/resource/112a3821-334d-4f3f-ab40-4de1220b1a0a,199908020002,supermarkets
Kuhn's Market #4,3125 Banksville Road,Pittsburgh,PA,15216,40.3998001269022,-80.0434513724498,fixed,WPRDC Dataset: Allegheny County Restaurant/Food Facility Inspections and Locations: Geocoded Food Facilities,https://data.wprdc.org/dataset/allegheny-county-restaurant-food-facility-inspection-violations/resource/112a3821-334d-4f3f-ab40-4de1220b1a0a,38483,supermarkets
Shop 'n Save - Pines Plaza ,1130 Perry  Highway,Pittsburgh,PA,15237,40.5479378815443,-80.0355798189684,fixed,WPRDC Dataset: Allegheny County Restaurant/Food Facility Inspections and Locations: Geocoded Food Facilities,https://data.wprdc.org/dataset/allegheny-county-restaurant-food-facility-inspection-violations/resource/112a3821-334d-4f3f-ab40-4de1220b1a0a,44108,supermarkets
Giant Eagle / Market District Waterworks #72,910 Freeport  Road,Pittsburgh,PA,15238,40.4880818184585,-79.8943172227734,fixed,WPRDC Dataset: Allegheny County Restaurant/Food Facility Inspections and Locations: Geocoded Food Facilities,https://data.wprdc.org/dataset/allegheny-county-restaurant-food-facility-inspection-violations/resource/112a3821-334d-4f3f-ab40-4de1220b1a0a,42973,supermarkets
Giant Eagle #641,1025 Washington Pike,Bridgeville,PA,15017,40.3666865453008,-80.1068218666232,fixed,WPRDC Dataset: Allegheny County Restaurant/Food Facility Inspections and Locations: Geocoded Food Facilities,https://data.wprdc.org/dataset/allegheny-county-restaurant-food-facility-inspection-violations/resource/112a3821-334d-4f3f-ab40-4de1220b1a0a,42635,supermarkets
Giant Eagle #67,8080 McKnight Rd / McIntyre Square  Drive,Pittsburgh,PA,15237,NULL,NULL,fixed,WPRDC Dataset: Allegheny County Restaurant/Food Facility Inspections and Locations: Geocoded Food Facilities,https://data.wprdc.org/dataset/allegheny-county-restaurant-food-facility-inspection-violations/resource/112a3821-334d-4f3f-ab40-4de1220b1a0a,42412,supermarkets
Soergel's Orchards,2573 Brandt School Rd,Wexford,PA,15090,40.6145899641775,-80.0927508851657,fixed,WPRDC Dataset: Allegheny County Restaurant/Food Facility Inspections and Locations: Geocoded Food Facilities,https://data.wprdc.org/dataset/allegheny-county-restaurant-food-facility-inspection-violations/resource/112a3821-334d-4f3f-ab40-4de1220b1a0a,40745,supermarkets
Giant Eagle #605 Elizabeth Township,800 McKeesport  Road,Elizabeth,PA,15037,40.2799239290416,-79.875698354338,fixed,WPRDC Dataset: Allegheny County Restaurant/Food Facility Inspections and Locations: Geocoded Food Facilities,https://data.wprdc.org/dataset/allegheny-county-restaurant-food-facility-inspection-violations/resource/112a3821-334d-4f3f-ab40-4de1220b1a0a,44034,supermarkets
East End Food Co-Op,7516 Meade Street,Pittsburgh,PA,15208,40.448304325157,-79.8957012276635,fixed,WPRDC Dataset: Allegheny County Restaurant/Food Facility Inspections and Locations: Geocoded Food Facilities,https://data.wprdc.org/dataset/allegheny-county-restaurant-food-facility-inspection-violations/resource/112a3821-334d-4f3f-ab40-4de1220b1a0a,40781,supermarkets
Giant Eagle #619,1705 Braddock Avenue,Pittsburgh,PA,15218,NULL,NULL,fixed,WPRDC Dataset: Allegheny County Restaurant/Food Facility Inspections and Locations: Geocoded Food Facilities,https://data.wprdc.org/dataset/allegheny-county-restaurant-food-facility-inspection-violations/resource/112a3821-334d-4f3f-ab40-4de1220b1a0a,46832,supermarkets
Patsy's Market,483 Center Avenue,Verona,PA,15147,40.5066864590562,-79.8397324193068,fixed,WPRDC Dataset: Allegheny County Restaurant/Food Facility Inspections and Locations: Geocoded Food Facilities,https://data.wprdc.org/dataset/allegheny-county-restaurant-food-facility-inspection-violations/resource/112a3821-334d-4f3f-ab40-4de1220b1a0a,200008180001,supermarkets
Giant Eagle #6379,420 E Waterfront Dr,Homestead,PA,15120,40.4110092447386,-79.9084912857073,fixed,WPRDC Dataset: Allegheny County Restaurant/Food Facility Inspections and Locations: Geocoded Food Facilities,https://data.wprdc.org/dataset/allegheny-county-restaurant-food-facility-inspection-violations/resource/112a3821-334d-4f3f-ab40-4de1220b1a0a,200002100005,supermarkets
Kuhn's Market,1130 Highwood St,Pittsburgh,PA,15212,40.4683946374744,-80.0266026129949,fixed,WPRDC Dataset: Allegheny County Restaurant/Food Facility Inspections and Locations: Geocoded Food Facilities,https://data.wprdc.org/dataset/allegheny-county-restaurant-food-facility-inspection-violations/resource/112a3821-334d-4f3f-ab40-4de1220b1a0a,35347,supermarkets
Giant Eagle #31,5260  Grove Road,Pittsburgh,PA,15236,40.3573973996838,-80.0022768909744,fixed,WPRDC Dataset: Allegheny County Restaurant/Food Facility Inspections and Locations: Geocoded Food Facilities,https://data.wprdc.org/dataset/allegheny-county-restaurant-food-facility-inspection-violations/resource/112a3821-334d-4f3f-ab40-4de1220b1a0a,33543,supermarkets
Gordon Food Service,3620 Wm Penn Hwy,Monroeville,PA,15146,40.4320784359189,-79.7996115341044,fixed,WPRDC Dataset: Allegheny County Restaurant/Food Facility Inspections and Locations: Geocoded Food Facilities,https://data.wprdc.org/dataset/allegheny-county-restaurant-food-facility-inspection-violations/resource/112a3821-334d-4f3f-ab40-4de1220b1a0a,200611170002,supermarkets
Gordon Food Service Store,1 Urbano Way,Pittsburgh,PA,15205,40.4573716007765,-80.1659936179759,fixed,WPRDC Dataset: Allegheny County Restaurant/Food Facility Inspections and Locations: Geocoded Food Facilities,https://data.wprdc.org/dataset/allegheny-county-restaurant-food-facility-inspection-violations/resource/112a3821-334d-4f3f-ab40-4de1220b1a0a,200710160002,supermarkets
Community Super Market,1117 Milltown Rd,Verona,PA,15147,40.4986513151729,-79.7907203449821,fixed,WPRDC Dataset: Allegheny County Restaurant/Food Facility Inspections and Locations: Geocoded Food Facilities,https://data.wprdc.org/dataset/allegheny-county-restaurant-food-facility-inspection-violations/resource/112a3821-334d-4f3f-ab40-4de1220b1a0a,262,supermarkets
Leonard Labriola Foods,121 Hulton Road,Verona,PA,15147,40.484548731855,-79.8201127507331,fixed,WPRDC Dataset: Allegheny County Restaurant/Food Facility Inspections and Locations: Geocoded Food Facilities,https://data.wprdc.org/dataset/allegheny-county-restaurant-food-facility-inspection-violations/resource/112a3821-334d-4f3f-ab40-4de1220b1a0a,253,supermarkets
Gordon Food Service Store ,510 Clairton Blvd,Pittsburgh,PA,15236,40.3338231198288,-79.9470969897752,fixed,WPRDC Dataset: Allegheny County Restaurant/Food Facility Inspections and Locations: Geocoded Food Facilities,https://data.wprdc.org/dataset/allegheny-county-restaurant-food-facility-inspection-violations/resource/112a3821-334d-4f3f-ab40-4de1220b1a0a,200611270006,supermarkets
Giant Eagle / Market District Shadyside #40,5550 Centre Avenue,Pittsburgh,PA,15232,40.4566054440019,-79.9343652788186,fixed,WPRDC Dataset: Allegheny County Restaurant/Food Facility Inspections and Locations: Geocoded Food Facilities,https://data.wprdc.org/dataset/allegheny-county-restaurant-food-facility-inspection-violations/resource/112a3821-334d-4f3f-ab40-4de1220b1a0a,199912010005,supermarkets
Shop 'n Save,2362 Golden Mile  Highway,Pittsburgh,PA,15239,40.4624461319207,-79.7047653659144,fixed,WPRDC Dataset: Allegheny County Restaurant/Food Facility Inspections and Locations: Geocoded Food Facilities,https://data.wprdc.org/dataset/allegheny-county-restaurant-food-facility-inspection-violations/resource/112a3821-334d-4f3f-ab40-4de1220b1a0a,199912060001,supermarkets
Shop 'n Save / Glenshaw #212403,917 Butler  Street,Glenshaw,PA,15116,NULL,NULL,fixed,WPRDC Dataset: Allegheny County Restaurant/Food Facility Inspections and Locations: Geocoded Food Facilities,https://data.wprdc.org/dataset/allegheny-county-restaurant-food-facility-inspection-violations/resource/112a3821-334d-4f3f-ab40-4de1220b1a0a,200612060006,supermarkets
Wal-Mart Super Center #2281,2351 Century  Drive,West Mifflin,PA,15122,40.3423950830376,-79.9466268875031,fixed,WPRDC Dataset: Allegheny County Restaurant/Food Facility Inspections and Locations: Geocoded Food Facilities,https://data.wprdc.org/dataset/allegheny-county-restaurant-food-facility-inspection-violations/resource/112a3821-334d-4f3f-ab40-4de1220b1a0a,200308190003,supermarkets
Lotus Noodle Co,1649 Penn Avenue,Pittsburgh,PA,15222,40.4497663732215,-79.986426220449,fixed,WPRDC Dataset: Allegheny County Restaurant/Food Facility Inspections and Locations: Geocoded Food Facilities,https://data.wprdc.org/dataset/allegheny-county-restaurant-food-facility-inspection-violations/resource/112a3821-334d-4f3f-ab40-4de1220b1a0a,199912230002,supermarkets
Shop 'n Save / Heidelberg,2100 Washington Pike,Carnegie,PA,15106,40.3878912647148,-80.0925646091617,fixed,WPRDC Dataset: Allegheny County Restaurant/Food Facility Inspections and Locations: Geocoded Food Facilities,https://data.wprdc.org/dataset/allegheny-county-restaurant-food-facility-inspection-violations/resource/112a3821-334d-4f3f-ab40-4de1220b1a0a,200608300002,supermarkets
Giant Eagle Express #5103,2611 Freeport Road,Pittsburgh,PA,15238,40.5378348108938,-79.838817397384,fixed,WPRDC Dataset: Allegheny County Restaurant/Food Facility Inspections and Locations: Geocoded Food Facilities,https://data.wprdc.org/dataset/allegheny-county-restaurant-food-facility-inspection-violations/resource/112a3821-334d-4f3f-ab40-4de1220b1a0a,200705040005,supermarkets
Costco #649,501 W Waterfront Dr,Homestead,PA,15120,40.4029700093699,-79.9214116735045,fixed,WPRDC Dataset: Allegheny County Restaurant/Food Facility Inspections and Locations: Geocoded Food Facilities,https://data.wprdc.org/dataset/allegheny-county-restaurant-food-facility-inspection-violations/resource/112a3821-334d-4f3f-ab40-4de1220b1a0a,200703140001,supermarkets
Trader Joe's #638,6343 Penn  Avenue,Pittsburgh,PA,15206,40.4591930409335,-79.9192342043347,fixed,WPRDC Dataset: Allegheny County Restaurant/Food Facility Inspections and Locations: Geocoded Food Facilities,https://data.wprdc.org/dataset/allegheny-county-restaurant-food-facility-inspection-violations/resource/112a3821-334d-4f3f-ab40-4de1220b1a0a,200610180001,supermarkets
Shop 'n Save / Rochester,184 Rochester  Road,Pittsburgh,PA,15229,40.5198074269627,-80.0181034349263,fixed,WPRDC Dataset: Allegheny County Restaurant/Food Facility Inspections and Locations: Geocoded Food Facilities,https://data.wprdc.org/dataset/allegheny-county-restaurant-food-facility-inspection-violations/resource/112a3821-334d-4f3f-ab40-4de1220b1a0a,200510120001,supermarkets
Kuhn's Market,745 Ingomar  Road,Ingomar,PA,15127,NULL,NULL,fixed,WPRDC Dataset: Allegheny County Restaurant/Food Facility Inspections and Locations: Geocoded Food Facilities,https://data.wprdc.org/dataset/allegheny-county-restaurant-food-facility-inspection-violations/resource/112a3821-334d-4f3f-ab40-4de1220b1a0a,200511020009,supermarkets
Shop 'n Save / Noblestown #2412,2103 Noblestown  Road,Pittsburgh,PA,15205,40.4306512290677,-80.0519979037217,fixed,WPRDC Dataset: Allegheny County Restaurant/Food Facility Inspections and Locations: Geocoded Food Facilities,https://data.wprdc.org/dataset/allegheny-county-restaurant-food-facility-inspection-violations/resource/112a3821-334d-4f3f-ab40-4de1220b1a0a,200603230007,supermarkets
Sam's Club #4952,2000 Village Center Drive,Tarentum,PA,15084,40.5658148226346,-79.8042349198677,fixed,WPRDC Dataset: Allegheny County Restaurant/Food Facility Inspections and Locations: Geocoded Food Facilities,https://data.wprdc.org/dataset/allegheny-county-restaurant-food-facility-inspection-violations/resource/112a3821-334d-4f3f-ab40-4de1220b1a0a,200601310002,supermarkets
Shop 'n Save #0212404 Imperial,600 Market Place Drive,Oakdale,PA,15071,40.4402026512141,-80.241229135522,fixed,WPRDC Dataset: Allegheny County Restaurant/Food Facility Inspections and Locations: Geocoded Food Facilities,https://data.wprdc.org/dataset/allegheny-county-restaurant-food-facility-inspection-violations/resource/112a3821-334d-4f3f-ab40-4de1220b1a0a,200602230004,supermarkets
Two Louie's Market,1233 Penn Avenue,Pittsburgh,PA,15222,40.4464236673141,-79.9917630571851,fixed,WPRDC Dataset: Allegheny County Restaurant/Food Facility Inspections and Locations: Geocoded Food Facilities,https://data.wprdc.org/dataset/allegheny-county-restaurant-food-facility-inspection-violations/resource/112a3821-334d-4f3f-ab40-4de1220b1a0a,200804240004,supermarkets
Wal-mart Super Center #3738,4015 Freeport Road,Natrona Heights,PA,15065,40.6469097311273,-79.710023447838,fixed,WPRDC Dataset: Allegheny County Restaurant/Food Facility Inspections and Locations: Geocoded Food Facilities,https://data.wprdc.org/dataset/allegheny-county-restaurant-food-facility-inspection-violations/resource/112a3821-334d-4f3f-ab40-4de1220b1a0a,200802270003,supermarkets
Whole Foods Market #53,5880 Centre Ave,Pittsburgh,PA,15206,40.4584534708988,-79.9289780236579,fixed,WPRDC Dataset: Allegheny County Restaurant/Food Facility Inspections and Locations: Geocoded Food Facilities,https://data.wprdc.org/dataset/allegheny-county-restaurant-food-facility-inspection-violations/resource/112a3821-334d-4f3f-ab40-4de1220b1a0a,200210010004,supermarkets
Sam's Club #6679,2251 Century  Drive,West Mifflin,PA,15122,40.3438997276761,-79.9490457924018,fixed,WPRDC Dataset: Allegheny County Restaurant/Food Facility Inspections and Locations: Geocoded Food Facilities,https://data.wprdc.org/dataset/allegheny-county-restaurant-food-facility-inspection-violations/resource/112a3821-334d-4f3f-ab40-4de1220b1a0a,200408050009,supermarkets
Save A Lot / North Versailles,355 Lincoln Hwy,North Versailles,PA,15137,40.3844829417729,-79.8212778114393,fixed,WPRDC Dataset: Allegheny County Restaurant/Food Facility Inspections and Locations: Geocoded Food Facilities,https://data.wprdc.org/dataset/allegheny-county-restaurant-food-facility-inspection-violations/resource/112a3821-334d-4f3f-ab40-4de1220b1a0a,200702260003,supermarkets
Kuhn's Market,4801 McKnight Road,Pittsburgh,PA,15237,40.5263638955816,-80.0087942442622,fixed,WPRDC Dataset: Allegheny County Restaurant/Food Facility Inspections and Locations: Geocoded Food Facilities,https://data.wprdc.org/dataset/allegheny-county-restaurant-food-facility-inspection-violations/resource/112a3821-334d-4f3f-ab40-4de1220b1a0a,200603100004,supermarkets
Shop 'n Save,799 Castle Shannon  Boulevard,Pittsburgh,PA,15234,40.3691959160416,-80.0286316622096,fixed,WPRDC Dataset: Allegheny County Restaurant/Food Facility Inspections and Locations: Geocoded Food Facilities,https://data.wprdc.org/dataset/allegheny-county-restaurant-food-facility-inspection-violations/resource/112a3821-334d-4f3f-ab40-4de1220b1a0a,200603100006,supermarkets
Sam's Club #6678,289 Mt Nebo Pointe Drive,Pittsburgh,PA,15237,NULL,NULL,fixed,WPRDC Dataset: Allegheny County Restaurant/Food Facility Inspections and Locations: Geocoded Food Facilities,https://data.wprdc.org/dataset/allegheny-county-restaurant-food-facility-inspection-violations/resource/112a3821-334d-4f3f-ab40-4de1220b1a0a,200606190003,supermarkets
Costco #332,202 Costco Drive,Pittsburgh,PA,15205,40.4595128129547,-80.1652254364233,fixed,WPRDC Dataset: Allegheny County Restaurant/Food Facility Inspections and Locations: Geocoded Food Facilities,https://data.wprdc.org/dataset/allegheny-county-restaurant-food-facility-inspection-violations/resource/112a3821-334d-4f3f-ab40-4de1220b1a0a,200207230002,supermarkets
Community Market,1710 Pacific Avenue,Natrona Heights,PA,15065,40.6211027742764,-79.7240879980997,fixed,WPRDC Dataset: Allegheny County Restaurant/Food Facility Inspections and Locations: Geocoded Food Facilities,https://data.wprdc.org/dataset/allegheny-county-restaurant-food-facility-inspection-violations/resource/112a3821-334d-4f3f-ab40-4de1220b1a0a,200211120002,supermarkets
Shop 'n Save / Century Square,2381 Mountain View  Drive,West Mifflin,PA,15122,40.3449102270979,-79.946597630338,fixed,WPRDC Dataset: Allegheny County Restaurant/Food Facility Inspections and Locations: Geocoded Food Facilities,https://data.wprdc.org/dataset/allegheny-county-restaurant-food-facility-inspection-violations/resource/112a3821-334d-4f3f-ab40-4de1220b1a0a,200608010002,supermarkets
Oriental Market,4768 McKnight  Road,Pittsburgh,PA,15237,40.51991327124,-80.0043708914935,fixed,WPRDC Dataset: Allegheny County Restaurant/Food Facility Inspections and Locations: Geocoded Food Facilities,https://data.wprdc.org/dataset/allegheny-county-restaurant-food-facility-inspection-violations/resource/112a3821-334d-4f3f-ab40-4de1220b1a0a,201101200001,supermarkets
Giant Eagle #47 / Market District Robinson ,100 Settlers Ridge Center Drive,Pittsburgh,PA,15205,40.441637634695,-80.1513485570352,fixed,WPRDC Dataset: Allegheny County Restaurant/Food Facility Inspections and Locations: Geocoded Food Facilities,https://data.wprdc.org/dataset/allegheny-county-restaurant-food-facility-inspection-violations/resource/112a3821-334d-4f3f-ab40-4de1220b1a0a,200910280001,supermarkets
Trader Joe's #630,1630 Washington Road Suite 1,Pittsburgh,PA,15228,40.3513073073955,-80.0517467727594,fixed,WPRDC Dataset: Allegheny County Restaurant/Food Facility Inspections and Locations: Geocoded Food Facilities,https://data.wprdc.org/dataset/allegheny-county-restaurant-food-facility-inspection-violations/resource/112a3821-334d-4f3f-ab40-4de1220b1a0a,201110190002,supermarkets
Giant Eagle #18,1671 Butler Plank Road,Glenshaw,PA,15116,40.5375454030348,-79.9649148718196,fixed,WPRDC Dataset: Allegheny County Restaurant/Food Facility Inspections and Locations: Geocoded Food Facilities,https://data.wprdc.org/dataset/allegheny-county-restaurant-food-facility-inspection-violations/resource/112a3821-334d-4f3f-ab40-4de1220b1a0a,201012140008,supermarkets
Giant Eagle #068,5990 University Boulevard,Coraopolis,PA,15108,40.5217743173523,-80.2205626401866,fixed,WPRDC Dataset: Allegheny County Restaurant/Food Facility Inspections and Locations: Geocoded Food Facilities,https://data.wprdc.org/dataset/allegheny-county-restaurant-food-facility-inspection-violations/resource/112a3821-334d-4f3f-ab40-4de1220b1a0a,201106270010,supermarkets
Save A Lot / Duquesne,9 Duquesne Plaza,Duquesne,PA,15110,40.3745913445493,-79.8468335297461,fixed,WPRDC Dataset: Allegheny County Restaurant/Food Facility Inspections and Locations: Geocoded Food Facilities,https://data.wprdc.org/dataset/allegheny-county-restaurant-food-facility-inspection-violations/resource/112a3821-334d-4f3f-ab40-4de1220b1a0a,201102220003,supermarkets
Target #2757,6231 Penn Avenue,Pittsburgh,PA,15206,40.4608542618671,-79.9219100853522,fixed,WPRDC Dataset: Allegheny County Restaurant/Food Facility Inspections and Locations: Geocoded Food Facilities,https://data.wprdc.org/dataset/allegheny-county-restaurant-food-facility-inspection-violations/resource/112a3821-334d-4f3f-ab40-4de1220b1a0a,201106210018,supermarkets
Las Palmas,700 Brookline Boulevard,Pittsburgh,PA,15226,40.3945831705757,-80.0216923070246,fixed,WPRDC Dataset: Allegheny County Restaurant/Food Facility Inspections and Locations: Geocoded Food Facilities,https://data.wprdc.org/dataset/allegheny-county-restaurant-food-facility-inspection-violations/resource/112a3821-334d-4f3f-ab40-4de1220b1a0a,200912140001,supermarkets
Giant Eagle / Market District Pine #43,155 Towne Center  Drive,Wexford,PA,15090,NULL,NULL,fixed,WPRDC Dataset: Allegheny County Restaurant/Food Facility Inspections and Locations: Geocoded Food Facilities,https://data.wprdc.org/dataset/allegheny-county-restaurant-food-facility-inspection-violations/resource/112a3821-334d-4f3f-ab40-4de1220b1a0a,200902180008,supermarkets
Whitehall Asian Supermarket,1406 Radford  Road,Pittsburgh,PA,15227,NULL,NULL,fixed,WPRDC Dataset: Allegheny County Restaurant/Food Facility Inspections and Locations: Geocoded Food Facilities,https://data.wprdc.org/dataset/allegheny-county-restaurant-food-facility-inspection-violations/resource/112a3821-334d-4f3f-ab40-4de1220b1a0a,201204270004,supermarkets
The Fresh Market,1551 Washington Road,Pittsburgh,PA,15228,40.3546337437069,-80.0493099027057,fixed,WPRDC Dataset: Allegheny County Restaurant/Food Facility Inspections and Locations: Geocoded Food Facilities,https://data.wprdc.org/dataset/allegheny-county-restaurant-food-facility-inspection-violations/resource/112a3821-334d-4f3f-ab40-4de1220b1a0a,201306280008,supermarkets
Leonard Labriola's Italian Store,112 Northgate Drive,Warrendale,PA,15086,40.6505072280339,-80.0782054518127,fixed,WPRDC Dataset: Allegheny County Restaurant/Food Facility Inspections and Locations: Geocoded Food Facilities,https://data.wprdc.org/dataset/allegheny-county-restaurant-food-facility-inspection-violations/resource/112a3821-334d-4f3f-ab40-4de1220b1a0a,201009080008,supermarkets
Genji,10576 Perry Highway,Wexford,PA,15090,40.6122613707721,-80.0529106557463,fixed,WPRDC Dataset: Allegheny County Restaurant/Food Facility Inspections and Locations: Geocoded Food Facilities,https://data.wprdc.org/dataset/allegheny-county-restaurant-food-facility-inspection-violations/resource/112a3821-334d-4f3f-ab40-4de1220b1a0a,201204090002,supermarkets
Lamperts Deli Express,2010 Eden Park Boulevard,Mc Keesport,PA,15132,40.3426199543635,-79.8291410119728,fixed,WPRDC Dataset: Allegheny County Restaurant/Food Facility Inspections and Locations: Geocoded Food Facilities,https://data.wprdc.org/dataset/allegheny-county-restaurant-food-facility-inspection-violations/resource/112a3821-334d-4f3f-ab40-4de1220b1a0a,201211270011,supermarkets
Giant Eagle #0015,1701 Lincoln Highway,North Versailles,PA,15137,40.3722453854663,-79.7887557401352,fixed,WPRDC Dataset: Allegheny County Restaurant/Food Facility Inspections and Locations: Geocoded Food Facilities,https://data.wprdc.org/dataset/allegheny-county-restaurant-food-facility-inspection-violations/resource/112a3821-334d-4f3f-ab40-4de1220b1a0a,201311010007,supermarkets
Giant Eagle #29,1356 Hoffman Boulevard,West Mifflin,PA,15122,40.3842655281108,-79.8681439041393,fixed,WPRDC Dataset: Allegheny County Restaurant/Food Facility Inspections and Locations: Geocoded Food Facilities,https://data.wprdc.org/dataset/allegheny-county-restaurant-food-facility-inspection-violations/resource/112a3821-334d-4f3f-ab40-4de1220b1a0a,201402070004,supermarkets
Shop 'n Save - Ross's Village,1886 Homeville Road,West Mifflin,PA,15122,40.3654532753713,-79.8733260440576,fixed,WPRDC Dataset: Allegheny County Restaurant/Food Facility Inspections and Locations: Geocoded Food Facilities,https://data.wprdc.org/dataset/allegheny-county-restaurant-food-facility-inspection-violations/resource/112a3821-334d-4f3f-ab40-4de1220b1a0a,201312230003,supermarkets
Target #2787,201 South Hills Village,Pittsburgh,PA,15241,NULL,NULL,fixed,WPRDC Dataset: Allegheny County Restaurant/Food Facility Inspections and Locations: Geocoded Food Facilities,https://data.wprdc.org/dataset/allegheny-county-restaurant-food-facility-inspection-violations/resource/112a3821-334d-4f3f-ab40-4de1220b1a0a,201302150004,supermarkets
Market on Broadway IGA / Las Palmas,1616 Broadway Avenue,Pittsburgh,PA,15216,40.4101126324247,-80.024943742701,fixed,WPRDC Dataset: Allegheny County Restaurant/Food Facility Inspections and Locations: Geocoded Food Facilities,https://data.wprdc.org/dataset/allegheny-county-restaurant-food-facility-inspection-violations/resource/112a3821-334d-4f3f-ab40-4de1220b1a0a,201312090007,supermarkets
Shop N Save,649 Old Clairton Road,Pittsburgh,PA,15236,40.3242329412658,-79.9568084659502,fixed,WPRDC Dataset: Allegheny County Restaurant/Food Facility Inspections and Locations: Geocoded Food Facilities,https://data.wprdc.org/dataset/allegheny-county-restaurant-food-facility-inspection-violations/resource/112a3821-334d-4f3f-ab40-4de1220b1a0a,201701170006,supermarkets
Shop N Save#3102,5375 William Flynn Highway,Gibsonia,PA,15044,40.6200155637515,-79.9451803162963,fixed,WPRDC Dataset: Allegheny County Restaurant/Food Facility Inspections and Locations: Geocoded Food Facilities,https://data.wprdc.org/dataset/allegheny-county-restaurant-food-facility-inspection-violations/resource/112a3821-334d-4f3f-ab40-4de1220b1a0a,201611210012,supermarkets
Giant Eagle #69,9001 Frankstown  Road,Pittsburgh,PA,15235,40.4626672982706,-79.8652581449567,fixed,WPRDC Dataset: Allegheny County Restaurant/Food Facility Inspections and Locations: Geocoded Food Facilities,https://data.wprdc.org/dataset/allegheny-county-restaurant-food-facility-inspection-violations/resource/112a3821-334d-4f3f-ab40-4de1220b1a0a,201711140002,supermarkets
Giant Eagle #24 ,3239 Washington Pike,Bridgeville,PA,15017,40.3410602060871,-80.1182825748997,fixed,WPRDC Dataset: Allegheny County Restaurant/Food Facility Inspections and Locations: Geocoded Food Facilities,https://data.wprdc.org/dataset/allegheny-county-restaurant-food-facility-inspection-violations/resource/112a3821-334d-4f3f-ab40-4de1220b1a0a,201407290004,supermarkets
Trader Joe's #624,9020 Covenant Avenue,Pittsburgh,PA,15237,NULL,NULL,fixed,WPRDC Dataset: Allegheny County Restaurant/Food Facility Inspections and Locations: Geocoded Food Facilities,https://data.wprdc.org/dataset/allegheny-county-restaurant-food-facility-inspection-violations/resource/112a3821-334d-4f3f-ab40-4de1220b1a0a,201503090008,supermarkets
Bombay Market,4605 Centre Avenue,Pittsburgh,PA,15213,40.4521473944633,-79.9517842956016,fixed,WPRDC Dataset: Allegheny County Restaurant/Food Facility Inspections and Locations: Geocoded Food Facilities,https://data.wprdc.org/dataset/allegheny-county-restaurant-food-facility-inspection-violations/resource/112a3821-334d-4f3f-ab40-4de1220b1a0a,201501050001,supermarkets
Kuhn's Market,2412 Ferguson  Road,Allison Park,PA,15101,40.5549333517801,-79.9724557251409,fixed,WPRDC Dataset: Allegheny County Restaurant/Food Facility Inspections and Locations: Geocoded Food Facilities,https://data.wprdc.org/dataset/allegheny-county-restaurant-food-facility-inspection-violations/resource/112a3821-334d-4f3f-ab40-4de1220b1a0a,201512160006,supermarkets
Wal-Mart #4644,7500 University  Boulevard,Coraopolis,PA,15108,40.5165777572193,-80.2241914551674,fixed,WPRDC Dataset: Allegheny County Restaurant/Food Facility Inspections and Locations: Geocoded Food Facilities,https://data.wprdc.org/dataset/allegheny-county-restaurant-food-facility-inspection-violations/resource/112a3821-334d-4f3f-ab40-4de1220b1a0a,201611170002,supermarkets
WFH / Wing Fat Hong Oriental Food Market,2306 Penn Avenue,Pittsburgh,PA,15222,40.4528030322044,-79.9810841301702,fixed,WPRDC Dataset: Allegheny County Restaurant/Food Facility Inspections and Locations: Geocoded Food Facilities,https://data.wprdc.org/dataset/allegheny-county-restaurant-food-facility-inspection-violations/resource/112a3821-334d-4f3f-ab40-4de1220b1a0a,201411210003,supermarkets
Whole Foods Market,111 Siena Drive,Pittsburgh,PA,15241,40.3461231926006,-80.0581104695546,fixed,WPRDC Dataset: Allegheny County Restaurant/Food Facility Inspections and Locations: Geocoded Food Facilities,https://data.wprdc.org/dataset/allegheny-county-restaurant-food-facility-inspection-violations/resource/112a3821-334d-4f3f-ab40-4de1220b1a0a,201701120001,supermarkets
Giant Eagle #91,318 Cedar Avenue,Pittsburgh,PA,15212,40.4515012707367,-79.9996723779341,fixed,WPRDC Dataset: Allegheny County Restaurant/Food Facility Inspections and Locations: Geocoded Food Facilities,https://data.wprdc.org/dataset/allegheny-county-restaurant-food-facility-inspection-violations/resource/112a3821-334d-4f3f-ab40-4de1220b1a0a,201703280006,supermarkets
Dollar Tree #5553,1630 Arlington Avenue,Pittsburgh,PA,15210,40.4173609186483,-79.9874162395652,fixed,WPRDC Dataset: Allegheny County Restaurant/Food Facility Inspections and Locations: Geocoded Food Facilities,https://data.wprdc.org/dataset/allegheny-county-restaurant-food-facility-inspection-violations/resource/112a3821-334d-4f3f-ab40-4de1220b1a0a,201407230004,supermarkets
Shop 'n Save - Wilkins Twp,3335 Wm Penn  Highway,Pittsburgh,PA,15235,40.4329188881668,-79.817628876349,fixed,WPRDC Dataset: Allegheny County Restaurant/Food Facility Inspections and Locations: Geocoded Food Facilities,https://data.wprdc.org/dataset/allegheny-county-restaurant-food-facility-inspection-violations/resource/112a3821-334d-4f3f-ab40-4de1220b1a0a,201408250004,supermarkets
Shop 'n Save,5001 Library Road,Bethel Park,PA,15102,40.3410994460123,-80.0246620779768,fixed,WPRDC Dataset: Allegheny County Restaurant/Food Facility Inspections and Locations: Geocoded Food Facilities,https://data.wprdc.org/dataset/allegheny-county-restaurant-food-facility-inspection-violations/resource/112a3821-334d-4f3f-ab40-4de1220b1a0a,201408190004,supermarkets
Patel Brothers,312 Mall Plaza Boulevard,Monroeville,PA,15146,NULL,NULL,fixed,WPRDC Dataset: Allegheny County Restaurant/Food Facility Inspections and Locations: Geocoded Food Facilities,https://data.wprdc.org/dataset/allegheny-county-restaurant-food-facility-inspection-violations/resource/112a3821-334d-4f3f-ab40-4de1220b1a0a,201805090004,supermarkets
Fresh Thyme Farmers Market #451,1155 Washington  Pike,Bridgeville,PA,15017,40.3696004051667,-80.1050153726412,fixed,WPRDC Dataset: Allegheny County Restaurant/Food Facility Inspections and Locations: Geocoded Food Facilities,https://data.wprdc.org/dataset/allegheny-county-restaurant-food-facility-inspection-violations/resource/112a3821-334d-4f3f-ab40-4de1220b1a0a,201806080003,supermarkets
Fresh Thyme Farmer's Market #452,665 Clairton  Boulevard,Pittsburgh,PA,15236,40.3301968381685,-79.9440817860651,fixed,WPRDC Dataset: Allegheny County Restaurant/Food Facility Inspections and Locations: Geocoded Food Facilities,https://data.wprdc.org/dataset/allegheny-county-restaurant-food-facility-inspection-violations/resource/112a3821-334d-4f3f-ab40-4de1220b1a0a,201806040001,supermarkets
Giant Eagle #0093,600 Towne Square Way,Pittsburgh,PA,15227,40.3656415083411,-79.9834038578078,fixed,WPRDC Dataset: Allegheny County Restaurant/Food Facility Inspections and Locations: Geocoded Food Facilities,https://data.wprdc.org/dataset/allegheny-county-restaurant-food-facility-inspection-violations/resource/112a3821-334d-4f3f-ab40-4de1220b1a0a,201906120010,supermarkets
Gurung Brothers ,2950 Brownsville Road,Pittsburgh,PA,15227,40.3814730252973,-79.9765425506129,fixed,WPRDC Dataset: Allegheny County Restaurant/Food Facility Inspections and Locations: Geocoded Food Facilities,https://data.wprdc.org/dataset/allegheny-county-restaurant-food-facility-inspection-violations/resource/112a3821-334d-4f3f-ab40-4de1220b1a0a,201906130010,supermarkets
Wal-Mart Super Center #3838,2010 Village Center Drive,Tarentum,PA,15084,40.5640866984935,-79.8041418770802,fixed,WPRDC Dataset: Allegheny County Restaurant/Food Facility Inspections and Locations: Geocoded Food Facilities,https://data.wprdc.org/dataset/allegheny-county-restaurant-food-facility-inspection-violations/resource/112a3821-334d-4f3f-ab40-4de1220b1a0a,200601270011,supermarkets
Leonard Labriola's Italian Market,4039 Monroeville  Boulevard,Monroeville,PA,15146,40.4356127538586,-79.7689326193654,fixed,WPRDC Dataset: Allegheny County Restaurant/Food Facility Inspections and Locations: Geocoded Food Facilities,https://data.wprdc.org/dataset/allegheny-county-restaurant-food-facility-inspection-violations/resource/112a3821-334d-4f3f-ab40-4de1220b1a0a,200407290001,supermarkets
Save A Lot / Wilkinsburg,725 Ross St,Pittsburgh,PA,15221,NULL,NULL,fixed,WPRDC Dataset: Allegheny County Restaurant/Food Facility Inspections and Locations: Geocoded Food Facilities,https://data.wprdc.org/dataset/allegheny-county-restaurant-food-facility-inspection-violations/resource/112a3821-334d-4f3f-ab40-4de1220b1a0a,200702210003,supermarkets
Many More Asian Market,3050 Smallman Street,Pittsburgh,PA,15201,40.4598254466306,-79.9725676376452,fixed,WPRDC Dataset: Allegheny County Restaurant/Food Facility Inspections and Locations: Geocoded Food Facilities,https://data.wprdc.org/dataset/allegheny-county-restaurant-food-facility-inspection-violations/resource/112a3821-334d-4f3f-ab40-4de1220b1a0a,201310030004,supermarkets
Giant Eagle #35,1717 Cochran  Road,Pittsburgh,PA,15220,40.3927229216368,-80.0647269863152,fixed,WPRDC Dataset: Allegheny County Restaurant/Food Facility Inspections and Locations: Geocoded Food Facilities,https://data.wprdc.org/dataset/allegheny-county-restaurant-food-facility-inspection-violations/resource/112a3821-334d-4f3f-ab40-4de1220b1a0a,39025,supermarkets
Shop 'n Save,4313 Walnut  Street,Mc Keesport,PA,15132,40.3219335823086,-79.8336933853579,fixed,WPRDC Dataset: Allegheny County Restaurant/Food Facility Inspections and Locations: Geocoded Food Facilities,https://data.wprdc.org/dataset/allegheny-county-restaurant-food-facility-inspection-violations/resource/112a3821-334d-4f3f-ab40-4de1220b1a0a,200609250001,supermarkets
Shop 'n Save #0212100,4548 Broadway  Boulevard,Monroeville,PA,15146,40.389146494909,-79.7671915533704,fixed,WPRDC Dataset: Allegheny County Restaurant/Food Facility Inspections and Locations: Geocoded Food Facilities,https://data.wprdc.org/dataset/allegheny-county-restaurant-food-facility-inspection-violations/resource/112a3821-334d-4f3f-ab40-4de1220b1a0a,200209130006,supermarkets
Kuhn's Market,700 Beulah Rd,Turtle Creek,PA,15145,NULL,NULL,fixed,WPRDC Dataset: Allegheny County Restaurant/Food Facility Inspections and Locations: Geocoded Food Facilities,https://data.wprdc.org/dataset/allegheny-county-restaurant-food-facility-inspection-violations/resource/112a3821-334d-4f3f-ab40-4de1220b1a0a,200808180002,supermarkets
Whole Foods Wexford #10377,10576 Perry  Highway,Wexford,PA,15090,40.6122613707721,-80.0529106557463,fixed,WPRDC Dataset: Allegheny County Restaurant/Food Facility Inspections and Locations: Geocoded Food Facilities,https://data.wprdc.org/dataset/allegheny-county-restaurant-food-facility-inspection-violations/resource/112a3821-334d-4f3f-ab40-4de1220b1a0a,201203290001,supermarkets
