X,Y,OBJECTID,DATECOLL,LOCATION,LATD,LATM,LOND,LONM,DENSITY,DEPTHM,TIMECOLL,COMMENTS,SEAWEED,PLOT_LOC,YR
1187020.06005456,729420.156952471,1,06/16/95,STODDARD ST PK RR TRAX N,41,27.65099906,72,4.06099987,A,1.29999995,2:25,SPARSE RUPPIA  GRAVEL/COBBLES  SALINITY 10%o,ABSENT,A,95
1186914.38408481,728571.472954303,2,06/16/95,STODDARD ST PK RR TRAX S,41,27.51099967,72,4.09600019,A,1.29999995,2:20,SPARSE RUPPIA  GRAVEL/COBBLES  SALINITY 10%o,ABSENT,A,95
1182803.87590164,727222.368040979,3,06/16/95,W BANK N OF HORTON COVE,41,27.29500007,72,5.01599979,A,0.60000002,2:04, MUD  SALINITY 15%o,ULVA,O,95
1179414.60315263,721450.985882983,4,06/16/95,ENTRANCE HORTON COVE (N),41,26.34799957,72,5.59899997,A,1.29999995,1:53,SAND/GRAVEL,ABSENT,A,95
1180690.22789797,715662.743850559,5,06/16/95,E BANK OPP POWER PLANTS,41,25.39399909,72,5.47800016,A,1.60000002,1:50,SALT MARSH GRAVEL/SAND,ENTE,A,95
1178573.16290639,707217.047159314,6,06/16/95,SMITH COVE NEAR RR TRAX,41,24.00600051,72,5.9749999,A,1.29999995,1:40,SHELL FRAGMENTS/GRAVEL  SALINITY 22%o,ULVA,O,95
1178750.27705348,702893.332053483,7,06/16/95,MAMACOKE COVE,41,23.36100006,72,5.94399976,A,1.29999995,1:21,SOFT SILT  SALINITY 22%o,"GRAC,ULVA",A,95
1182391.4088788,695300.308853731,8,06/16/95,NEAR I95 N OF BOAT RAMP,41,22.03899955,72,5.15999984,A,0, , ,ABSENT,O,95
1152843.36790939,695208.582003057,9,07/19/94,NIANTIC RIVER,41,22.05999946,72,11.57999992,A,0, , NEAR RTE. 1 AND OSWEGATCHIE RD.,ABSENT,A,94
1152747.49408539,695176.831082314,10,07/19/94,NIANTIC RIVER,41,22.0550003,72,11.60099983,A,0, , NEAR RTE. 1 AND OSWEGATCHIE RD.,ABSENT,A,94
1152738.68111089,695153.048977643,11,07/19/94,NIANTIC RIVER,41,22.05100059,72,11.60299968,L,0, ,NEAR RTE. 1 AND OSWEGATCHIE RD,POLY,A,94
1152807.99298014,695147.565064728,12,07/19/94,NIANTIC RIVER,41,22.04999923,72,11.58800029,L,0, , OSWEGATCHIE RD. AREA,ABSENT,A,94
1152822.18094389,695136.690086484,13,07/19/94,NIANTIC RIVER,41,22.04800033,72,11.58399963,L,0, , OSWEGATCHIE RD. AREA,ABSENT,A,94
1152856.99288213,695125.128101721,14,07/19/94,NIANTIC RIVER,41,22.04700088,72,11.57800006,L,0, , OSWEGATCHIE RD. AREA,ABSENT,A,94
1152870.74285464,695116.83087422,15,07/19/94,NIANTIC RIVER,41,22.04500007,72,11.57400035,L,0, , OSWEGATCHIE R. AREA,ABSENT,A,94
1152895.36813347,695105.128141731,16,07/19/94,NIANTIC RIVER,41,22.04299926,72,11.56900024,L,0, , OSWEGATCHIE RD. AREA,ABSENT,A,94
1152913.36809747,695093.377837136,17,07/19/94,NIANTIC RIVER,41,22.04100036,72,11.56499958,L,0, , OSWEGATCHIE RD. AREA,ABSENT,A,94
1152944.74303472,695075.80011639,18,07/19/94,NIANTIC RIVER,41,22.0380001,72,11.55799961,L,0, , OSWEGATCHIE RD. AREA,ABSENT,A,94
1152962.61799897,695069.987135887,19,07/19/94,NIANTIC RIVER,41,22.03700065,72,11.5539999,L,0, ,"TWO CLUMPS; OSWEGATCHIE RD. AREA",ABSENT,A,94
1152996.24293172,695056.862162143,20,07/19/94,NIANTIC RIVER,41,22.03499984,72,11.54699993,H,0, ,"CONTINUOUS; OSWEGATCHIE RD. AREA",ABSENT,A,94
1153023.11787798,695045.174849555,21,07/19/94,NIANTIC RIVER,41,22.03300094,72,11.54100036,H,0, ,"CONTINUOUS; RUPPIA ALSO; OSWEGATCHIE RD. AREA",ABSENT,A,94
1153032.11785997,695039.299861312,22,07/19/94,NIANTIC RIVER,41,22.03199958,72,11.53899955,H,0, ,"CONTINUOUS; RUPPIA ALSO; OSWEGATCHIE RD. AREA",ABSENT,A,94
1153054.55613531,695021.644056723,23,07/19/94,NIANTIC RIVER,41,22.02899932,72,11.53400039,H,0, ,"EDGE OF CLUMP; OSWEGATCHIE RD. AREA",ABSENT,A,94
1153063.61812505,694996.503030896,24,07/19/94,NIANTIC RIVER,41,22.02499961,72,11.53199958,H,0, ,"HUGE CLUMPS; OSWEGATCHIE RD. AREA",ABSENT,A,94
1153059.43112555,694960.892865896,25,07/19/94,NIANTIC RIVER,41,22.01899909,72,11.53299999,H,0, ,OSWEGATCHIE RD. AREA,ABSENT,A,94
1153124.43099555,694924.251863062,26,07/19/94,NIANTIC RIVER,41,22.01300048,72,11.51900005,A,0, ,OSWEGATCHIE RD. AREA,ABSENT,A,94
1153046.24414405,694923.736116067,27,07/19/94,NIANTIC RIVER,41,22.01300048,72,11.53600025,H,0, ,OSWEGATCHIE RD. AREA,ABSENT,A,94
1153115.5560133,694918.251875058,28,07/19/94,NIANTIC RIVER,41,22.01199913,72,11.5209999,A,0, ,OSWEGATCHIE RD. AREA,ABSENT,A,94
1152872.18314047,694898.890037149,29,07/19/94,NIANTIC RIVER,41,22.00900077,72,11.57400035,A,0,12:25,OSWEGATCHIE RD AREA,"GRAC,ULVA",A,94
1153019.68186122,694887.984875232,30,07/19/94,NIANTIC RIVER,41,22.00699996,72,11.54199981,H,0, ,"EDGE OF DENSE CLUMPS; OSWEGATCHIE RD. AREA",ABSENT,A,94
1152992.86990698,694881.874979317,31,07/19/94,NIANTIC RIVER,41,22.00600051,72,11.54800033,L,0, ,"LIGHT GREEN; OSWEGATCHIE RD. AREA",GRAC,A,94
1153075.62006955,694875.000977308,32,07/19/94,NIANTIC RIVER,41,22.00499916,72,11.52999973,M,0, ,OSWEGATCHIE RD. AREA,ABSENT,A,94
1152975.24592647,694844.7021534,33,07/19/94,NIANTIC RIVER,41,22,72,11.55200004,H,1,12:30, OSWEGATCHIE RD. AREA,ABSENT,A,94
1153311.11795814,694839.36194098,34,07/19/94,NIANTIC RIVER,41,21.99699974,72,11.51700019,M,0, ,"PATCHY; WEST EDGE PPD. TO SHORE; OSWEGATCHIE RD. AREA",ABSENT,O,94
1152946.24598446,694838.576837555,35,07/19/94,NIANTIC RIVER,41,21.99900054,72,11.55799961,P,0, ,"CLUMPS; OSWEGATCHIE RD. AREA",ABSENT,A,94
1152932.93400322,694826.638869315,36,07/19/94,NIANTIC RIVER,41,21.99699974,72,11.56099987,P,0, ,"CLUMPS; OSWEGATCHIE RD. AREA",ABSENT,A,94
1152888.30909248,694820.420049727,37,07/19/94,NIANTIC RIVER,41,21.99600028,72,11.57100009,P,0, ,"CLUMPS; OSWEGATCHIE RD. AREA",ABSENT,A,94
1153420.74306697,694814.862974226,38,07/19/94,NIANTIC RIVER,41,21.99300003,72,11.49300003,M,0, ,"15 FT OFF SHORE; 6-10/M2; OSWEGATCHIE RD. AREA",ABSENT,O,94
1152868.30913247,694806.934840471,39,07/19/94,NIANTIC RIVER,41,21.99399948,72,11.5749998,P,0, ,"CLUMPS; OSWEGATCHIE RD. AREA",ABSENT,A,94
1153387.36813372,694801.017857566,40,07/19/94,NIANTIC RIVER,41,22,72,11.4829998,A,0, ,OSWEGATCHIE RD. AREA,ABSENT,A,94
1152841.49685013,694800.841020644,41,07/19/94,NIANTIC RIVER,41,21.99300003,72,11.58100032,P,0, ,"CLUMPS; OSWEGATCHIE RD. AREA",ABSENT,A,94
1152814.68489589,694800.669104978,42,07/19/94,NIANTIC RIVER,41,21.99300003,72,11.58699989,M,0, ,"BIG CLUMP; OSWEGATCHIE RD. AREA",ABSENT,A,94
1153233.99606514,694668.358017892,43,07/19/94,NIANTIC RIVER,41,21.96899986,72,11.53400039,P,0, ,"PATCHY; OSWEGATCHIE RD. AREA",ABSENT,O,94
1153193.80815339,694668.09194231,44,07/19/94,NIANTIC RIVER,41,21.96899986,72,11.54300022,P,0.69999998, ,"PATCHY; FLOWERING; OSWEGATCHIE RD. AREA",ABSENT,O,94
1152919.31099898,694623.323002979,45,07/19/94,NIANTIC RIVER,41,21.96199989,72,11.60299968,A,1.29999995, ,"WEST EDGE; SAND; OSWEGATCHIE RD. AREA",ABSENT,O,94
1153661.93090481,694612.315150976,46,07/19/94,NIANTIC RIVER,41,21.96100044,72,11.16699981,L,0, ,"NEAR GARAGE; OSWEGATCHIE RD. AREA",ABSENT,A,94
1153084.8100118,694600.667864561,47,07/19/94,NIANTIC RIVER,41,21.95800018,72,11.56700038,P,0, ,OSWEGATCHIE RD. AREA,ABSENT,O,94
1153491.68288572,694548.452089727,48,07/19/94,NIANTIC RIVER,41,21.9489994,72,11.47799968,A,2, ,"MOORING; SAND BLOW OUT AREA; OSWEGATCHIE RD. AREA",ABSENT,O,94
1153574.49505605,694525.265128225,49,07/19/94,NIANTIC RIVER,41,21.94499969,72,11.46000003,A,0, ,"EAST EDGE; OSWEGATCHIE RD. AREA",ABSENT,O,94
1153482.93290322,694524.670969307,50,07/19/94,NIANTIC RIVER,41,21.94499969,72,11.47999954,A,0, ,OSWEGATCHIE RD. AREA,ABSENT,O,94
1153469.55792998,694518.65490523,51,07/19/94,NIANTIC RIVER,41,21.94400024,72,11.4829998,A,1.70000004,12:45,OSWEGATCHIE RD. AREA,ABSENT,O,94
1153657.3698903,694494.655937478,52,07/19/94,NIANTIC RIVER,41,21.94000053,72,11.44200038,L,0, ,"SALTWATER IVY; OSWEGATCHIE RD. AREA",ABSENT,O,94
1153610.43199205,694494.359022066,53,07/19/94,NIANTIC RIVER,41,21.94000053,72,11.45199966,M,0, ,"PATCHY; OSWEGATCHIE RD. AREA",ABSENT,O,94
1152851.18810372,694447.928012565,54,07/19/94,NIANTIC RIVER,41,21.93300056,72,11.61800003,A,1.29999995, ,"ALONG WEST EDGE; OSWEGATCHIE RD. AREA",ABSENT,O,94
1153277.93495364,694437.339122981,55,07/19/94,NIANTIC RIVER,41,21.93099975,72,11.52499961,P,0, ,"CLUMPS; OSWEGATCHIE RD. AREA",ABSENT,O,94
1153164.24915738,694401.024891138,56,07/19/94,NIANTIC RIVER,41,21.92499923,72,11.55000019,P,0, ,"CLUMPS; OSWEGATCHIE RD. AREA",ABSENT,O,94
1153025.75009055,694400.133160651,57,07/19/94,NIANTIC RIVER,41,21.92499923,72,11.57999992,P,0, ,"CLUMPS; OSWEGATCHIE RD. AREA",ABSENT,O,94
1152876.31403773,694368.037096232,58,07/19/94,NIANTIC RIVER,41,21.92000007,72,11.61299991,A,0, ,OSWEGATCHIE RD. AREA,ABSENT,O,94
1152990.31315355,694356.913102731,59,07/19/94,NIANTIC RIVER,41,21.91799926,72,11.58800029,P,0, ,"CLUMPS; OSWEGATCHIE RD. AREA",ABSENT,O,94
1153745.43303439,694349.936082557,60,07/19/94,NIANTIC RIVER,41,21.91600036,72,11.42300033,P,0, ,"GRASS TO SHORE; OSWEGATCHIE RD. AREA",ABSENT,O,94
1152921.25193997,694320.880038306,61,07/19/94,NIANTIC RIVER,41,21.91200065,72,11.60299968,P,1.29999995, ,OSWEGATCHIE RD. AREA,ABSENT,O,94
1153722.06004964,694167.417090639,62,07/19/94,NIANTIC RIVER,41,21.88599967,72,11.42800045,H,0, ,"BY SHORE GRASS 3 FT TALL; OSWEGATCHIE RD. AREA",ABSENT,O,94
1182621.54686998,694141.155004054,63,06/16/95,DEP BOAT RAMP,41,21.84799957,72,5.11199998,A,0, ,NO DIFFERENTIAL GPS,"ASCO,FUCU",O,95
1153733.49801889,694124.493948147,64,07/19/94,NIANTIC RIVER,41,21.87899971,72,11.42599964,H,0, ,"DARKER GRASS; OSWEGATCHIE RD. AREA",ABSENT,O,94
1153742.99898414,694034.118144646,65,07/19/94,NIANTIC RIVER,41,21.86400032,72,11.42399978,H,0.69999998, ,OSWEGATCHIE RD. AREA,GRAC,O,94
1153627.0628643,693996.287839726,66,07/19/94,NIANTIC RIVER,41,21.8579998,72,11.44900035,H,0, ,OSWEGATCHIE RD. AREA,ABSENT,O,94
1153477.94013105,693916.738130063,67,07/19/94,NIANTIC RIVER,41,21.84499931,72,11.48200035,P,0, ,"WASTING DISEASE; OSWEGATCHIE RD. AREA",ABSENT,O,94
1153207.94198339,693860.141130388,68,07/20/94,NIANTIC RIVER,41,21.83600044,72,11.54100036,P,0, ,NEAR MT. TABOR,ABSENT,O,94
1153579.2519363,693839.129033312,69,07/19/94,NIANTIC RIVER,41,21.83499908,72,11.43599987,P,0, ,"EELGRASS TO SHORE; OSWEGATCHIE RD. AREA",ABSENT,A,94
1153304.31711872,693811.84398289,70,07/20/94,NIANTIC RIVER,41,21.82799911,72,11.52000045,M,0, ,NEAR MT. TABOR,ABSENT,O,94
1153626.56516188,693772.722013891,71,07/19/94,NIANTIC RIVER,41,21.8239994,72,11.42599964,A,0, ,OSWEGATCHIE RD. AREA,ABSENT,A,94
1153255.50488038,693764.077018067,72,07/19/94,NIANTIC RIVER,41,21.81999969,72,11.53100013,M,0, ,OSWEGATCHIE RD. AREA,ABSENT,O,94
1153112.63115039,693751.293907151,73,07/20/94,NIANTIC RIVER,41,21.81800079,72,11.56200027,P,0, ,NEAR MT. TABOR,ABSENT,O,94
1153474.8171058,693704.703121066,74,07/19/94,NIANTIC RIVER,41,21.80999946,72,11.4829998,P,0, ,OSWEGATCHIE RD. AREA,ABSENT,O,94
1153557.81595555,693699.626031473,75,07/19/94,NIANTIC RIVER,41,21.81200027,72,11.44099998,A,4, ,OSWEGATCHIE RD. AREA,ABSENT,A,94
1153139.75708039,693696.606024399,76,07/20/94,NIANTIC RIVER,41,21.80900001,72,11.55599975,P,0, ,NEAR MT. TABOR,ABSENT,O,94
1153104.00715189,693696.371116728,77,07/19/94,NIANTIC RIVER,41,21.80900001,72,11.56400012,P,0, ,"EDGE 15 FT WEST OF HERE; OSWEGATCHIE RD. AREA",ABSENT,O,94
1152956.57109505,693695.432142228,78,07/19/94,NIANTIC RIVER,41,21.80900001,72,11.59599971,A,0.69999998, ,OSWEGATCHIE RD. AREA,ASCO,O,94
1153622.75414589,693676.329162061,79,07/19/94,NIANTIC RIVER,41,21.80800056,72,11.42700004,H,0.30000001,1:20,"RUPPIA MARITIMA (FLOWERING); OSWEGATCHIE RD. AREA",ABSENT,A,94
1153975.50212805,693641.692092225,80,07/19/94,NIANTIC RIVER,41,21.80299949,72,11.342,A,0, ,OSWEGATCHIE RD. AREA,ABSENT,A,94
1153997.93909106,693635.910935804,81,07/19/94,NIANTIC RIVER,41,21.80200004,72,11.33699989,H,0, ," Z. MARINA AND R. MARITIMA DENSE; OSWEGATCHIE RD. AREA",ABSENT,A,94
1153897.37695622,693635.253128722,82,07/19/94,NIANTIC RIVER,41,21.80200004,72,11.3590002,H,0, ,"RUPPIA (DENSE); OSWEGATCHIE RD. AREA",ABSENT,A,94
1153741.37890863,693596.720069304,83,07/19/94,NIANTIC RIVER,41,21.79199981,72,11.42500019,H,2, ,"RUPPIA MARITIMA; OSWEGATCHIE RD. AREA",ABSENT,O,94
1153846.25304273,693591.924147144,84,07/19/94,NIANTIC RIVER,41,21.79500007,72,11.36999988,H,0, ,"RUPPIA; OSWEGATCHIE RD. AREA",ABSENT,A,94
1153741.50390838,693578.922860816,85,07/19/94,NIANTIC RIVER,41,21.78899955,72,11.42500019,A,2.29999995, ,"RUPPIA MARITIMA ROOTS; OSWEGATCHIE RD. AREA",ABSENT,O,94
1153976.12811105,693551.252968639,86,07/19/94,NIANTIC RIVER,41,21.7880001,72,11.342,A,0, ,OSWEGATCHIE RD. AREA,ABSENT,A,94
1154012.12803905,693508.50206989,87,07/19/94,NIANTIC RIVER,41,21.78100013,72,11.33399963,L,0, ,"RUPPIA (DENSE); OSWEGATCHIE RD. AREA",ABSENT,A,94
1154016.87802956,693471.454899892,88,07/19/94,NIANTIC RIVER,41,21.77499961,72,11.33300018,H,0, ,OSWEGATCHIE RD. AREA,GRAC,A,94
1154049.2549333,693302.655040637,89,07/19/94,NIANTIC RIVER,41,21.74699974,72,11.32600021,A,0, ,OSWEGATCHIE RD. AREA,GRAC,A,94
1154031.5679608,693271.405103147,90,07/19/94,NIANTIC RIVER,41,21.74200057,72,11.32999992,A,0, ,"ROCKS; OSWEGATCHIE RD. AREA",ASCO,A,94
1153212.07386489,693222.62993823,91,07/20/94,NIANTIC RIVER,41,21.7310009,72,11.54100036,P,0, ,NEAR MT. TABOR,ABSENT,O,94
1154036.3809433,693216.576144561,92,07/19/94,NIANTIC RIVER,41,21.7329998,72,11.32900047,A,0, ,OSWEGATCHIE RD. AREA,"GRAC,ULVA",A,94
1154014.8199628,693094.85493131,93,07/19/94,NIANTIC RIVER,41,21.71299934,72,11.33399963,A,0, ,OSWEGATCHIE RD. AREA,ABSENT,A,94
1154006.06998031,693065.150922477,94,07/19/94,NIANTIC RIVER,41,21.70800018,72,11.33600044,A,0, ,OSWEGATCHIE RD. AREA,ABSENT,A,94
1154025.19691056,692876.97610198,95,07/19/94,NIANTIC RIVER,41,21.67700004,72,11.33199977,A,0, ,"STEEP SLOPE; OSWEGATCHIE RD. AREA",ABSENT,A,94
1154056.6348398,692847.523076892,96,07/19/94,NIANTIC RIVER,41,21.67200088,72,11.3249998,A,0, ,OSWEGATCHIE RD. AREA,ULVA,A,94
1154029.8848933,692839.928931981,97,07/19/94,NIANTIC RIVER,41,21.67099952,72,11.33100032,P,0, ,"SEAGRASS CLUMPS; OSWEGATCHIE RD. AREA",ABSENT,A,94
1154016.50992006,692839.849863887,98,07/19/94,NIANTIC RIVER,41,21.67099952,72,11.33399963,A,0, ,OSWEGATCHIE RD. AREA,ABSENT,A,94
1153994.25996456,692827.849887893,99,07/19/94,NIANTIC RIVER,41,21.66900062,72,11.33899974,L,0, ,OSWEGATCHIE RD. AREA,ABSENT,A,94
1154072.44714414,692822.412890896,100,07/19/94,NIANTIC RIVER,41,21.66799926,72,11.32199954,A,0, ,OSWEGATCHIE RD. AREA,ABSENT,A,94
1153275.64197922,692718.934095234,101,07/20/94,NIANTIC RIVER,41,21.64800071,72,11.52799987,L,0, ,"HARD BOTTOM; NEAR MT. TABOR",ABSENT,O,94
1154026.3868688,692688.675953642,102,07/19/94,NIANTIC RIVER,41,21.6459999,72,11.33199977,A,0, ,"STEEP SLOPE ENDS; OSWEGATCHIE RD. AREA",ABSENT,A,94
1153958.01397406,692554.797940567,103,07/19/94,NIANTIC RIVER,41,21.62400054,72,11.34700012,A,0, ,OSWEGATCHIE RD. AREA,ABSENT,A,94
1153321.45586397,692550.212975979,104,07/20/94,NIANTIC RIVER,41,21.62000083,72,11.51799964,A,0, ,"MUDDY SUBSTRATE; NEAR MT. TABOR",GRAC,O,94
1154050.64010113,692396.765120149,105,07/19/94,NIANTIC RIVER,41,21.59799957,72,11.32699966,A,0, ,OSWEGATCHIE RD. AREA,ULVA,A,94
1153562.39501464,692259.694856226,106,07/20/94,NIANTIC RIVER,41,21.5720005,72,11.4659996,A,0, ,"ROCK; ASCOPHYLLUM TO SHORE; NEAR MT. TABOR","ASCO,GRAC",O,94
1154094.14099839,692233.950157061,107,07/19/94,NIANTIC RIVER,41,21.57099914,72,11.31799983,A,0,1:45,OSWEGATCHIE RD. AREA,ULVA,A,94
1154077.20500864,692088.540999055,108,07/19/94,NIANTIC RIVER,41,21.54700088,72,11.32199954,A,0, ,OSWEGATCHIE RD. AREA,ABSENT,A,94
1154049.27002513,691917.850067481,109,07/19/94,NIANTIC RIVER,41,21.51899909,72,11.32800006,A,0, ,OSWEGATCHIE RD. AREA,ABSENT,A,94
1153740.34085298,691343.087109387,110,07/20/94,NIANTIC RIVER,41,21.42099952,72,11.42800045,A,2, ,"JELLYFISH; SOFT BOTTOM; NEAR MT. TABOR",ABSENT,O,94
1154259.46415855,691209.027994305,111,07/19/94,NIANTIC RIVER,41,21.40200042,72,11.28299999,P,1.29999995, ,"EEL; OSWEGATCHIE RD. AREA",ABSENT,A,94
1154056.46915773,690897.23891972,112,07/19/94,NIANTIC RIVER,41,21.34499931,72,11.34700012,P,0.69999998, ,OSWEGATCHIE RD. AREA,ABSENT,A,94
1153681.03388497,690846.014940813,113,07/20/94,NIANTIC RIVER,41,21.3390007,72,11.44200038,A,0, ,"STARFISH; NEAR MT. TABOR",GRAC,O,94
1154027.53187963,690806.847040147,114,07/19/94,NIANTIC RIVER,41,21.32999992,72,11.34500026,P,2.70000004, ,OSWEGATCHIE RD. AREA,ABSENT,A,94
1153748.79195155,690044.329864398,115,07/20/94,NIANTIC RIVER,41,21.20700073,72,11.42800045,A,0, ,NEAR MT. TABOR,GRAC,O,94
1154416.97696689,689864.662900895,116,07/19/94,NIANTIC RIVER,41,21.17200088,72,11.25,L,0,2:40,OSWEGATCHIE RD. AREA,ABSENT,A,94
1154539.29594797,689269.435088724,117,07/19/94,NIANTIC RIVER,41,21.0739994,72,11.22399997,P,0, ,OSWEGATCHIE RD. AREA,ABSENT,A,94
1154684.5469698,689085.21498473,118,07/19/94,NIANTIC RIVER,41,21.04800033,72,11.22500038,A,0, ,OSWEGATCHIE RD. AREA,ABSENT,O,94
1154670.92298131,688960.41602172,119,07/19/94,NIANTIC RIVER,41,21.02300071,72,11.19600009,A,0.69999998, ,OSWEGATCHIE RD. AREA,ABSENT,A,94
1157049.53403772,688761.251065731,120,07/19/94,NIANTIC RIVER,41,20.98800086,72,10.68200016,A,0, ,10` FROM NIANTIC R. RD. SHORE,"ASCO,GRAC",A,94
1154840.04993963,688724.303961143,121,07/19/94,NIANTIC RIVER,41,20.98399925,72,11.15900039,A,0, ,OSWEGATCHIE RD. AREA,"AGAR,GRAC",A,94
1153869.49413797,688654.400885731,122,07/20/94,NIANTIC RIVER,41,20.97800064,72,11.40400028,A,0, ,NEAR MT. TABOR,GRAC,O,94
1154805.67697689,688512.050120562,123,07/19/94,NIANTIC RIVER,41,20.9489994,72,11.16699981,L,0, ,OSWEGATCHIE RD. AREA,ABSENT,A,94
1154750.67905539,688384.187843472,124,07/19/94,NIANTIC RIVER,41,20.92799949,72,11.1789999,A,0, ,OSWEGATCHIE RD. AREA,ABSENT,A,94
1154841.80485739,688272.264838979,125,07/19/94,NIANTIC RIVER,41,20.91399955,72,11.19200038,A,0, ,OSWEGATCHIE RD. AREA,ABSENT,O,94
1154828.61689164,688235.123837143,126,07/19/94,NIANTIC RIVER,41,20.90800094,72,11.19499969,A,0, ,OSWEGATCHIE RD. AREA,ABSENT,O,94
1154656.80785206,688044.055977806,127,07/19/94,NIANTIC RIVER,41,20.87199974,72,11.1999998,L,0, ,"ONE CLUMP; OSWEGATCHIE RD. AREA",ABSENT,A,94
1154625.87189031,687988.992111564,128,07/19/94,NIANTIC RIVER,41,20.86300086,72,11.20699977,P,0, ,"SEVERAL CLUMPS; OSWEGATCHIE RD. AREA",ABSENT,A,94
1153988.00111881,687962.766114146,129,07/20/94,NIANTIC RIVER,41,20.86400032,72,11.37899971,A,0, ,NEAR MT. TABOR,ABSENT,O,94
1154015.0640568,687919.952879563,130,07/20/94,NIANTIC RIVER,41,20.85700035,72,11.37300014,A,0, ,NEAR MT. TABOR,SARG,O,94
1156228.29913163,687914.040161729,131,07/19/94,NIANTIC RIVER,41,20.86000061,72,10.85999965,A,0, ,"ONE CRAB; NIANTIC R. RD. AREA","AGAR,GRAC",A,94
1155870.92911147,687743.782956317,132,07/19/94,NIANTIC RIVER,41,20.82600021,72,10.96800041,P,0, ,"QUOHOG; SCALLOPS; NIANTIC RIVER RD. AREA",ABSENT,O,94
1155613.99294555,687736.155018806,133,07/19/94,NIANTIC RIVER,41,20.82500076,72,11.02400016,A,0, ,SANDY POINT,ABSENT,O,94
1215810.52084622,687558.305965066,134,07/21/93,MYSTIC HARBOR,41,20.71800041,71,57.87099838,L,0, , VERY SPARSE,"GRAC,POLY",O,93
1154673.00204539,687431.999131054,135,07/19/94,NIANTIC RIVER,41,20.77599906,72,11.22999954,M,0, ,"CLUMPS; OSWEGATCHIE RD. AREA",ABSENT,O,94
1155898.87492172,686894.409983143,136,07/19/94,NIANTIC RIVER,41,20.68600082,72,10.96300029,A,0, ,NIANTIC RIVER RD. AREA,ASCO,O,94
1154141.01295188,686761.341023564,137,07/20/94,NIANTIC RIVER,41,20.66600036,72,11.34700012,A,0, ,NEAR MT. TABOR,ABSENT,O,94
1229424.03692622,686465.917073727,138,07/21/93,STONINGTON HARBOR,41,20.51700019,71,54.89899826,P,0, , ,ABSENT,O,93
1155135.13891639,686130.278965473,139,07/20/94,NIANTIC RIVER,41,20.56100082,72,11.13099956,L,0, ,"ONE EELGRASS SHORT SHOOT; NEAR SAUNDERS PT.",ABSENT,O,94
1213553.34491439,686071.650145724,140,07/21/93,PINE POINT,41,20.46999931,71,58.36299896,L,0, , SPARSE,ABSENT,A,93
1155189.76511948,685977.933141559,141,07/20/94,NIANTIC RIVER,41,20.53599929,72,11.11900043,A,0, ,NEAR SAUNDERS PT.,"AGAR,GRAC",O,94
1157909.37286922,685895.040918887,142,07/19/94,NIANTIC RIVER,41,20.51899909,72,10.47700023,A,0, ,NIANTIC RIVER RD. AREA,ABSENT,A,94
1230619.48991589,685796.957125559,143,07/21/93,STONINGTON HARBOR,41,20.40500068,71,54.63899993,A,1.5, , SAND,ABSENT,O,93
1237789.27708547,685563.833904147,144,07/21/93,WEST OF RANDALL NESK,41,20.35499954,71,53.07300186,A,0, , ,CLAD,O,93
1155410.08193606,685433.754111812,145,07/20/94,NIANTIC RIVER,41,20.44599914,72,11.07199954,P,2, ,NEAR SAUNDERS PT.,ABSENT,O,94
1155390.2069758,685402.488098234,146,07/20/94,NIANTIC RIVER,41,20.44099998,72,11.07600021,P,0, ,NEAR SAUNDERS PT.,ABSENT,O,94
1155414.89491856,685384.863133475,147,07/20/94,NIANTIC RIVER,41,20.43799972,72,11.07100009,P,0, ,"PATCH; NW CORNER; NEAR SAUNDERS PT.",ABSENT,O,94
1155403.8329328,685366.986856893,148,07/20/94,NIANTIC RIVER,41,20.43499946,72,11.07299995,P,0, ,NEAR SAUNDERS PT.,ABSENT,O,94
1229553.18004064,685361.079060316,149,07/21/93,STONINGTON HARBOR,41,20.33499908,71,54.87300109,H,0, , SAND,ABSENT,O,93
1229529.24701764,685062.841139734,150,07/21/93,STONINGTON HARBOR,41,20.28599929,71,54.87900161,P,0.89999997, , ,ABSENT,O,93
1158191.94415447,684996.998095557,151,07/19/94,NIANTIC RIVER,41,20.36700057,72,10.43799972,A,0, ,NIANTIC RIVER RD. AREA,ABSENT,A,94
1240633.48694822,684992.053879723,152,07/21/93,RANDALL NECK,41,20.25600051,71,52.45299911,L,0, , VERY PATCHY,"AGAR,CERA,CLAD,ENTE",O,93
1155462.58708039,684929.995932981,153,07/20/94,NIANTIC RIVER,41,20.36300086,72,11.06099987,P,0, ,"WESTEDGE; NEAR SAUNDERS PT.",ABSENT,O,94
1155431.58812664,684886.79195115,154,07/20/94,NIANTIC RIVER,41,20.3560009,72,11.06799983,A,0, ,NEAR SAUNDERS PT.,ABSENT,O,94
1223287.53410739,684761.55007565,155,07/21/93,NEAR QUIAMBOG COVE,41,20.24600028,71,56.24300003,A,0.60000002, , ,"AGAR,ENTE,POLY",O,93
1155345.46493931,684723.146937221,156,07/20/94,NIANTIC RIVER,41,20.32900047,72,11.08699989,P,0, ,"SAUNDERS PT; MUD/SAND",ABSENT,O,94
1155185.21690021,684624.238014311,157,07/20/94,NIANTIC RIVER,41,20.31299972,72,11.12199974,P,0, ,"SMITH COVE; NW EDGE",ABSENT,O,94
1155167.34193598,684624.1281064,158,07/20/94,NIANTIC RIVER,41,20.31299972,72,11.1260004,A,0, ,"TOO SHALLOW TO SHORE; SMITH COVE",ABSENT,O,94
1154907.15905739,684422.262040317,159,07/20/94,NIANTIC RIVER,41,20.28000068,72,11.18299961,M,0, ,"MARKER 4 OUTSIDE CHANNEL; SMITH COVE",ABSENT,O,94
1154876.03411964,684396.854938895,160,07/20/94,NIANTIC RIVER,41,20.27599906,72,11.18999958,M,2, ,SMITH COVE,ABSENT,O,94
1154486.97485839,684360.975089386,161,07/20/94,NIANTIC RIVER,41,20.28199958,72,11.27499961,L,0, ,"2-3 SHOOTS/M2; SMITH COVE",ABSENT,A,94
1154757.84800431,684354.571886972,162,07/20/94,NIANTIC RIVER,41,20.26899909,72,11.2159996,M,0, ,SMITH COVE,ABSENT,O,94
1239935.93191288,684353.351088896,163,07/21/93,RANDALL NECK,41,20.15200042,71,52.60699844,A,0, , SAND,"CLAD,POLY",O,93
1229509.69587564,684310.926961139,164,07/21/93,STONINGTON HARBOR,41,20.16200065,71,54.88499832,P,0, , ,ABSENT,O,93
1154711.28608955,684305.336093053,165,07/20/94,NIANTIC RIVER,41,20.26099967,72,11.22599983,A,0, ,"ROCKS; OUTSIDE SMITH COVE",ASCO,O,94
1153852.04404163,684117.385025397,166,07/20/94,NIANTIC RIVER,41,20.2310009,72,11.41399955,A,0, ,"SMITH COVE; CAN'T SEE BOTTOM",ABSENT,O,94
1153812.04412164,684081.539952725,167,07/20/94,NIANTIC RIVER,41,20.22500038,72,11.42300033,A,0, ,SMITH COVE,"AGAR,GRAC",O,94
1223263.29596689,684014.058132306,168,07/21/93,NEAR QUIAMBOG COVE,41,20.12299919,71,56.25,P,2.40000009, , ,ABSENT,O,93
1155611.90896022,683971.699949309,169,07/20/94,NIANTIC RIVER,41,20.20499992,72,11.02999973,A,0, ,"SCALLOP; NEAR PINE GROVE",ABSENT,O,94
1157942.33310513,683884.834965557,170,07/19/94,NIANTIC RIVER,41,20.18400001,72,10.49400043,A,0, ,NIANTIC RIVER RD. AREA,ABSENT,A,94
1223278.04790589,683868.899958059,171,07/21/93,NEAR QUIAMBOG COVE,41,20.09900093,71,56.24700164,A,0, , ,ABSENT,O,93
1233513.91096431,683736.19484289,172,07/21/93,EDWARDS POINT,41,20.06100082,71,54.01100158,H,0, , ,ABSENT,O,93
1223306.73813722,683673.461044475,173,07/21/93,NEAR QUIAMBOG COVE,41,20.06699943,71,56.24100112,A,3.0999999, , ,ABSENT,O,93
1155681.22509456,683625.225904733,174,07/20/94,NIANTIC RIVER,41,20.14800071,72,11.01500034,A,0, ,NEAR PINE GROVE,ABSENT,O,94
1229409.20591913,683611.621929303,175,07/21/93,STONINGTON HARBOR,41,20.04700088,71,54.90800094,H,0, , ,ABSENT,O,93
1156021.09810247,683597.807980567,176,07/20/94,NIANTIC RIVER,41,20.14299964,72,10.94099998,P,0, ,"SCALLOPS; CLEANEST WATER; NEAR PINE GROVE",ABSENT,O,94
1155951.84889714,683591.415932983,177,07/20/94,NIANTIC RIVER,41,20.14200019,72,10.95600032,M,0,12:20,"96-224 SHORT SHOOTS/M2; NEAR PINE GROVE",ABSENT,O,94
1155710.53802806,683589.834899396,178,07/20/94,NIANTIC RIVER,41,20.14200019,72,11.00899982,A,0, ,"SCALLOP; NEAR PINE GROVE",GRAC,O,94
1155855.85007338,683577.44614464,179,07/20/94,NIANTIC RIVER,41,20.13999938,72,10.97700023,L,0, ,"1 SHORT SHOOT/M2; NEAR PINE GROVE",ABSENT,O,94
1155898.34900413,683571.790972233,180,07/20/94,NIANTIC RIVER,41,20.13899993,72,10.96800041,P,0, ,"ONE ""HELL OF AN EEL""; NEAR PINE GROVE",ABSENT,O,94
1155815.66216163,683571.243073061,181,07/20/94,NIANTIC RIVER,41,20.13899993,72,10.98600006,L,0, ,"2 SHORT SHOOTS; NEAR PINE GROVE",GRAC,O,94
1156117.59790947,683537.651932895,182,07/20/94,NIANTIC RIVER,41,20.13299942,72,10.92000007,P,0, ,NEAR PINE GROVE,ABSENT,O,94
1156021.59908572,683525.150973648,183,07/20/94,NIANTIC RIVER,41,20.13100051,72,10.94099998,P,0, ,"MOORING; VERY FOGGY; NEAR PINE GROVE",ABSENT,O,94
1155952.41188814,683511.35310097,184,07/20/94,NIANTIC RIVER,41,20.12899971,72,10.95600032,M,0, ,NEAR PINE GROVE,ABSENT,O,94
1156167.0361308,683500.902006388,185,07/20/94,NIANTIC RIVER,41,20.1270008,72,10.90900039,P,0, ,"EDGE; NEAR PINE GROVE",AGAR,O,94
1212995.50383846,683500.006010816,186,07/21/93,CLAM POINT,41,20.05400085,71,58.49399948,L,1.5, , SPARSE CLUMPS,ABSENT,O,93
1233953.3569358,683375.791036144,187,07/21/93,EDWARDS POINT,41,20.00099945,71,53.91600036,H,1.79999995, , ,ABSENT,O,93
1155839.35207489,683365.317959979,188,07/20/94,NIANTIC RIVER,41,20.10499954,72,10.98099994,A,0, ,"SCALLOPS; NEAR PINE GROVE",ABSENT,O,94
1155774.78986806,683335.23796764,189,07/20/94,NIANTIC RIVER,41,20.10000038,72,10.99499988,L,0, ,NEAR PINE GROVE,ABSENT,O,94
1226544.01184639,683121.484130055,190,07/21/93,LORD S PT.,41,19.97100067,71,55.53499984,P,1.20000004, , ,ABSENT,O,93
1155968.60411297,683087.424158812,191,07/20/94,NIANTIC RIVER,41,20.05900001,72,10.95300006,P,0, ,"ONE SCALLOP; NEAR PINE GROVE",ABSENT,O,94
1157776.77995856,683080.117086813,192,07/19/94,NIANTIC RIVER,41,20.05599975,72,10.55799961,A,0, ,NIANTIC RIVER RD. AREA,ABSENT,O,94
1157821.34614238,682764.612140387,193,07/19/94,NIANTIC RIVER,41,20.00399971,72,10.54899978,A,0, ,"MUDDY SUBSTRATE; NIANTIC RIVER RD. AREA",ABSENT,O,94
1155944.10809897,682734.40189898,194,07/20/94,NIANTIC RIVER,41,20.00099945,72,10.95899963,A,0, ,"ONE SCALLOP; NEAR PINE GROVE",ABSENT,O,94
1156085.04515305,682711.606012806,195,07/20/94,NIANTIC RIVER,41,19.99699974,72,10.92800045,L,0, ,"CRABS; SCALLOPS; MUD; NEAR STATE MILITARY CAMP",ABSENT,O,94
1156000.23298672,682691.760908142,196,07/20/94,NIANTIC RIVER,41,19.99399948,72,10.94699954,L,0, ,"A FEW SHORT SHOOTS; NEAR STATE MILITARY CAMP",ABSENT,O,94
1229351.65911822,682626.563860059,197,07/21/93,STONINGTON HARBOR,41,19.88500022,71,54.92300033,A,0, , ,"ASCO,CODI,RHOD,LAMI",O,93
1235679.25505881,682439.523879811,198,07/21/93,SANDY POINT,41,19.84399986,71,53.54100036,A,0, , ,ABSENT,O,93
1236307.57105939,682422.062956721,199,07/21/93,SANDY POINT,41,19.84000015,71,53.40399932,A,0, ," SAND; DETRITUS",ABSENT,O,93
1155942.17503197,682345.925969899,200,07/20/94,NIANTIC RIVER,41,19.93700027,72,10.96000003,L,0, ,"SHORT SHOOTS VERY SPOTTY; NEAR STATE MILITARY CAMP",ABSENT,O,94
1155982.48695922,682334.333145306,201,07/20/94,NIANTIC RIVER,41,19.93499946,72,10.95100021,L,0, ,"A FEW SHORT SHOOTS; NEAR STATE MILITARY CAMP",ABSENT,O,94
1157480.22805822,682301.24101989,202,07/19/94,NIANTIC RIVER,41,19.92799949,72,10.62399959,L,0, ,"ONE EELGRASS SHORT SHOOT; NIANTIC RIVER RD. AREA",ABSENT,O,94
1156301.11296239,682148.130105644,203,07/20/94,NIANTIC RIVER,41,19.90399932,72,10.88199996,L,0, ,"SHORT SHOOTS VERY SPOTTY; NEAR STATE MILITARY CAMP",ABSENT,O,94
1212372.9591518,682128.889986649,204,07/21/93,SOUTH OF CLAM POINT,41,19.82900047,71,58.63299942,A,0, , SAND,ABSENT,O,93
1180627.21293214,682028.902981892,205,08/30/93,MOUTH OF THAMES R.,41,19.8560009,72,5.56799983,A,3.0999999, , SILT,ABSENT,O,93
1210552.76495755,681959.940849483,206,07/21/93,NEAR BEEBE COVE,41,19.80400085,71,59.03099822,L,2.0999999, , SILT,"CLAD,ENTE,GRAC",O,93
1156110.11596905,681958.577991307,207,07/20/94,NIANTIC RIVER,41,19.87299919,72,10.92399978,A,0,2:24,NEAR STATE MILITARY CAMP,ABSENT,O,94
1156255.61502188,681934.329024062,208,07/20/94,NIANTIC RIVER,41,19.86899948,72,10.89200019,L,0, ,NEAR STATE MILITARY CAMP,ABSENT,O,94
1157355.60888489,681880.825850233,209,07/19/94,NIANTIC RIVER,41,19.85899925,72,10.65200042,H,0, , NIANTIC RIVER RD. AREA,ABSENT,O,94
1157369.23385763,681857.185149476,210,07/19/94,NIANTIC RIVER,41,19.85499954,72,10.64900016,A,0, ,"CHECK POINT; NIANTIC RIVER RD. AREA",ABSENT,O,94
1241686.91889647,681850.584112808,211,07/21/93,BARN IS.,41,19.73699951,71,52.22999954,A,0, ," SAND; ROCK","AGAR,ASCO,POLY",O,93
1156086.6799923,681787.918883815,212,07/20/94,NIANTIC RIVER,41,19.84499931,72,10.9289999,L,0, ,NEAR STATE MILITARY CAMP,ABSENT,O,94
1246943.3211133,681746.092851982,213,07/21/93,PAWCATUCK RIVER,41,19.71100044,71,51.08200073,A,0, , ,"GRAC,POLY,ULVA",O,93
1157374.48515947,681735.651927978,214,07/19/94,NIANTIC RIVER,41,19.83499908,72,10.64799976,L,0, , NIANTIC RIVER RD. AREA,ABSENT,O,94
1157388.04812448,681712.010899141,215,07/19/94,NIANTIC RIVER,41,19.83099937,72,10.64500045,L,0, , NIANTIC RIVER RD. AREA,ABSENT,O,94
1217339.05092564,681711.296989813,216,07/21/93,MASON IS. - ANDREWS IS.,41,19.75300025,71,57.54899978,M,2.70000004, , ,ABSENT,O,93
1157406.11108047,681680.994885057,217,07/19/94,NIANTIC RIVER,41,19.82600021,72,10.64099979,L,0, , NIANTIC RIVER RD. AREA,ABSENT,O,94
1157415.11106247,681675.135972887,218,07/19/94,NIANTIC RIVER,41,19.82500076,72,10.63899993,L,0, , NIANTIC RIVER RD. AREA,ABSENT,O,94
1181005.46512839,681667.044125557,219,08/30/93,MOUTH OF THAMES R.,41,19.79599952,72,5.48600006,A,0, , ,ABSENT,O,93
1157428.67304322,681657.431940064,220,07/19/94,NIANTIC RIVER,41,19.8220005,72,10.63599967,L,0, , NIANTIC RIVER RD. AREA,ABSENT,O,94
1157448.86099496,681639.776135474,221,07/19/94,NIANTIC RIVER,41,19.81900024,72,10.63199996,L,0, , NIANTIC RIVER RD. AREA,ABSENT,O,94
1157475.86094098,681614.745017558,222,07/19/94,NIANTIC RIVER,41,19.81500053,72,10.6260004,L,0, , NIANTIC RIVER RD. AREA,ABSENT,O,94
1155868.93403672,681592.255889311,223,07/20/94,NIANTIC RIVER,41,19.81299972,72,10.97700023,L,0, ,NEAR STATE MILITARY CAMP,ABSENT,O,94
1157484.98592272,681591.087912649,224,07/19/94,NIANTIC RIVER,41,19.81100082,72,10.62399959,L,0, , NIANTIC RIVER RD. AREA,ABSENT,O,94
1181019.52809238,681582.651905894,225,08/30/93,MOUTH OF THAMES R.,41,19.78199958,72,5.4829998,L,2.0999999, , VERY SPARSE,ABSENT,O,93
1226592.97500305,681501.389929309,226,07/21/93,WEST OF WAMPHASSUC POINT,41,19.70400047,71,55.52799987,P,0, , ,ABSENT,O,93
1157633.4249303,681446.774881065,227,07/19/94,NIANTIC RIVER,41,19.78700065,72,10.592,L,0,11:47,NIANTIC RIVER RD AREA,ABSENT,O,94
1211995.21712513,681378.235976145,228,07/21/93,RAM POINT,41,19.70599937,71,58.71699905,A,0, , ,ABSENT,O,93
1157743.61204588,681349.650075316,229,07/19/94,NIANTIC RIVER,41,19.7709999,72,10.56799983,L,0,11:45,NIANTIC RIVER RD AREA,ABSENT,O,94
1181296.53016305,681311.948050976,230,08/30/93,MOUTH OF THAMES R.,41,19.73699951,72,5.42299985,A,0, , ,ABSENT,O,93
1219558.25613289,681276.557045639,231,07/21/93,DODGES IS.,41,19.67799949,71,57.06499862,M,2.0999999, , ,ABSENT,O,93
1156787.93285489,681198.010942891,232,07/20/94,NIANTIC RIVER,41,19.74699974,72,10.77700042,P,0, ,NEAR MT. TABOR,ABSENT,O,94
1155615.31610563,681068.712973148,233,07/20/94,NIANTIC RIVER,41,19.72699928,72,11.03299999,A,0, ,NEAR STATE MILITARY CAMP,ABSENT,O,94
1232478.51113223,681060.185103059,234,07/21/93,STONINGTON PT.,41,19.62199974,71,54.24300003,A,0, , ,ABSENT,O,93
1157025.93303506,681035.010940805,235,07/20/94,NIANTIC RIVER,41,19.71999931,72,10.72500038,P,0, ,NEAR MT. TABOR,ABSENT,O,94
1232503.44907448,681023.356108472,236,07/21/93,STONINGTON PT.,41,19.61599922,71,54.23799896,P,0, , ,ABSENT,O,93
1155671.75398488,680983.08716014,237,07/20/94,NIANTIC RIVER,41,19.71299934,72,11.0209999,A,0, ,NEAR STATE MILITARY CAMP,ABSENT,O,94
1231744.0089923,680961.063910231,238,07/21/93,STONINGTON PT.,41,19.60700035,71,54.40399932,A,0, , ,"CHAM,LAMI,PHYL",O,93
1155654.06701238,680953.321143553,239,07/20/94,NIANTIC RIVER,41,19.70800018,72,11.02499961,L,0, ,NEAR STATE MILITARY CAMP,ABSENT,O,94
1155616.19307239,680929.351047143,240,07/20/94,NIANTIC RIVER,41,19.70400047,72,11.03299999,H,0, ,"BAND OF EELGRASS; NEAR RTE. 156",ABSENT,O,94
1156262.25116347,680920.250015482,241,07/20/94,NIANTIC RIVER,41,19.70199966,72,10.89200019,A,0,1:30,NEAR STATE MILITARY CAMP,GRAC,O,94
1228718.68400621,680816.036969304,242,07/21/93,STONINGTON BREAKWATER,41,19.58799934,71,55.06499862,M,0, , EDGE OF BED,ABSENT,O,93
1227867.36812356,680778.197149977,243,07/21/93,WAMPHASSUC PT.,41,19.58300018,71,55.25099945,H,0, , ,ABSENT,O,93
1228654.55913447,680742.770055473,244,07/21/93,WAMPHASSUC PT.,41,19.57600021,71,55.07899856,L,3.0999999, ," ROCK SPOTTY;  EDGE OF BED","ASCO,FUCU,LAMI,ULVA",O,93
1158103.24190405,680720.440047637,245,07/19/94,NIANTIC RIVER,41,19.66699981,72,10.48999977,L,0, ,NIANTIC RIVER RD AREA,ABSENT,O,94
1228004.36916189,680712.792097062,246,07/21/93,WAMPHASSUC PT.,41,19.5720005,71,55.22100067,H,2.0999999, , ,ABSENT,O,93
1211981.35199539,680679.77510272,247,07/21/93,SOUTH OF RAM POINT,41,19.5909996,71,58.72100067,M,1.79999995, , LARGE PATCHES,ABSENT,O,93
1245736.89701697,680603.752945065,248,07/21/93,PAWCATUCK RIVER,41,19.52499961,71,51.34799957,A,0, , ROCK,"CHON,FUCU,GRAC,POLY,ULVA",O,93
1228651.31209372,680567.018110394,249,07/21/93,STONINGTON BREAKWATER,41,19.55599975,71,55.08000183,P,4, , ,ABSENT,A,93
1181512.47592539,680548.565063313,250,08/30/93,MOUTH OF THAMES R.,41,19.61100006,72,5.37699985,L,0, , ISOLATED SHORT SHOOTS,ABSENT,O,93
1227621.55693538,680538.596907392,251,07/21/93,WAMPHASSUC PT.,41,19.54400062,71,55.3050003,P,3.20000004, , ,ABSENT,O,93
1229669.38092372,680516.827922061,252,07/21/93,STONINGTON BREAKWATER,41,19.53700065,71,54.8580017,A,0, , ,ABSENT,O,93
1228507.12504613,680505.609112471,253,07/21/93,STONINGTON BREAKWATER,41,19.53700065,71,55.11199951,P,0, , PATCHY TO CONTINUOUS,ABSENT,O,93
1228516.18802014,680492.343062893,254,07/21/93,STONINGTON BREAKWATER,41,19.53499984,71,55.11000061,P,0, , EDGE OF BED,ABSENT,O,93
1228818.62803206,680422.611903146,255,07/21/93,STONINGTON BREAKWATER,41,19.52300071,71,55.04399871,A,7.5999999, , ,ABSENT,O,93
1157920.37284721,680318.899840221,256,10/25/94,NIANTIC RIVER,41,19.60099983,72,10.53100013,A,0, ,DOCK,ABSENT,O,94
1157920.37284721,680312.977936059,257,10/18/94,NIANTIC RIVER,41,19.60000038,72,10.53100013,A,0,0,"DOCK; NIANTIC RIVER",ABSENT,O,94
1157855.68596873,680293.273907229,258,07/19/94,NIANTIC RIVER,41,19.59700012,72,10.54500007,A,0, ,NIANTIC RIVER RD. AREA,ABSENT,O,94
1157846.87397847,680275.414034814,259,07/20/94,NIANTIC RIVER,41,19.59399986,72,10.54699993,A,0,10:45,"THICK FOG; NEAR MT. TABOR",ABSENT,O,94
1225142.73708989,680271.778871477,260,07/21/93,STONINGTON BREAKWATER,41,19.50399971,71,55.84700012,A,0, , ,ABSENT,O,93
1157905.06086998,680263.945881888,261,07/20/94,NIANTIC RIVER,41,19.59199905,72,10.53400039,A,0, ,"STATE DOCK; NIANTIC RIVER RD. AREA",ABSENT,O,94
1157860.37395146,680263.648966476,262,11/03/94,NIANTIC RIVER,41,19.59199905,72,10.54399967,A,0,10:46,"HIGH TIDE: 0823;LOW TIDE: 1516",ABSENT,O,94
1157864.87394246,680257.742154136,263,07/19/94,NIANTIC RIVER DOCK,41,19.5909996,72,10.54300022,A,0,11:12,NEAR NIANTIC RIVER RD.,ABSENT,O,94
1228536.62892413,680225.669055566,264,07/21/93,STONINGTON BREAKWATER,41,19.49099922,71,55.10599899,P,3.29999995, , EDGE OF BED,ABSENT,O,93
1228449.69209014,680201.105128303,265,07/21/93,STONINGTON BREAKWATER,41,19.48699951,71,55.125,H,3.70000004, , EDGE OF BED,ABSENT,O,93
1181712.23011905,680148.297163054,266,08/30/93,MOUTH OF THAMES R.,41,19.54500007,72,5.33400011,L,0, ,"TWO SHORT SHOOTS, SECCHI 1.6, TEMP 23.5",ABSENT,O,93
1155838.32484597,680122.762109146,267,07/20/94,NIANTIC RIVER,41,19.57099914,72,10.98600006,L,0, ,"PATCHES; NEAR RTE. 156",ABSENT,O,94
1155874.2001023,680111.137132391,268,07/20/94,NIANTIC RIVER,41,19.56900024,72,10.97799968,L,0, ,"PATCHES; NEAR RTE. 156",ABSENT,O,94
1155878.82509306,680085.964938641,269,07/20/94,NIANTIC RIVER,41,19.56500053,72,10.97700023,M,0, ,"ONE CLUMP/M2; NEAR RTE. 156",ABSENT,O,94
1155888.0760588,680037.089052141,270,07/20/94,NIANTIC RIVER,41,19.5569992,72,10.97500038,P,0, ,NEAR RTE. 156,ABSENT,O,94
1155997.6998553,680020.028062642,271,07/20/94,NIANTIC RIVER,41,19.55400085,72,10.95100021,P,0, ,"""BETTER"" PLANTS; NEAR RTE. 156",ABSENT,O,94
1155910.63900581,680001.666878894,272,07/20/94,NIANTIC RIVER,41,19.55100059,72,10.97000026,P,0, ,"TALLER PLANTS; NEAR RTE. 156",ABSENT,O,94
1156011.88913138,679904.463989317,273,07/20/94,NIANTIC RIVER,41,19.53499984,72,10.94799995,A,0, ,NEAR RTE. 156,ABSENT,O,94
1244031.77509914,679901.144114062,274,07/21/93,PAWCATUCK PT.,41,19.41200065,71,51.72200012,A,0, , SAND,ABSENT,O,93
1156072.32601839,679893.010928228,275,07/20/94,NIANTIC RIVER,41,19.53300094,72,10.93500041,L,0, ,"PATCHY; NEAR RTE. 156",ABSENT,O,94
1156146.26386264,679869.777050808,276,07/20/94,NIANTIC RIVER,41,19.52899932,72,10.91899967,P,0, ,NEAR RTE. 156,ABSENT,O,94
1156434.6989813,679859.811847642,277,07/20/94,NIANTIC RIVER,41,19.52700042,72,10.85599994,P,0, ,"PATCHY; NEAR RTE. 156",ABSENT,O,94
1156365.45010406,679851.935879141,278,07/20/94,NIANTIC RIVER,41,19.52599906,72,10.87100028,M,0, ,"PATCHY; NEAR RTE. 156",ABSENT,O,94
1156246.95099722,679851.1691484,279,07/20/94,NIANTIC RIVER,41,19.52599906,72,10.89700031,L,0, ,"PATCHY; NEAR RTE. 156",ABSENT,O,94
1185032.08798064,679822.254836142,280,08/30/93,10 FT OFF PIER,41,19.50600051,72,4.5999999,A,0, ," SILT; ROCK",LAMI,A,93
1156557.88705514,679817.624924138,281,07/20/94,NIANTIC RIVER,41,19.52000045,72,10.82900047,P,0, ,"PATCHY; NEAR RTE. 156",ABSENT,O,94
1156613.94895089,679794.282123059,282,07/20/94,NIANTIC RIVER,41,19.51600074,72,10.81700038,L,0, ,"LITTLE PATCH; NEAR RTE. 156",ABSENT,O,94
1181802.23387605,679785.729974806,283,08/30/93,MOUTH OF THAMES R.,41,19.48500061,72,5.31500005,L,2.70000004,2:30,SAL 29.5,ABSENT,O,93
1181789.4848858,679699.635002643,284,08/25/93,MOUTH OF THAMES R.,41,19.47100067,72,5.31799983,P,0, , ONE SMALL PATCH,ABSENT,O,93
1157187.38513997,679615.708005145,285,07/20/94,NIANTIC RIVER,41,19.48600006,72,10.69200038,A,0, ,NEAR RTE. 156,GRAC,O,94
1200392.49984506,679449.235897139,286,08/23/93,MUMFORD COVE,41,19.40500068,72,1.25499999,A,0.80000001, , ,ABSENT,O,93
1181908.86194363,679421.882933483,287,08/30/93,MOUTH OF THAMES R.,41,19.42600059,72,5.42399978,L,2.40000009, , NARROW BAND,ABSENT,A,93
1211262.43086106,679331.548140392,288,07/21/93,UCONN/NOANK - MASON IS,41,19.37000083,71,58.88100051,M,1.79999995, ," SILT; DETRITUS",ABSENT,O,93
1185010.53487414,679141.870042056,289,08/30/93,MOUTH OF THAMES R.,41,19.375,72,4.61499977,A,0, , SAND,LAMI,O,93
1201017.37687613,679040.847934395,290,08/23/93,MUMFORD COVE,41,19.33699989,72,1.11899995,A,2.0999999, , SILT,ABSENT,O,93
1227391.39400989,678896.562133729,291,07/21/93,NOYES ROCK,41,19.27400016,71,55.35900115,A,0, , ,"CHOR,DESM,LAMI,PALM",O,93
1155851.40191956,678810.708958983,292,10/18/94,NIANTIC BAY,41,19.35499954,72,10.98499965,A,2.29999995,0, ,ABSENT,O,94
1156030.46389739,678782.226076305,293,10/18/94,NIANTIC BAY,41,19.35000038,72,10.94600009,A,2.29999995,1:39, ,ABSENT,O,94
1153442.66789189,678649.691892564,294,10/18/94,NIANTIC BAY,41,19.33099937,72,11.51099967,L,2.29999995,0,JUST EAST OF FISH NET,ABSENT,O,94
1201237.9440203,678605.345852643,295,08/23/93,MUMFORD COVE,41,19.26499938,72,1.07200002,P,0.89999997, , ,ABSENT,O,93
1153288.79484005,678593.844891399,296,10/18/94,NIANTIC BAY,41,19.3220005,72,11.54500007,M,3,0,EELGRASS EDGE WEST OF NET,ABSENT,O,94
1153123.5461548,678561.638919055,297,10/18/94,NIANTIC BAY,41,19.31699943,72,11.58100032,H,1,0,S. OF RR TO W. OF FISHNET TRAP,ABSENT,O,94
1153329.54607089,678509.59407565,298,10/18/94,NIANTIC BAY,41,19.30800056,72,11.53600025,A,2.29999995,0,JUST EAST OF FISH NET,ABSENT,O,94
1152987.61007497,678494.042925641,299,10/18/94,NIANTIC BAY,41,19.30599975,72,11.61100006,H,1.29999995,0,S. OF RR TO W. OF FISHNET TRAP,ABSENT,O,94
1153106.42315756,678447.372087225,300,10/18/94,NIANTIC BAY,41,19.29800033,72,11.58500003,H,2,0,S. OF RR TO W. OF FISHNET TRAP,ABSENT,O,94
1152887.92490689,678354.038940564,301,10/18/94,NIANTIC BAY,41,19.28300094,72,11.63300037,H,0,0,S. OF RR TO W. OF FISHNET TRAP,ABSENT,O,94
1233115.74509397,678314.586919725,302,07/21/93,STONINGTON BREAKWATER,41,19.16900062,71,54.11000061,A,4.5999999, , ,ABSENT,O,93
1233265.62110655,678304.199145228,303,07/21/93,STONINGTON BREAKWATER,41,19.16699981,71,54.07699966,P,2.40000009, , EDGE OF BED,ABSENT,O,93
1152776.55111389,678292.521018982,304,10/18/94,NIANTIC BAY,41,19.27300071,72,11.65699958,H,1.29999995,0,S. OF RR TO W. OF FISHNET TRAP,ABSENT,O,94
1208375.74306488,678288.902915969,305,08/23/93,WEST COVE,41,19.20800018,71,59.50099945,A,0, ," SAND;  COBBLES","ASCO,FUCU",O,93
1152667.36498055,678242.894149721,306,10/18/94,NIANTIC BAY,41,19.26499938,72,11.68099975,H,1.29999995,0,S. OF RR TO W. OF FISHNET TRAP,ABSENT,O,94
1153085.42483997,678239.665153563,307,10/18/94,NIANTIC BAY,41,19.26399993,72,11.59000015,L,2.70000004,0,EDGE OF BED S. OF RR. W. OF FISHNET TRAP,ABSENT,O,94
1152558.11585522,678194.750873312,308,10/18/94,NIANTIC BAY,41,19.25699996,72,11.70499992,M,1.29999995,0,CLUMPS S. OF RR W. OF FISHNET TRAP,ABSENT,O,94
1153148.42504205,678173.351965979,309,10/18/94,NIANTIC BAY,41,19.25300025,72,11.57600021,L,3.29999995,0,S. OF RR TO W. OF FISHNET TRAP,ABSENT,O,94
1152466.80501422,678139.295931727,310,10/18/94,NIANTIC BAY,41,19.24799919,72,11.72500038,M,1.70000004,0,"EELGRASS CLUMPS; CRESCENT BEACH",ABSENT,O,94
1207906.36801939,678117.253981054,311,08/23/93,WEST COVE,41,19.17499923,71,59.61600112,A,2.0999999, ," SILT;  DETRITUS",ABSENT,O,93
1181985.12885147,678086.536850899,312,08/25/93,MOUTH OF THAMES R.,41,19.20499992,72,5.27799987,L,2.70000004, , THIN PATCHES,ABSENT,O,93
1232908.06014189,678063.456844553,313,07/21/93,STONINGTON BREAKWATER,41,19.12800025,71,54.15599822,H,2.0999999, , ,ABSENT,O,93
1201833.07406364,678021.785011888,314,08/23/93,MUMFORD COVE,41,19.16799926,72,0.94300001,A,0, , SAND,ABSENT,A,93
1207858.49508364,677970.048894897,315,08/23/93,WEST COVE,41,19.15099906,71,59.6269989,A,2.0999999, , SILT,ABSENT,O,93
1205665.42696323,677958.332054809,316,08/23/93,PALMER COVE,41,19.15200042,72,0.10599999,A,0, , ,CODI,O,93
1152485.99395221,677939.260898724,317,10/18/94,NIANTIC BAY,41,19.21500015,72,11.72099971,M,1.29999995,0,"EDGE OF BED; CRESCENT BEACH",ABSENT,O,94
1193399.06304455,677916.94302997,318,08/23/93,BUSHY PT. BEACH,41,19.16799926,72,2.78500008,P,1.79999995, , EDGE OF BED,ABSENT,O,93
1193327.56384373,677910.426966891,319,08/23/93,BLUFF PT. STATE PARK,41,19.16699981,72,2.80100011,A,0, , ,ABSENT,O,93
1152463.86998072,677896.135000721,320,10/18/94,NIANTIC BAY,41,19.20800018,72,11.72599983,M,2,0,CLUMPS OF EELGRASS,ABSENT,O,94
1201389.39089589,677884.574000224,321,08/23/93,MUMFORD COVE,41,19.1459999,72,1.03999996,A,0.89999997, , ,ABSENT,O,93
1225165.46112581,677880.457866728,322,07/21/93,NOYES SHOAL,41,19.11000061,71,55.84700012,A,0, , ,ABSENT,O,93
1224810.02187605,677877.077952221,323,07/21/93,NOYES SHOAL,41,19.11000061,71,55.92499923,A,4.30000019, , SAND,ABSENT,O,93
1205623.74102297,677871.987083137,324,08/23/93,PALMER COVE,41,19.13800048,72,0.115,P,0, , ,ABSENT,O,93
1202350.38602114,677824.897938475,325,08/23/93,MUMFORD COVE,41,19.13599967,72,0.82499998,A,0.89999997, ,JUST OFF MARSH EDGE,"ASCO,FUCU",O,93
1185227.79985955,677814.979979306,326,08/30/93,MOUTH OF THAMES R.,41,19.19799995,72,4.52799987,A,0, , ,LAMI,O,93
1191381.38893031,677789.837969229,327,08/25/93,BUSHY PT. - JUPITER PT.,41,19.14399909,72,3.22600007,A,0, , ,ABSENT,O,93
1205658.05493072,677781.83011122,328,08/23/93,PALMER COVE,41,19.12299919,72,0.108,L,0.89999997, , ,ABSENT,O,93
1191634.20108873,677766.669052303,329,08/25/93,BUSHY PT. - JUPITER PT.,41,19.13999938,72,3.171,A,0, , ,CODI,O,93
1193145.50384039,677761.140848145,330,08/23/93,BUSHY PT. BEACH,41,19.13699913,72,2.84100008,L,2.40000009, , COBBLES  PATCHY,ABSENT,O,93
1191124.76706822,677726.974905983,331,08/25/93,BUSHY PT. - JUPITER PT.,41,19.13400077,72,3.28200006,A,0, , ,ABSENT,O,93
1193333.69112806,677713.753147647,332,08/23/93,BUSHY PT. BEACH,41,19.12899971,72,2.79999995,A,0, , ,ABSENT,O,93
1192454.25915989,677704.787942484,333,08/23/93,BUSHY PT. BEACH,41,19.14100074,72,2.99099993,A,0, , ,"ASCO,FUCU",A,93
1192522.38402364,677683.429061309,334,08/23/93,BUSHY PT. BEACH,41,19.125,72,2.97699999,A,0, , ROCK,ABSENT,O,93
1192510.57203938,677676.163983971,335,08/23/93,BUSHY PT. BEACH,41,19.13299942,72,2.97900009,P,0, , EDGE OF BED,ABSENT,A,93
1186162.3599983,677650.442906812,336,08/30/93,SHENNECOSSETT BEACH,41,19.12800025,72,4.36600017,M,3.40000009, , ,ABSENT,O,93
1192574.25891989,677628.992162317,337,08/23/93,BUSHY PT. BEACH,41,19.11599922,72,2.96600008,P,0, , EDGE OF BED,FUCU,O,93
1157366.09410013,677612.362930477,338,10/18/94,NIANTIC BAY,41,19.15600013,72,10.65600013,M,1.29999995,12:44,TWENTY FT. OFF E. SIDE WATERFORD IS.,ABSENT,O,94
1192527.44700564,677610.818970308,339,08/23/93,BUSHY PT. BEACH,41,19.11300086,72,2.97600007,A,0, , ,ABSENT,O,93
1152955.36998197,677601.276994646,340,10/18/94,NIANTIC BAY,41,19.15900039,72,11.61900043,A,4,0,DIDN'T CHECK FOR EELGRASS,ABSENT,O,94
1205655.24489698,677587.577875063,341,08/23/93,PALMER COVE,41,19.0909996,72,0.10899999,P,0, , ,ABSENT,O,93
1194431.06098056,677574.842992395,342,08/23/93,BLUFF PT. STATE PARK,41,19.11400032,72,2.55999994,A,1.79999995, , ,ABSENT,O,93
1192524.26197264,677452.145075053,343,08/23/93,BUSHY PT. BEACH,41,19.08699989,72,2.97699999,P,0, , ,ABSENT,O,93
1205802.12091555,677406.484077141,344,08/23/93,PALMER COVE,41,19.06100082,72,0.07699999,L,0, , ,"AGAR,CODI,POLY",O,93
1231456.87603639,677399.837108806,345,07/21/93,STONINGTON BREAKWATER,41,19.0209999,71,54.47399902,A,0, , ,ABSENT,O,93
1186783.73408364,677382.510043725,346,08/30/93,SHENNECOSSETT BEACH,41,19.08300018,72,4.23099994,M,2.70000004, ," SAND; COBBLE",LAMI,O,93
1192726.07390498,677381.131109476,347,08/23/93,BUSHY PT. BEACH,41,19.07500076,72,2.93300008,P,2.40000009, , ,ABSENT,O,93
1191411.64510339,677364.568150476,348,08/25/93,BUSHY PT. - JUPITER PT.,41,19.0739994,72,3.22000002,P,0.60000002, ," SOLITARY; PATCHES","CODI,FUCU,POLY",O,93
1206111.18296146,677342.455989972,349,08/23/93,SOUTH OF ESKER POINT,41,19.04999923,72,0.00999999,A,0, , ,ABSENT,O,93
1231435.18907189,677332.91401431,350,07/21/93,STONINGTON BREAKWATER,41,19.01000022,71,54.47900009,P,4.5999999, , EDGE OF BED,ABSENT,O,93
1191087.89706323,677313.016088232,351,08/25/93,BUSHY PT. - JUPITER PT.,41,19.06599998,72,3.29099988,M,3.0999999, , PATCHY,LAMI,O,93
1200140.21885355,677291.316984639,352,08/23/93,BLUFF PT. STATE PARK,41,19.04999923,72,1.31400001,P,0, , PATCHY,"CHAM,LOME",O,93
1200945.21494697,677272.921024054,353,08/23/93,MUMFORD COVE,41,19.04599952,72,1.13800001,P,1.10000002, , SAND,ABSENT,O,93
1181707.45289764,677270.428903058,354,08/25/93,MOUTH OF THAMES R.,41,19.07099914,72,5.34000015,P,0, ," SAND; ROCKS SOLITARY SHORTSHOOTS",ASCO,O,93
1206201.30909355,677264.658901483,355,08/23/93,SOUTH OF ESKER POINT,41,19.03700065,71,59.99000167,P,0, , ,ABSENT,O,93
1191048.08611922,677257.842970222,356,08/25/93,BUSHY PT. - JUPITER PT.,41,19.0569992,72,3.29999995,A,2.0999999, , ,ABSENT,O,93
1205698.49907555,677241.011967137,357,08/23/93,PALMER COVE,41,19.03400039,72,0.1,P,0, , ,"AGAR,GRAC",O,93
1206235.12201805,677233.816115394,358,08/23/93,SOUTH OF ESKER POINT,41,19.03199958,71,59.9830017,P,0, , SAND EDGE OF BED,ABSENT,O,93
1157198.72402805,677228.729839474,359,10/18/94,NIANTIC BAY,41,19.09300041,72,10.69299983,H,1,0,TWENTY FT. OFF E. SIDE WATERFORD IS.,ABSENT,O,94
1190062.40403546,677226.204910144,360,08/25/93,CHANNEL AVERY PT.,41,19.05299949,72,3.5150001,A,0, , ,ABSENT,O,93
1205645.06315881,677216.824023396,361,08/23/93,PALMER COVE,41,19.03000068,72,0.112,L,1.20000004, , SILT,ABSENT,O,93
1191236.33508655,677200.048138306,362,08/25/93,BUSHY PT. - JUPITER PT.,41,19.04700088,72,3.25900006,L,0.89999997, , SILT PATCHY,"ASCO,CODI,LAMI",O,93
1200892.15304522,677199.809949815,363,08/23/93,MUMFORD COVE,41,19.03400039,72,1.14999997,A,0, , ,ABSENT,O,93
1187567.98284322,677157.407147482,364,08/30/93,SHENNECOSSETT BEACH,41,19.04500007,72,4.05999994,M,0, , PATCHY,ABSENT,O,93
1206262.93593881,677118.408865899,365,08/23/93,SOUTH OF ESKER POINT,41,19.01300048,71,59.97700119,A,0, , ,ABSENT,O,93
1192390.83015288,677087.811158061,366,08/23/93,BUSHY PT. BEACH,41,19.02700042,72,3.00699996,H,3.0999999, , EDGE OF BED,ABSENT,O,93
1151997.38108431,677085.099877387,367,10/18/94,NIANTIC BAY,41,19.07500076,72,11.82900047,M,2,0,CLUMPS BY SHORE JUST W. OF WIGWAM ROCK,ABSENT,O,94
1208123.3219818,677085.731109723,368,08/23/93,NORTH OF MOUSE ISLAND,41,19.00499916,71,59.57099914,L,0, , ,ABSENT,O,93
1187633.42103255,677079.344967648,369,08/30/93,SHENNECOSSETT BEACH,41,19.03199958,72,4.046,P,2.70000004, , EDGE OF BED,ABSENT,O,93
1151993.00707731,677073.209153146,370,10/18/94,NIANTIC BAY,41,19.07299995,72,11.82999992,A,2,0, ,ABSENT,O,94
1208360.51113997,677064.093029648,371,08/23/93,NORTH OF MOUSE ISLAND,41,19.00099945,71,59.519001,P,0.89999997, ," SAND; COBBLE DISTINCT PATCHES",ABSENT,O,93
1208103.5090293,677055.902101144,372,08/23/93,NORTH OF MOUSE ISLAND,41,19,71,59.57500076,M,0, ," SAND; DETRITUS",ABSENT,O,93
1208108.01000455,677050.011036813,373,08/23/93,NORTH OF MOUSE ISLAND,41,18.99900054,71,59.57400131,A,0, , ,ABSENT,O,93
1151975.44510455,677018.239118725,374,10/18/94,NIANTIC BAY,41,19.06399917,72,11.83399963,A,2.70000004,0, ,ABSENT,O,94
1206324.56409639,676973.642095059,375,08/23/93,SOUTH OF ESKER POINT,41,18.98900032,71,59.9640007,L,1.20000004, , ,ABSENT,O,93
1201017.15607606,676957.714961559,376,08/23/93,MUMFORD COVE,41,18.99399948,72,1.12300002,H,0.89999997, , BLOWOUT AREAS,ABSENT,O,93
1209629.20610914,676947.766162559,377,08/23/93,EAST OF MORGAN POINT,41,18.97999954,71,59.24200057,A,0, , ,ABSENT,O,93
1209287.14216071,676944.74484314,378,08/23/93,EAST OF MORGAN POINT,41,18.97999954,71,59.31700134,M,3.40000009, , SAND,ABSENT,O,93
1190082.78293172,676916.483088642,379,08/25/93,SHENNECOSSETT BREAKWATER,41,19.0020008,72,3.51099991,P,0, , PATCHY,ABSENT,O,93
1209410.51789822,676902.840071306,380,08/23/93,EAST OF MORGAN POINT,41,18.97299957,71,59.29000091,A,0, , ,ABSENT,O,93
1206461.69111872,676890.330909982,381,08/23/93,SOUTH OF ESKER POINT,41,18.97500038,71,59.9339981,A,1.5, , COBBLE,ABSENT,O,93
1191042.09105247,676888.619955391,382,08/25/93,BUSHY PT. - JUPITER PT.,41,18.99600028,72,3.30200004,M,1.39999997, , PATCHY,ASCO,O,93
1208597.2029238,676842.296885312,383,08/23/93,WEST OF MORGAN POINT,41,18.9640007,71,59.4679985,H,0, ,"SAND TO COBBLE, THICK",ABSENT,O,93
1199223.04286639,676822.487869814,384,08/23/93,BLUFF PT. STATE PARK,41,18.97400093,72,1.51499998,H,0, , ,ABSENT,O,93
1199068.79415914,676821.188987896,385,08/23/93,BLUFF PT. STATE PARK,41,18.97400093,72,1.54900002,P,0, , EDGE OF BED,ABSENT,O,93
1239339.23888056,676816.798904806,386,07/21/93,NORTH OF NAPATREE,41,18.91200065,71,52.75400161,H,1.20000004, , SAND,ABSENT,O,93
1199035.35689005,676807.56401515,387,08/23/93,BLUFF PT. STATE PARK,41,18.97200012,72,1.55599999,H,1.20000004, , THICK,ABSENT,O,93
1187600.9240503,676807.231010556,388,08/30/93,SHENNECOSSETT BEACH,41,18.98699951,72,4.03700017,A,0, , ,ABSENT,A,93
1198872.42086422,676776.545048311,389,08/23/93,BLUFF PT. STATE PARK,41,18.96699905,72,1.592,A,0, , ,ABSENT,O,93
1190844.34407264,676740.240002811,390,08/25/93,BUSHY PT. - JUPITER PT.,41,18.97200012,72,3.34500002,P,0, , VERY PATCHY,ABSENT,O,93
1239152.30191848,676734.858123809,391,07/21/93,NORTH OF NAPATREE,41,18.89900016,71,52.79499816,H,0.89999997, , SAND,ABSENT,O,93
1205803.63108313,676720.038927734,392,08/23/93,PALMER COVE,41,18.94799995,72,0.078,P,5.5, ," COBBLES; BOULDERS",ABSENT,O,93
1191922.14998789,676713.347011983,393,08/23/93,BUSHY PT.,41,18.9659996,72,3.10999989,P,3.79999995, , INCREASES NEAR SHORE,ABSENT,O,93
1199118.92004314,676711.891962394,394,08/23/93,BLUFF PT. STATE PARK,41,18.95599937,72,1.53799998,A,0, , BLOWOUT AREA,ABSENT,O,93
1198642.73595613,676707.901156723,395,08/23/93,BLUFF PT. STATE PARK,41,18.95599937,72,1.64199995,A,0, , ,ABSENT,O,93
1190621.03283948,676702.862124816,396,08/25/93,BUSHY PT. - AVERY PT.,41,18.9659996,72,3.39400005,A,1.20000004, , ,ABSENT,O,93
1187600.17602031,676702.71415922,397,08/30/93,SHENNECOSSETT BEACH,41,18.96999931,72,4.04799985,A,0, , SAND,ABSENT,A,93
1199210.85785139,676675.59511897,398,08/23/93,BLUFF PT. STATE PARK,41,18.95000076,72,1.518,P,1.5, , DENSE,AGAR,O,93
1191971.77587289,676658.894036889,399,08/23/93,BUSHY PT.,41,18.95700073,72,3.09899997,A,3.29999995, , ,ABSENT,O,93
1198542.67513263,676640.352079228,400,08/23/93,BLUFF PT. STATE PARK,41,18.94499969,72,1.66400003,P,0, , PATCHY,ABSENT,O,93
1208757.76887564,676636.141129643,401,08/23/93,MORGAN POINT,41,18.9300003,71,59.43299865,L,0, ,"ROCK, SPARSE","AGAR,CODI,DESM,POLY",O,93
1200883.53593647,676634.851105973,402,08/23/93,MUMFORD COVE,41,18.94099998,72,1.15299999,A,1.79999995, ," SILT; SAND",ABSENT,O,93
1156831.73296414,676600.620859474,403,10/18/94,NIANTIC BAY,41,18.98999977,72,10.77400016,M,1.70000004,1:00,CLUMPS OF EELGRASS,ABSENT,O,94
1190841.03305563,676594.909912899,404,08/25/93,BUSHY PT. - JUPITER PT.,41,18.94799995,72,3.34599995,P,1.20000004, , ,ABSENT,O,93
1213978.67214772,676592.228159726,405,07/21/93,MASON IS. - RAM IS.,41,18.91500091,71,58.29299926,L,3.40000009, ," MARGINAL;  CLUMPY",ABSENT,O,93
1195929.6278653,676581.552984223,406,08/23/93,BLUFF PT. STATE PARK,41,18.93899917,72,2.23499989,A,0, , ,"AHNF,DAYS,DESM,LAMI,ULVA",O,93
1157002.04495947,676546.88802731,407,10/18/94,NIANTIC BAY,41,18.9810009,72,10.73700046,L,1.70000004,0, ,ABSENT,O,94
1208112.64188506,676522.240110725,408,08/23/93,MOUSE IS.,41,18.91200065,71,59.57400131,H,0, , ,ABSENT,O,93
1198474.42690955,676518.193858981,409,08/23/93,BLUFF PT. STATE PARK,41,18.92499923,72,1.67900002,P,0, , PATCHY,ABSENT,O,93
1208159.89310288,676491.505920231,410,08/23/93,MOUSE IS.,41,18.90699958,71,59.56399917,H,0, , THICK,ABSENT,O,93
1208133.07983631,676485.349108398,411,08/23/93,MOUSE IS.,41,18.90600013,71,59.56999969,A,0, , ,ABSENT,O,93
1156964.48401096,676479.917032644,412,10/18/94,NIANTIC BAY,41,18.96999931,72,10.74499988,M,2,0,EAST SIDE OF WATERFORD IS.,ABSENT,O,94
1189473.79300797,676468.296977147,413,08/25/93,AVERY PT TREATMENT PLANT,41,18.92900085,72,3.64499998,H,0, , PATCHY,ABSENT,O,93
1181438.9029098,676436.600846305,414,08/25/93,OSPREY BEACH,41,18.93400001,72,5.40000009,A,0, , SAND,ABSENT,O,93
1191204.5959768,676427.335116804,415,08/23/93,BUSHY PT. - PINE IS.,41,18.92000007,72,3.26699995,A,0, , ROCK,ASCO,O,93
1208187.26903239,676425.036893055,416,08/23/93,MOUSE IS.,41,18.8959999,71,59.55799865,A,0, , ,ABSENT,O,93
1191195.65800256,676421.334144562,417,08/25/93,PINE IS.,41,18.91900062,72,3.26900005,A,0, , ,ABSENT,O,93
1207648.82883631,676383.247934639,418,08/23/93,WEST OF MOUSE ISLAND,41,18.88999938,71,59.67599868,H,2.0999999, , ,ABSENT,O,93
1198480.0538668,676378.880161226,419,08/23/93,BLUFF PT. STATE PARK,41,18.90200042,72,1.67799997,H,0, , ,ABSENT,O,93
1199053.05206464,676297.683145151,420,08/23/93,BLUFF PT. STATE PARK,41,18.88800048,72,1.55299997,P,0, , ,ABSENT,O,93
1158412.41484214,676258.259995639,421,10/18/94,NIANTIC BAY,41,18.9319992,72,10.4289999,L,1.29999995,0, ,ABSENT,O,94
1199236.80104098,676250.294132307,422,08/23/93,BLUFF PT. STATE PARK,41,18.87999916,72,1.51300001,P,0, , ,ABSENT,O,93
1158336.47798614,676245.884036139,423,10/18/94,NIANTIC BAY,41,18.9300003,72,10.44600009,M,1.70000004,0, ,ABSENT,O,94
1199341.98783848,676239.325978398,424,08/23/93,BLUFF PT. STATE PARK,41,18.87800025,72,1.49,A,0, , ,ABSENT,O,93
1191311.22306013,676233.973954976,425,08/25/93,PINE IS.,41,18.88800048,72,3.24399995,P,2.40000009, , EDGE OF BED,ABSENT,O,93
1158258.35412663,676233.508076638,426,10/18/94,NIANTIC BAY,41,18.92799949,72,10.46300029,H,1.70000004,0, ,ABSENT,O,94
1158508.78997748,676223.323057637,427,10/18/94,NIANTIC BAY,41,18.92600059,72,10.40799999,L,1,0, ,ABSENT,O,94
1191353.84797488,676216.520905897,428,08/25/93,PINE IS.,41,18.88500022,72,3.23499989,L,0, , THIN PATCHES,LAMI,O,93
1157075.92309256,676215.47694473,429,10/18/94,NIANTIC BAY,41,18.92600059,72,10.73900032,A,3.29999995,12:46,EAST SIDE OF WATERFORD IS.,ABSENT,A,94
1157634.73299855,676211.561926305,430,10/18/94,NIANTIC BAY,41,18.92499923,72,10.59899997,M,0,0, ,ABSENT,O,94
1157634.7950063,676199.702041894,431,10/18/94,NIANTIC BAY,41,18.92300033,72,10.59899997,M,2.70000004,0,GOING TOWARD WATERFORD IS.,ABSENT,O,94
1191302.53606963,676198.316874057,432,08/25/93,PINE IS.,41,18.88199996,72,3.24600005,P,0, , PATCHY,LAMI,O,93
1157241.67308913,676148.165071473,433,10/18/94,NIANTIC BAY,41,18.91500091,72,10.68500041,L,2,0,TWENTY FT. OFF E. SIDE WATERFORD IS.,ABSENT,O,94
1157255.17306213,676136.383927062,434,10/18/94,NIANTIC BAY,41,18.9130001,72,10.68200016,H,2.70000004,0,TWENTY FT. OFF E. SIDE WATERFORD IS.,ABSENT,O,94
1157937.23206547,676103.861026227,435,10/18/94,NIANTIC BAY,41,18.90699958,72,10.53299999,M,3,0, ,ABSENT,O,94
1157403.04809447,676082.510019064,436,10/18/94,NIANTIC BAY,41,18.90399932,72,10.64999961,M,2.70000004,0,TWENTY FT. OFF E. SIDE WATERFORD IS.,ABSENT,O,94
1178144.11389571,676052.820117816,437,11/10/95,ALEWIFE COVE,41,18.875,72,6.11999988,L,1.5, ,"SMALL CLUMPS, PLANTS ~.3 M IN LENGTH",ABSENT,O,95
1158360.29289913,676028.099038646,438,10/18/94,NIANTIC BAY,41,18.89399909,72,10.44099998,M,2,0,"BUOY/STUDY SITE; NEW ROOTS ON R(1)",ABSENT,O,94
1206809.76785038,675940.012928724,439,08/23/93,WEST OF MOUSE ISLAND,41,18.81800079,71,59.86000061,H,0, , ,ABSENT,O,93
1178324.05284031,675902.945089474,440,11/10/95,ALEWIFE COVE,41,18.85000038,72,6.08099985,L,1.5,09:30,"SMALL CLUMPS, PLANTS ~.3 M IN LENGTH",ABSENT,O,95
1178122.86590672,675901.427047893,441,11/10/95,ALEWIFE COVE,41,18.85000038,72,6.125,L,1.5, ,"SMALL CLUMPS, PLANTS ~.3 M IN LENGTH",ABSENT,O,95
1191566.72615805,675878.706948981,442,08/25/93,PINE IS.,41,18.82900047,72,3.18899989,H,3.70000004, , PATCHY,ABSENT,O,93
1178326.17783606,675845.178144649,443,11/10/95,ALEWIFE COVE,41,18.8579998,72,6.02699995,L,1.5, ,"SMALL CLUMPS, PLANTS ~.3 M IN LENGTH",ABSENT,A,95
1150887.7770043,675802.938071638,444,10/18/94,NIANTIC BAY,41,18.86499977,72,12.07299995,L,3.70000004,0,CLUMPS OF EELGRASS,ABSENT,O,94
1178018.55607598,675796.860984057,445,11/10/95,ALEWIFE COVE,41,18.83300018,72,6.14799976,L,1.5, ,"SMALL CLUMPS, PLANTS ~.3 M IN LENGTH",ABSENT,O,95
1178307.17885831,675775.318048149,446,11/10/95,ALEWIFE COVE NEAR ISLAND,41,18.82900047,72,6.08500003,L,1, ,"SMALL CLUMPS, PLANTS ~.3 M IN LENGTH","CODI,FUCU,ULVA",O,95
1150925.96393581,675773.531962484,447,10/18/94,NIANTIC BAY,41,18.86000061,72,12.06499958,L,2.70000004,0, ,ABSENT,O,94
1213981.74596047,675754.547092304,448,07/21/93,MASON IS. - RAM IS.,41,18.77700042,71,58.29399871,P,3.29999995, , DETRITUS ONE CLUMP,ABSENT,O,93
1150975.27715738,675748.640936136,449,10/18/94,NIANTIC BAY,41,18.8560009,72,12.0539999,A,2.29999995,0, ,ABSENT,O,94
1212579.98892148,675741.950004637,450,07/21/93,RAM IS.,41,18.77700042,71,58.59999847,M,0, , ,ABSENT,O,93
1158009.23585847,675704.026852146,451,10/18/94,NIANTIC BAY,41,18.8409996,72,10.51799964,L,3.29999995,0,EDGE OF EELGRASS BED,ABSENT,O,94
1198523.93796539,675673.497057557,452,08/23/93,BLUFF PT. STATE PARK,41,18.78599929,72,1.66999995,A,3.40000009, , ,ABSENT,O,93
1198501.87600164,675637.73105298,453,08/23/93,BLUFF PT. STATE PARK,41,18.78000068,72,1.67499995,A,3.70000004, , ,ABSENT,O,93
1198524.50194064,675606.777046651,454,08/23/93,BLUFF PT. STATE PARK,41,18.77499961,72,1.66999995,A,3.40000009, , ,ABSENT,O,93
1178093.30789497,675597.422078475,455,11/10/95,ALEWIFE COVE SHORE,41,18.79999923,72,6.13500022,L,1, ,SMALL CLUMPS ~4 M FROM SHORE (ROCKS),"CODI,FUCU,ULVA",A,95
1178212.6199923,675561.095051393,456,11/10/95,ALEWIFE COVE,41,18.79400062,72,6.10599994,L,1.5,09:25,"SMALL CLUMPS, PLANTS ~.3 M IN LENGTH",ABSENT,O,95
1196866.32513888,675508.44194147,457,08/23/93,BLUFF PT. STATE PARK,41,18.76099967,72,2.03200006,A,2.0999999, , ,LAMI,O,93
1196862.01313964,675490.629969224,458,08/23/93,BLUFF PT. STATE PARK,41,18.75799942,72,2.03299999,A,3.40000009, , ,ABSENT,O,93
1158569.86104955,675446.825922981,459,10/18/94,NIANTIC BAY,41,18.79800033,72,10.3959999,H,1.29999995,0, ,ABSENT,O,94
1158395.67504622,675420.449007228,460,10/18/94,NIANTIC BAY,41,18.79400062,72,10.43400001,M,0,0, ,ABSENT,O,94
1158337.55016246,675420.056947649,461,10/18/94,NIANTIC BAY,41,18.79400062,72,10.44699954,L,4,0,EDGE OF EELGRASS BED,ABSENT,O,94
1219634.90591396,675416.294159889,462,07/21/93,EELGRASS REEF,41,18.71299934,71,57.06000137,P,0, , CLUMPY,ABSENT,O,93
1158491.86186172,675409.230853811,463,10/18/94,NIANTIC BAY,41,18.79199981,72,10.4130001,L,3,0, ,ABSENT,O,94
1158433.73697796,675408.840106562,464,10/18/94,NIANTIC BAY,41,18.79199981,72,10.42599964,M,3.0999999,0,BEGINNING OF STUDY SITE,ABSENT,O,94
1158556.79906781,675397.809944898,465,10/18/94,NIANTIC BAY,41,18.79000091,72,10.39900016,M,2,12:07, ,ABSENT,O,94
1158373.48808272,675396.57307072,466,10/18/94,NIANTIC BAY,41,18.79000091,72,10.43900012,M,3.70000004,0,LARGE FLUKE,ABSENT,O,94
1198186.56888947,675380.082946226,467,08/23/93,BLUFF PT. STATE PARK,41,18.73800086,72,1.74399995,P,0, ," SAND; ROCK","ASCO,CLAD,ENTE,FUCU",O,93
1158556.98705955,675372.605927065,468,10/18/94,NIANTIC BAY,41,18.78599929,72,10.39900016,M,1.70000004,0,EDGE OF EELGRASS BED,ABSENT,O,94
1219460.90593389,675373.165965304,469,07/21/93,EELGRASS REEF,41,18.70599937,71,57.09799957,P,0, , EDGE OF BED,ABSENT,O,93
1158098.73994455,675351.75590314,470,10/18/94,NIANTIC BAY,41,18.78300094,72,10.49899959,H,1.29999995,0, ,ABSENT,O,94
1158483.36187872,675348.386159226,471,10/18/94,NIANTIC BAY,41,18.78199958,72,10.41499996,L,0,0, ,"AGAR,CHON,LOME,ULVA",O,94
1219503.59384064,675348.354007065,472,07/21/93,EELGRASS REEF,41,18.70199966,71,57.0890007,H,3.0999999, ," SAND; GRAVEL; COBBLES",LAMI,O,93
1190998.67414455,675338.896020725,473,08/25/93,PINE IS.,41,18.74099922,72,3.31399989,A,3.0999999, , ,LAMI,O,93
1158456.92590797,675287.416136816,474,10/18/94,NIANTIC BAY,41,18.77199935,72,10.42099952,M,3,0,"ROCK; COBBLE WITH SEAWEEDS",PRESENT,O,94
1158392.17603748,675269.196028888,475,10/18/94,NIANTIC BAY,41,18.76899909,72,10.43500041,L,3.70000004,0, ,ABSENT,O,94
1158365.55207497,675237.883099392,476,10/18/94,NIANTIC BAY,41,18.76399993,72,10.44099998,A,0,0, ,ABSENT,O,94
1180504.61114322,675227.040929481,477,08/25/93,OSPREY BEACH,41,18.73600006,72,5.60599994,P,0, , ,LAMI,O,93
1158383.67703871,675208.351006225,478,10/18/94,NIANTIC BAY,41,18.75900077,72,10.43700027,M,3.70000004,0, ,ABSENT,O,94
1219953.41315097,675067.856864646,479,07/21/93,EELGRASS REEF,41,18.65500068,71,56.99100112,P,3.40000009, , EDGE OF BED,ABSENT,O,93
1162335.34301989,675058.634114057,480,10/18/94,JORDAN COVE,41,18.72999954,72,9.57400035,L,1,10:31,"LOW TIDE: 1452;HIGH TIDE: 0816",ABSENT,O,94
1162413.84286289,675023.603016138,481,10/18/94,JORDAN COVE,41,18.72400093,72,9.55700016,M,3.5,0, ,ABSENT,O,94
1220495.04198897,675006.16112189,482,07/21/93,EELGRASS REEF,41,18.64399909,71,56.87300109,A,0, ,"COBBLE, TYPICAL KELP COMMUNITY","AHNF,CHON,DESM,PHYM,POLY",O,93
1220354.35395014,674987.065031484,483,07/21/93,EELGRASS REEF,41,18.64100074,71,56.90399932,L,0, , SPARSE,ABSENT,O,93
1220061.53990322,674976.936114728,484,07/21/93,EELGRASS REEF,41,18.63999938,71,56.9679985,P,0, , COBBLE,"BANG,CONC,SCYT,RALF",O,93
1202321.92610431,674965.740927145,485,08/23/93,GROTON LONG PT.,41,18.66399955,72,0.842,A,0, ," SILT; SAND",ABSENT,O,93
1162443.72009972,674902.225962311,486,10/18/94,JORDAN COVE,41,18.70400047,72,9.55099964,H,0,0, ,ABSENT,O,94
1111066.94686922,674879.164984807,487,12/01/94,DOCK OFF RTE. 156,41,18.74900054,72,20.7709999,A,0, ,"HIGH TIDE: 0713;LOW TIDE: 1405",ABSENT,O,94
1210738.67895581,674874.461910233,488,07/21/93,RAM ISLAND,41,18.63699913,71,59.00400161,H,2.40000009, , ,ABSENT,O,93
1111067.00986122,674867.305100396,489,11/17/94,DEP DOCK OFF ROUTE 15,41,18.74699974,72,20.7709999,A,0,10:05,DEP DOCK OFF ROUTE 156 BY I95,ABSENT,O,94
1178414.56512646,674864.02492322,490,11/10/95,BRIDGE OVER ALEWIFE COVE,41,18.69799995,72,6.04500007,L,1,10:00,ONE SMALL PATCH,"CODI,FUCU,ULVA",A,95
1220102.91711706,674857.21588172,491,07/21/93,EELGRASS REEF,41,18.62000083,71,56.95899963,P,0, , EDGE OF BED,ABSENT,O,93
1111040.25991473,674855.320872396,492,12/01/94,DEP DOCK RTE. 156,41,18.74500083,72,20.77700042,A,0,3:42, ,ABSENT,O,94
1162453.09508097,674841.506923646,493,10/18/94,JORDAN COVE,41,18.69400024,72,9.54899978,M,1.70000004,0, ,ABSENT,O,94
1111027.00994122,674818.194962397,494,06/16/95,DEP DOCK,41,18.73900032,72,20.78000068,A,0, , ,ABSENT,O,95
1162457.90806347,674792.599869221,495,10/18/94,JORDAN COVE,41,18.68600082,72,9.54800033,H,2.29999995,0, ,ABSENT,O,94
1180476.67911246,674783.518850639,496,08/25/93,OSPREY BEACH,41,18.6630001,72,5.61299991,P,2.70000004, , PATCHY,ABSENT,O,93
1162467.28402898,674731.879846305,497,10/18/94,JORDAN COVE,41,18.67600059,72,9.54599952,M,2.70000004,0, ,ABSENT,O,94
1158395.86992772,674716.203040391,498,10/18/94,NIANTIC BAY,41,18.67799949,72,10.43500041,A,3.70000004,0, ,LAMI,O,94
1150827.85192731,674678.71394214,499,10/18/94,NIANTIC BAY,41,18.6800003,72,12.08800029,L,3,3:06, ,ABSENT,O,94
1158455.80812806,674641.046038479,500,10/18/94,NIANTIC BAY,41,18.66500091,72,10.41499996,M,0,0,CLUMPS OF EELGRASS,ABSENT,A,94
1158439.18414555,674594.904070392,501,10/18/94,NIANTIC BAY,41,18.65800094,72,10.42599964,M,1,0,CLUMPS OF EELGRASS,ABSENT,O,94
1162560.0351558,674567.940869734,502,10/18/94,JORDAN COVE,41,18.64900016,72,9.52600002,M,3.29999995,0, ,ABSENT,O,94
1210833.37200789,674535.771970809,503,07/21/93,RAM ISLAND,41,18.58099937,71,58.98400115,A,4, , ROCK,"CODI,LAMI,LOME",O,93
1158439.6221368,674528.200135559,504,10/18/94,NIANTIC BAY,41,18.64699935,72,10.42599964,M,3,0,CLUMPS OF EELGRASS AND ASCOPHYLLUM,ASCO,O,94
1162761.59708863,674521.880922481,505,10/22/93,JORDAN COVE,41,18.64100074,72,9.48200035,M,0,12:45,CONTINUOUS,ABSENT,O,93
1162739.59811689,674466.879063979,506,10/22/93,JORDAN COVE,41,18.63199996,72,9.48700046,M,2.0999999, , CONTINUOUS,ABSENT,O,93
1162661.47294505,674452.988015637,507,10/18/94,JORDAN COVE,41,18.62999916,72,9.50399971,M,0,0, ,ABSENT,O,94
1161841.22885063,674399.929066643,508,10/18/94,JORDAN COVE,41,18.62199974,72,9.68299961,L,1.29999995,0,EDGE OF EELGRASS BED,ABSENT,O,94
1161897.16607472,674394.383145973,509,10/18/94,JORDAN COVE,41,18.62100028,72,9.67099952,H,1.70000004,0, ,ABSENT,O,94
1164750.46286155,674347.324841142,510,10/22/93,JORDAN COVE,41,18.61000061,72,9.04800033,A,2.40000009, ," SAND; SILT; ROCKS",ABSENT,O,93
1163572.53214656,674296.169103563,511,10/22/93,JORDAN COVE,41,18.60300064,72,9.3050003,A,2.90000009, , SAND,AGAR,O,93
1180429.12310523,674279.057917312,512,08/25/93,OSPREY BEACH,41,18.57999992,72,5.62400007,H,2.70000004, , THICK PATCHES,ABSENT,O,93
1163096.66105105,674243.957921892,513,10/18/94,JORDAN COVE,41,18.59499931,72,9.40900039,L,4.5,0,SALINITY 30.5,ABSENT,O,94
1162090.54200031,674237.070140392,514,10/18/94,JORDAN COVE,41,18.59499931,72,9.62899971,M,2.29999995,0, ,ABSENT,O,94
1162882.03713647,674236.564892054,515,10/18/94,JORDAN COVE,41,18.59399986,72,9.45600032,H,4,0, ,ABSENT,O,94
1162090.72900781,674207.414031729,516,10/22/93,JORDAN COVE,41,18.59000015,72,9.62899971,P,0, , CONTINUOUS,ABSENT,O,93
1161976.72989197,674206.630896807,517,10/22/93,JORDAN COVE,41,18.59000015,72,9.65400028,H,1.20000004, , SAND THICK,ABSENT,O,93
1163226.84812663,674172.209049642,518,10/18/94,JORDAN COVE,41,18.58300018,72,9.38099956,A,0,0, ,ABSENT,O,94
1158910.4991478,674095.636040062,519,10/18/94,BAY POINT,41,18.57999992,72,10.32299995,A,2,0,MEDIUM TO COARSE SAND,ABSENT,A,94
1158958.99905081,674094.292866901,520,10/18/94,BAY POINT,41,18.57500076,72,10.31299972,M,2.29999995,0,"LARGE EELGRASS CLUMPS; SAND MED-COARSE",ABSENT,O,94
1158912.2491443,674070.261090815,521,10/18/94,BAY POINT,41,18.57099914,72,10.32299995,M,2.29999995,0,VERY SPARSE TO MEDIUM EELGRASS CLUMPS,ABSENT,O,94
1158889.99984497,674052.307058483,522,10/18/94,BAY POINT,41,18.56800079,72,10.32800006,L,2.70000004,11:45,"BLACK ROCK; SAND; SEAWEEDS; SEA URCHIN; STRIPPER",PRESENT,O,94
1162197.48207514,673970.926971897,523,10/18/94,JORDAN COVE,41,18.55100059,72,9.60599994,L,4,11:03, ,ABSENT,O,94
1162289.98189014,673844.050913304,524,10/18/94,JORDAN COVE,41,18.53000068,72,9.58600044,L,4.6999998,0,EDGE OF EELGRASS BED,ABSENT,O,94
1150585.17491922,673809.820010647,525,10/18/94,NIANTIC BAY,41,18.53700065,72,12.14200019,M,2,0,CLUMPS OF EELGRASS,ABSENT,O,94
1162377.42003547,673807.583138481,526,10/18/94,JORDAN COVE,41,18.52400016,72,9.56700038,A,4.6999998,0, ,ABSENT,O,94
1150553.92498173,673802.211101979,527,10/18/94,NIANTIC BAY,41,18.53599929,72,12.14900016,M,0,0,"BAND OF EELGRASS; EVEN BUT THIN",ABSENT,O,94
1165302.84200613,673694.353049979,528,10/22/93,JORDAN COVE,41,18.5020008,72,8.92800045,A,3.0999999, , ,ABSENT,O,93
1150498.99005222,673644.70715189,529,10/18/94,NIANTIC BAY,41,18.51000022,72,12.16100025,M,2.29999995,0,BETWEEN CRESCENT BEACH & BLACK PT.,ABSENT,O,94
1150715.9879778,673634.224889398,530,10/18/94,NIANTIC BAY,41,18.50799942,72,12.11400032,M,2.70000004,0,SOUTH OF BREAKWATER,ABSENT,O,94
1150796.55113688,673622.866972476,531,10/18/94,NIANTIC BAY,41,18.50600051,72,12.09599971,M,3,3:11,BETWEEN CRESCENT BEACH & BLACK PT.,ABSENT,O,94
1150336.61701739,673516.170991644,532,10/18/94,NIANTIC BAY,41,18.48900032,72,12.19699954,M,1.70000004,0,BETWEEN CRESCENT BEACH & BLACK PT.,ABSENT,O,94
1179363.95200722,673505.940040976,533,08/25/93,OCEAN BEACH STATE PARK,41,18.45400047,72,5.8579998,H,3.40000009, ," VERY THICK; CONTINUOUS",ABSENT,O,93
1204966.93196914,673415.351967558,534,08/23/93,GROTON LONG PT.,41,18.40500068,72,0.26699998,P,0, ,SAND TO ROCK AT EDGE OF BED,LAMI,O,93
1204935.87002338,673389.881874144,535,08/23/93,GROTON LONG PT.,41,18.40099906,72,0.27399998,P,2.5999999, , ,ABSENT,O,93
1205049.99512322,673379.008864388,536,08/23/93,NOT DEFINED,41,18.39900016,72,0.24899999,A,0, , ,ABSENT,O,93
1205009.80786763,673372.727052808,537,08/23/93,GROTON LONG PT.,41,18.39800071,72,0.25799998,H,0, , ,ABSENT,O,93
1204976.30793464,673366.507905141,538,08/23/93,GROTON LONG PT.,41,18.39699935,72,0.26499998,P,0, , EDGE OF BED,ABSENT,O,93
1109151.24794473,673346.165098056,539,06/16/95,JUST SOUTH OF RR BRIDGE,41,18.49799919,72,21.19099998,A,0.60000002,11:09,"15M FROM SHORE, MUD-SILT, SPARSE RUPPIA, SALINITY 10%o",ABSENT,O,95
1204989.93290739,673342.914120317,540,08/23/93,GROTON LONG PT.,41,18.39299964,72,0.26199999,A,3.79999995, ,"SEAWEED ON SHORE, COBBLES, BOULDERS","ASCO,FUCU",O,93
1162045.23992555,673338.274037734,541,10/18/94,JORDAN COVE,41,18.4470005,72,9.64000034,L,3,0,EELGRASS VERY SPARSE,"CODI,ULVA",O,94
1162063.17689756,673332.461057231,542,10/18/94,JORDAN COVE,41,18.44599914,72,9.63599967,A,3.29999995,0, ,LAMI,O,94
1162005.24000555,673306.866948307,543,10/18/94,JORDAN COVE,41,18.44199943,72,9.64900016,L,0,0, ,ABSENT,O,94
1161918.05284397,673306.272133231,544,10/18/94,JORDAN COVE,41,18.44199943,72,9.66800022,L,2.70000004,0, ,ABSENT,O,94
1161958.30309156,673300.615976557,545,10/18/94,JORDAN COVE,41,18.44099998,72,9.65900039,M,2.70000004,0, ,ABSENT,O,94
1161871.30392171,673270.364068553,546,10/18/94,JORDAN COVE,41,18.43600082,72,9.67800045,A,2.29999995,0,"STRIPPER CARCASS; QUARRY SILT",ABSENT,O,94
1204962.93492989,673260.14689739,547,08/23/93,GROTON LONG PT.,41,18.38100051,72,0.254,P,3.70000004, ,"SAND, HEALTHY AND LUSH",ABSENT,A,93
1204920.56001464,673252.365088806,548,08/23/93,GROTON LONG PT.,41,18.37999916,72,0.26300001,P,3.70000004, , ,ABSENT,A,93
1165567.65807755,673229.162051231,549,10/22/93,WHITE PT.,41,18.42499923,72,8.87100028,A,0, , BOULDERS,ABSENT,O,93
1204963.99890414,673138.582836062,550,08/23/93,GROTON LONG PT.,41,18.36100006,72,0.254,P,3.70000004, , EDGE OF BED,ABSENT,A,93
1165416.03502122,673122.43883948,551,10/22/93,WHITE PT.,41,18.42600059,72,8.87699985,H,0, , ,ABSENT,A,93
1165425.28598697,673073.579029053,552,10/22/93,WHITE PT.,41,18.41799926,72,8.875,M,2.40000009, ," SAND; BOULDERS",ABSENT,A,93
1178964.77203131,673071.459938809,553,08/25/93,OCEAN BEACH STATE PARK,41,18.38299942,72,5.94600009,M,0, ," THICK; CONTINUOUS",ABSENT,O,93
1165398.59903248,673049.671924651,554,10/22/93,WHITE PT.,41,18.41399955,72,8.88099956,H,0, , EDGE OF BED,ABSENT,A,93
1178882.20986047,673045.646014065,555,08/25/93,OCEAN BEACH STATE PARK,41,18.37899971,72,5.96400022,A,2.0999999, , ,ABSENT,O,93
1178891.58615406,672984.925991148,556,08/25/93,OCEAN BEACH STATE PARK,41,18.36899948,72,5.96199989,A,0, , ,ABSENT,O,93
1178896.64913605,672912.315900147,557,08/25/93,OCEAN BEACH STATE PARK,41,18.35700035,72,5.96099996,L,3.70000004, , SOLITARY SHORTSHOOTS,ABSENT,O,93
1178715.21609998,672655.91910322,558,08/25/93,OCEAN BEACH STATE PARK,41,18.31500053,72,6.00099992,A,1.79999995, , ,ABSENT,O,93
1178815.90290648,672644.826933816,559,08/25/93,OCEAN BEACH STATE PARK,41,18.31299972,72,5.97900009,P,0, , PATCHY,ABSENT,O,93
1165824.72711723,672605.280096889,560,10/22/93,WHITE PT.,41,18.3220005,72,8.81599998,A,0, , BOULDERS,ABSENT,O,93
1178780.84195296,672548.184082478,561,08/25/93,OCEAN BEACH STATE PARK,41,18.29700088,72,5.98699998,P,2.0999999, , ROCKS  BETWEEN LARGE BOULDERS,ABSENT,O,93
1178978.2168863,672469.608124137,562,08/25/93,OCEAN BEACH STATE PARK,41,18.28400039,72,5.94399976,A,4, , STEEP,ABSENT,O,93
1165987.29109655,672375.137840644,563,10/22/93,WHITE PT.,41,18.28400039,72,8.78100013,M,3.0999999, , SAND,ABSENT,O,93
1160477.32311389,672301.8771604,564,10/18/94,JORDAN COVE,41,18.28899955,72,9.96000003,A,3,0,ROCKS,"CHON,LAMI,ULVA",A,94
1160455.44914189,672229.079077646,565,10/18/94,JORDAN COVE,41,18.27700042,72,9.96500015,A,7,0, ,ABSENT,A,94
1150304.88512547,671821.313160896,566,10/18/94,NIANTIC BAY,41,18.20999908,72,12.20600032,M,2,0,BETWEEN CRESCENT BEACH & BLACK PT.,ABSENT,O,94
1109106.81889972,671815.889943391,567,06/16/95,WEST BANK CT RIVER,41,18.24600028,72,21.20199966,A,1.29999995,11:17,MUD/SAND/SILT,ENTE,O,95
1150432.63486998,671773.187929064,568,10/18/94,NIANTIC BAY,41,18.20199966,72,12.17800045,M,2.29999995,0,BETWEEN CRESCENT BEACH & BLACK PT.,ABSENT,O,94
1150625.32214864,671707.690028563,569,10/18/94,NIANTIC BAY,41,18.19099998,72,12.13599967,M,3.70000004,0, ,ABSENT,O,94
1150567.1969368,671707.330121145,570,10/18/94,NIANTIC BAY,41,18.19099998,72,12.14900016,M,3.29999995,0,BETWEEN CRESCENT BEACH & BLACK PT.,ABSENT,O,94
1150636.57212614,671701.830132142,571,10/18/94,NIANTIC BAY,41,18.19000053,72,12.13399982,A,3.70000004,0,"EDGE OF BED; LAMINARIA EAST OF BED",LAMI,O,94
1176936.05102314,671653.662905648,572,08/25/93,HARKNESS MEMORIAL PARK,41,18.15200042,72,6.39099979,P,2.40000009, , EDGE OF BED,ABSENT,O,93
1177005.55088414,671628.975947142,573,08/25/93,HARKNESS MEMORIAL PARK,41,18.14800071,72,6.37599992,P,2.5999999, , ,ABSENT,O,93
1176978.86294539,671616.912979141,574,08/25/93,HARKNESS MEMORIAL PARK,41,18.1459999,72,6.38199996,A,3, , ,ABSENT,O,93
1167100.17010438,671527.467948064,575,08/30/93,WHITE PT.,41,18.14299964,72,8.53899955,H,0, ," SAND; BOULDERS PATCHY",ABSENT,O,93
1167095.92011289,671496.295110136,576,08/30/93,WHITE PT.,41,18.13800048,72,8.53999996,P,0, , BOULDERS ONE TALL PATCH,ABSENT,O,93
1167293.23205422,671419.108912811,577,08/30/93,MAGONK PT. - WHITE PT.,41,18.125,72,8.49699974,H,3.5, ," SAND; ROCK THICK PATCHES",LAMI,O,93
1177168.48986273,671369.239918053,578,08/25/93,HARKNESS MEMORIAL PARK,41,18.10499954,72,6.34100008,P,3.70000004, , ,ABSENT,O,93
1178409.73409939,671348.897110984,579,08/25/93,HARKNESS MEMORIAL PARK,41,18.10000038,72,6.07000017,A,4, , ,ABSENT,O,93
1167513.35792631,671275.359856471,580,08/30/93,MAGONK PT.,41,18.10099983,72,8.44900035,A,0, , SAND.ROCK,LAMI,O,93
1166677.29988714,671244.270023644,581,10/22/93,WHITE PT.,41,18.09700012,72,8.63199996,M,3.40000009, , SAND,ABSENT,O,93
1177534.74109872,671140.694115311,582,08/25/93,HARKNESS MEMORIAL PARK,41,18.06699943,72,6.26100015,P,4, , ,ABSENT,O,93
1172272.39598039,671118.81095697,583,08/25/93,WATERFORD PUBLIC BEACH,41,18.08099937,72,7.40999984,P,0, , EDGE OF BED,ABSENT,A,93
1171503.65014255,671105.613148734,584,08/25/93,WATERFORD PUBLIC BEACH,41,18.07799911,72,7.57800006,H,0, , THICK,ABSENT,A,93
1172286.64595188,671101.98290664,585,08/25/93,WATERFORD PUBLIC BEACH,41,18.06699943,72,7.40700006,P,0, , EDGE OF BED,ABSENT,O,93
1172150.27188081,671095.059035972,586,08/25/93,WATERFORD PUBLIC BEACH,41,18.06599998,72,7.43699979,P,0, , ,ABSENT,O,93
1172013.89715356,671094.073145553,587,08/25/93,WATERFORD PUBLIC BEACH,41,18.06599998,72,7.467,A,0, , ,ABSENT,O,93
1171499.3381433,671087.7851004,588,08/25/93,WATERFORD PUBLIC BEACH,41,18.07500076,72,7.57899999,H,0, , ,ABSENT,A,93
1171935.77296597,671069.790057644,589,08/25/93,WATERFORD PUBLIC BEACH,41,18.06200027,72,7.4840002,P,0, , ,ABSENT,O,93
1171491.40213555,670987.986087397,590,08/25/93,WATERFORD PUBLIC BEACH,41,18.04899978,72,7.58099985,P,2.0999999, , ,ABSENT,O,93
1173043.0181268,670973.30403015,591,08/25/93,WATERFORD PUBLIC BEACH,41,18.05400085,72,7.2420001,P,2.40000009, , CONTINUOUS,ABSENT,A,93
1172395.21003923,670933.748006895,592,08/25/93,WATERFORD PUBLIC BEACH,41,18.03899955,72,7.38399982,P,0, , ,ABSENT,O,93
1167794.48498872,670912.482957557,593,08/30/93,MAGONK PT.,41,18.06999969,72,8.38799953,P,0, ," SAND ONE PATCH; EDGE OF BED",ABSENT,A,93
1173430.14202447,670899.401946977,594,08/25/93,WATERFORD PUBLIC BEACH,41,18.04000091,72,7.15600013,A,0, , ,"CHOR,LAMI",A,93
1170993.53108406,670874.680867806,595,08/30/93,WATERFORD PUBLIC BEACH,41,18.03100013,72,7.69000005,P,0, , NEAR EDGE OF BED,ABSENT,O,93
1171364.84103698,670859.561147392,596,08/30/93,WATERFORD PUBLIC BEACH,41,18.02799987,72,7.6090002,H,3.0999999, , THICK,ABSENT,O,93
1171483.40313581,670854.500133887,597,08/25/93,WATERFORD PUBLIC BEACH,41,18.02700042,72,7.58300018,L,3.0999999, , THINNING,ABSENT,O,93
1170984.9061013,670831.617961809,598,08/30/93,WATERFORD PUBLIC BEACH,41,18.02400016,72,7.69199991,P,0, , ,ABSENT,O,93
1167911.36106731,670827.326959893,599,08/30/93,MAGONK PT.,41,18.05599975,72,8.36299991,H,1.39999997, , NEAR ROCK BAND,ABSENT,A,93
1171483.90411906,670787.78012298,600,08/25/93,WATERFORD PUBLIC BEACH,41,18.01600074,72,7.58300018,P,3.70000004, , ,ABSENT,O,93
1176077.25385623,670766.576097146,601,08/25/93,HARKNESS MEMORIAL PARK,41,18.00699996,72,6.57999992,L,2.70000004, ," GRAVEL THIN; SHORT; SPARSE",AGAR,O,93
1170828.90805373,670751.911100224,602,08/30/93,WATERFORD PUBLIC BEACH,41,18.01099967,72,7.72599983,A,2.40000009, , ,ABSENT,O,93
1167970.11193405,670737.294987723,603,08/30/93,MAGONK PT.,41,18.04100036,72,8.35000038,A,3.0999999, , ,ABSENT,A,93
1171059.40693656,670735.789085224,604,08/30/93,WATERFORD PUBLIC BEACH,41,18.00799942,72,7.67600011,H,0, ," SAND; LEDGE EDGE OF BED","CODI,LAMI",O,93
1171021.3450048,670735.507917807,605,08/30/93,WATERFORD PUBLIC BEACH,41,18.00799942,72,7.68400001,A,0, , ROCK,ABSENT,O,93
1173651.32990231,670712.260917053,606,08/25/93,WATERFORD PUBLIC BEACH,41,18.02899932,72,7.11000013,A,2.40000009, , SAND,ABSENT,A,93
1173664.51786806,670704.620840475,607,08/25/93,WATERFORD PUBLIC BEACH,41,18.03499984,72,7.10699987,A,2.70000004, , ,ABSENT,A,93
1168268.23600972,670652.469041899,608,08/30/93,MAGONK PT. - SEASIDE PT.,41,18.01899909,72,8.28499984,M,3.40000009, , EDGE OF BED,ABSENT,A,93
1169102.04405339,670603.776882067,609,08/30/93,SEASIDE PT.,41,17.99200057,72,8.09599971,H,0, , ,ABSENT,A,93
1168639.79694639,670600.254907474,610,08/30/93,SEASIDE PT.,41,18.01000022,72,8.20400047,H,0, , THICK,ABSENT,A,93
1168691.35885113,670582.833026305,611,08/30/93,SEASIDE PT.,41,18.00699996,72,8.19299983,H,2.70000004, , THICK,ABSENT,A,93
1169106.73203614,670568.229052886,612,08/30/93,SEASIDE PT.,41,17.98600006,72,8.09500026,P,2.70000004, , EDGE OF BED,ABSENT,A,93
1170367.47492146,670554.371140972,613,08/30/93,WATERFORD PUBLIC BEACH,41,17.97900009,72,7.82700014,A,3.0999999, ," ROCKS; BOULDERS",LAMI,O,93
1170756.72414297,670527.51587972,614,08/30/93,WATERFORD PUBLIC BEACH,41,17.97400093,72,7.7420001,A,3.5, , ,ABSENT,O,93
1174522.63983947,670523.800992146,615,08/25/93,HARKNESS MEMORIAL PARK,41,17.96899986,72,6.92000007,A,0, , SMALL BOULDERS,LAMI,O,93
1170651.97500864,670483.763998732,616,08/30/93,WATERFORD PUBLIC BEACH,41,17.96699905,72,7.76499986,A,3.5, , ROCK,LAMI,O,93
1170305.35201421,670481.275158554,617,08/30/93,SEASIDE PT.,41,17.96699905,72,7.84100008,P,0, , BOULDERS EDGE OF BED,ABSENT,O,93
1170305.47701398,670469.415930316,618,08/30/93,SEASIDE PT.,41,17.96500015,72,7.84100008,P,3.40000009, , EDGE OF BED,ABSENT,O,93
1169149.98293389,670464.760099724,619,08/30/93,SEASIDE PT.,41,17.96899986,72,8.08600044,P,3.0999999, , ,ABSENT,A,93
1170236.16514473,670462.993042886,620,08/30/93,SEASIDE PT.,41,17.9640007,72,7.85599994,P,0, , ,ABSENT,O,93
1169132.23395364,670446.836907223,621,08/30/93,SEASIDE PT.,41,17.9659996,72,8.09000015,A,0, , ROCK,ABSENT,A,93
1170131.29101063,670431.100062057,622,08/30/93,SEASIDE PT.,41,17.95899963,72,7.87900018,P,3.0999999, , EDGE OF BED,ABSENT,O,93
1171372.40893522,670428.179136142,623,08/25/93,WATERFORD PUBLIC BEACH,41,17.95700073,72,7.6079998,P,4.5999999, , ONE TALL PATCH,ABSENT,O,93
1171354.59696297,670422.117140397,624,08/25/93,WATERFORD PUBLIC BEACH,41,17.95599937,72,7.61199998,L,4.5999999, , ,ABSENT,O,93
1169957.41799881,670351.268856898,625,08/30/93,SEASIDE PT.,41,17.94599914,72,7.91699981,P,0, , ,ABSENT,O,93
1169884.48212105,670235.109968483,626,08/30/93,SEASIDE PT.,41,17.92700004,72,7.93300008,A,0, , ROCK,LAMI,O,93
1140938.20602421,669982.013033733,627,11/03/94,ROCKY NECK,0,0,0,0,A,1.29999995, ,OFF ROCKY NECK NEAR HOUSES,ABSENT,A,94
1175475.51785497,669887.352133811,628,08/25/93,HARKNESS MEMORIAL PARK,41,17.86300086,72,6.71299982,A,0, , ,ABSENT,O,93
1139531.96605456,669819.132125899,629,11/03/94,ROCKY NECK,41,17.89100074,72,14.56099987,M,1.29999995,1:34,SNORKELING TOWARD SHORE,ABSENT,O,94
1139632.83986856,669770.804138556,630,11/03/94,ROCKY NECK,41,17.88299942,72,14.53899955,M,1.70000004, ,NEAR SHORE,ABSENT,O,94
1139545.65401931,669764.364846975,631,11/03/94,ROCKY NECK,41,17.88199996,72,14.55799961,A,0, , ,ABSENT,O,94
1141954.26599997,669741.601112977,632,12/01/94,WEST OF GIANTS NECK,41,17.87599945,72,14.03199958,A,1.70000004, , ,ABSENT,O,94
1143298.44605438,669720.02405639,633,11/03/94,TOWARD GIANTS NECK,41,17.87100028,72,13.73900032,M,1.70000004,12:49,"EELGRASS PATCHES IN SMALL SANDY SPACES; BEDROCK",FUCU,O,94
1140127.71387881,669664.012029305,634,11/03/94,ROCKY NECK,41,17.86499977,72,14.43099975,M,2.29999995, , ,ABSENT,O,94
1140608.64894055,669643.142976567,635,11/03/94,LANDS END ROCKY NECK,41,17.86100006,72,14.32600021,M,2.29999995, ,EDGE OF EELGRASS BED,ABSENT,O,94
1141049.3970748,669608.694882721,636,11/03/94,LANDS END ROCKY NECK,41,17.85499954,72,14.22999954,A,0, ,SOUTH EDGE OF EELGRASS BED,ABSENT,O,94
1139013.2830368,669578.151964813,637,11/03/94,ROCKY NECK,0,0,0,0,M,1.70000004, ,BY ROCKY NECK BREAKWATER,ABSENT,A,94
1140463.77587073,669556.279961303,638,11/03/94,LANDS END ROCKY NECK,41,17.84700012,72,14.3579998,A,3,1:58,SOUTH EDGE OF EELGRASS BED,ABSENT,O,94
1140980.39786898,669553.411856815,639,11/03/94,LANDS END ROCKY NECK,41,17.84600067,72,14.24499988,A,2.29999995, , ,ABSENT,O,94
1142208.14114839,669548.897102058,640,12/01/94,WEST OF GIANTS NECK,41,17.84399986,72,13.97700023,A,1.70000004,11:59,"MED.COARSE SAND; ALGAL DETRITUS",ABSENT,O,94
1139393.72092421,669367.606126055,641,11/03/94,ROCKY NECK,41,17.81699943,72,14.592,A,1.29999995, , ,ABSENT,O,94
1143716.57185856,669357.836132482,642,11/03/94,TOWARD GIANTS NECK,41,17.81100082,72,13.64799976,H,2.29999995,12:42, ,ABSENT,O,94
1144128.0700513,669354.387976646,643,11/03/94,TOWARD GIANTS NECK,41,17.80999946,72,13.55799961,M,1.29999995, , ,ABSENT,O,94
1142273.26798664,669306.814909056,644,12/01/94,WEST OF GIANTS NECK,41,17.80400085,72,13.93799972,L,2.70000004,11:55,CHONDRUS ALONG ROCKY OUTCROP,"CHON,LAMI",A,94
1138738.84985864,669297.048852473,645,11/03/94,LANDS END ROCKY NECK,41,17.80599975,72,14.73499965,L,1,2:15, ,ABSENT,O,94
1142337.64285789,669286.160094723,646,12/01/94,WEST OF GIANTS NECK,41,17.80100059,72,13.92000007,L,2, ,CHONDRUS ALONG ROCKY OUTCROP,"CHON,LAMI",A,94
1142269.20598689,669240.080134392,647,12/01/94,WEST OF GIANTS NECK,41,17.79299926,72,13.93900012,A,2.70000004, , ,ABSENT,A,94
1142214.45708063,669239.063076064,648,12/01/94,WEST OF GIANTS NECK,41,17.79299926,72,13.97599983,A,0, ,"SALINITY 31.0; TEMP 8 C",ABSENT,O,94
1143267.82603689,669233.5309349,649,10/25/94,TOWARD SEAL ROCK,41,17.79100036,72,13.74600028,M,0,2:08,"PATCHY CLUMPS OF EELGRASS; NEAR BUOY",ABSENT,O,94
1143346.26288788,669210.280981392,650,10/25/94,TOWARD SEAL ROCK,41,17.78700065,72,13.72900009,M,3.70000004, , ,ABSENT,O,94
1138922.78813906,669201.752127066,651,11/03/94,LANDS END ROCKY NECK,41,17.79000091,72,14.69499969,A,1.29999995, , ,ABSENT,O,94
1138927.47513756,669170.642937303,652,11/03/94,LANDS END ROCKY NECK,41,17.78499984,72,14.69400024,A,1.70000004, , ,ABSENT,O,94
1144285.75904039,669167.058954984,653,11/03/94,TOWARD GIANTS NECK,41,17.77899932,72,13.52400016,M,1, , ,ABSENT,O,94
1142270.83196789,669160.812904477,654,12/01/94,WEST OF GIANTS NECK,41,17.78000068,72,13.96399974,A,3, ,CHONDRUS ALONG ROCKY OUTCROP,"CHON,LAMI",O,94
1138936.60110356,669135.110856146,655,11/03/94,LANDS END ROCKY NECK,41,17.77899932,72,14.69200038,L,1.29999995, ,ONE TO TWO SHORT SHOOTS,ABSENT,O,94
1140566.9669373,669125.444864973,656,11/03/94,LANDS END ROCKY NECK,41,17.77599906,72,14.33600044,A,3.29999995, ,SOUTH EDGE OF EELGRASS BED,ABSENT,O,94
1144335.19594939,669124.371048227,657,11/03/94,TOWARD HUNTLEY IS.,41,17.77199935,72,13.51299953,H,1, , ,ABSENT,O,94
1144335.25894138,669118.433067977,658,11/03/94,TOWARD HUNTLEY IS.,41,17.7709999,72,13.51299953,A,1, , ,ABSENT,O,94
1143526.20216055,669034.936843887,659,10/25/94,TOWARD SEAL ROCK,41,17.75799942,72,13.68999958,L,4, ,EELGRASS CLUMPS TOWARD SEAL ROCK,ABSENT,O,94
1143517.32685022,669028.951947734,660,10/25/94,TOWARD SEAL ROCK,41,17.75699996,72,13.69200038,L,4, , ,ABSENT,O,94
1144231.19911014,668947.304145142,661,11/03/94,TOWARD HUNTLEY IS.,41,17.74300003,72,13.53600025,H,1, , ,ABSENT,O,94
1143614.01497705,668937.623062149,662,10/25/94,TOWARD SEAL ROCK,41,17.74200057,72,13.67099952,L,4,1:56, ,ABSENT,O,94
1163893.52986413,668935.664076567,663,08/30/93,TWO TREE IS.,41,17.71999931,72,9.24300003,A,0, , ROCK,ABSENT,O,93
1164640.46308155,668934.909156814,664,08/30/93,TWO TREE IS.,41,17.71899986,72,9.07999992,H,3.20000004, , SAND PATCHY,ABSENT,O,93
1142958.76792797,668933.661127806,665,11/03/94,PATTAGANSETT RIVER,41,17.74200057,72,13.81400012,A,2.29999995, , ,ABSENT,O,94
1143650.07789706,668888.903999478,666,10/25/94,TOWARD SEAL ROCK,41,17.73399925,72,13.6630001,L,4, , ,ABSENT,O,94
1142889.83204222,668872.455869645,667,11/03/94,PATTAGANSETT RIVER,41,17.73200035,72,13.82900047,A,3.70000004, ,BY SEAL ROCK,ABSENT,O,94
1143793.70293789,668811.202055141,668,10/25/94,TOWARD SEAL ROCK,41,17.72100067,72,13.63199996,L,3.70000004, , ,ABSENT,O,94
1143588.45498881,668725.446977317,669,11/03/94,PATTAGANSETT RIVER,41,17.70700073,72,13.67700004,L,0, ,"ONE SHORT SHOOT 12"" TALL",ABSENT,O,94
1144122.95195131,668722.766864553,670,11/03/94,TOWARD HUNTLEY IS.,41,17.70599937,72,13.56000041,H,1.29999995,12:21, ,ABSENT,O,94
1143894.89007147,668715.450934306,671,10/25/94,TOWARD SEAL ROCK,41,17.70499992,72,13.60999965,M,4, , ,ABSENT,O,94
1144096.20200481,668710.735064477,672,10/25/94,TOWARD SEAL ROCK,41,17.70400047,72,13.56599998,H,2.70000004,1:42, ,ABSENT,O,94
1143505.89314605,668693.821056306,673,11/03/94,PATTAGANSETT RIVER,41,17.70199966,72,13.69499969,A,0, , ,ABSENT,O,94
1143886.57906447,668611.6050134,674,10/25/94,TOWARD SEAL ROCK,41,17.68799972,72,13.61200046,L,3.70000004, , ,ABSENT,O,94
1137551.23904489,668550.283941805,675,11/03/94,POINT O'WOODS,41,17.68400001,72,14.99499988,M,2.29999995, , ,ABSENT,O,94
1137468.80088955,668500.891980231,676,11/03/94,POINT O'WOODS,41,17.67600059,72,15.01299953,M,2.29999995,2:30,EDGE OF EELGRASS BED,ABSENT,O,94
1164053.84811306,668389.673042566,677,08/30/93,TWO TREE IS.,41,17.62999916,72,9.20899963,A,0, , ROCK,ABSENT,O,93
1145536.76113155,668294.013128892,678,10/25/94,BLACK POINT,41,17.63400077,72,13.25199985,L,1.70000004, ,EELGRASS TO SHORE AND BETWEEN ROCKS,ABSENT,O,94
1144928.45198072,668290.28610222,679,10/25/94,GRISWOLD IS.,41,17.63400077,72,13.38500022,H,0,12:55,EAST OF GRISWOLD IS.,ABSENT,O,94
1143859.52006347,668277.849119231,680,11/03/94,PATTAGANSETT RIVER,41,17.63299942,72,13.61800003,M,4, ,SEVEN SHORT SHOOTS/M2,ABSENT,O,94
1145205.95109764,668266.789101973,681,10/25/94,BLACK POINT,41,17.62999916,72,13.32400035,M,2.70000004, , ,ABSENT,O,94
1145179.13815914,668260.694954067,682,10/25/94,BLACK POINT,41,17.62899971,72,13.32999992,M,1.70000004,11:43,EELGRASS TO THE ROCKS,ABSENT,O,94
1145297.82492964,668231.758004054,683,10/25/94,BLACK POINT,41,17.62400054,72,13.3039999,M,2, ,EELGRASS CLUMPS,ABSENT,O,94
1144832.89114822,668197.782022148,684,10/25/94,GRISWOLD IS.,41,17.61899948,72,13.40600013,H,3, ,"EDGE OF BED; TWENTY YARDS OFF SHORE",ABSENT,O,94
1144875.70307048,668192.126849726,685,10/25/94,GRISWOLD IS.,41,17.61800003,72,13.3959999,H,3, ,"EELGRASS TO LONG LEDGE; GRISWOLD IS.",ABSENT,A,94
1145376.51309247,668171.460880563,686,10/25/94,BLACK POINT,41,17.61400032,72,13.2869997,M,2.70000004, ,EELGRASS CONTINUOUS,ABSENT,O,94
1143806.64713772,668150.018010065,687,11/03/94,PATTAGANSETT RIVER,41,17.61199951,72,13.63000011,A,4, , ,ABSENT,O,94
1145385.63807422,668140.382858723,688,10/25/94,BLACK POINT,41,17.60899925,72,13.28499984,M,0,11:39,EELGRASS CLUMPS,ABSENT,O,94
1137504.49307539,668124.509858981,689,11/03/94,POINT O'WOODS,41,17.61400032,72,15.00599956,M,2.70000004,2:37, ,ABSENT,O,94
1145450.76392822,668093.336036816,690,10/25/94,BLACK POINT,41,17.60099983,72,13.2709999,L,2.29999995, , ,ABSENT,O,94
1144891.82902247,668070.639887974,691,10/25/94,GRISWOLD IS.,41,17.59799957,72,13.39299964,M,3.70000004, ,EELGRASS REASONABLY CLOSE TO ROCKS,ABSENT,O,94
1144607.95590256,668039.244937643,692,10/25/94,GRISWOLD IS.,41,17.59300041,72,13.45499992,L,2,1:19, ,ABSENT,O,94
1144630.45585756,668015.666900814,693,10/25/94,GRISWOLD IS.,41,17.5890007,72,13.4499998,L,3, ,"EELGRASS CLUMPS; HARD BOTTOM",LAMI,O,94
1144612.70687731,667996.290955305,694,10/25/94,GRISWOLD IS.,41,17.58600044,72,13.45400047,H,1.70000004, ,"EDGE OF BED; VERY DENSE TO BEACH",ABSENT,O,94
1144731.64397539,667930.292071566,695,10/25/94,GRISWOLD IS.,41,17.57500076,72,13.42800045,L,3, , ,ABSENT,O,94
1145382.64103296,667898.691084892,696,10/25/94,LONG LEDGE,41,17.56900024,72,13.28600025,L,0, ,ONE SHORT SHOOT EVERY FOOT,ABSENT,O,94
1144244.83490963,667895.205855638,697,11/03/94,PATTAGANSETT RIVER,41,17.58099937,72,13.53600025,A,5, ,ASCOPHYLLUM DOMINANT,"ASCO,FUCU",A,94
1144325.33507672,667806.236873478,698,11/03/94,GRISWOLD IS.,41,17.5550003,72,13.51700019,A,0,11:12,VISIBILITY ONE FOOT,ABSENT,O,94
1164566.16500181,667720.107124478,699,08/30/93,TWO TREE IS.,41,17.51899909,72,9.09799957,A,1.5, , ROCK,LAMI,O,93
1164291.47985564,667657.414992645,700,08/30/93,TWO TREE IS.,41,17.50900077,72,9.15799999,A,3.40000009, , ROCK,LAMI,O,93
1139095.36489365,667617.817958981,701,12/01/94,NORTH BROTHER,41,17.52899932,72,14.65900039,A,5, ,MOUTH OF 3 MILE RIVER,ABSENT,O,94
1108797.52916397,667581.587060317,702,06/16/95,NORTH COVE N ENTRANCE,41,17.54899978,72,21.27400016,A,0.60000002,11:27,MUD/SHOALS FORMING,ENTE,O,95
1137478.93603989,667516.481875554,703,11/03/94,POINT O'WOODS,41,17.51399993,72,15.01200008,L,3.29999995, ,LOW TIDE,ABSENT,O,94
1168137.08600955,667513.855896562,704,08/30/93,BARTLETT REEF,41,17.4810009,72,8.31900024,A,0, , ROCK,LAMI,O,93
1146852.57510097,667439.233998567,705,10/25/94,BLACK POINT,41,17.49200057,72,12.9659996,A,3,11:21, ,ABSENT,O,94
1150777.93011114,667403.084136471,706,10/18/94,NIANTIC BAY,41,17.48200035,72,12.1090002,A,0,0, ,LAMI,O,94
1147320.26084539,667400.613997057,707,10/25/94,BLACK POINT,41,17.48500061,72,12.86400032,A,1.70000004, , ,ABSENT,O,94
1150717.55490381,667396.769844636,708,10/18/94,NIANTIC BAY,41,17.4810009,72,12.12199974,H,3,0,"BLACK PT. BIG ROCKS; SEAGRASS IN SAND",ABSENT,O,94
1150769.18012863,667373.365035817,709,10/18/94,NIANTIC BAY,41,17.47699928,72,12.11100006,M,2.70000004,0, ,ABSENT,O,94
1150692.99294506,667362.488089055,710,10/18/94,NIANTIC BAY,41,17.47200012,72,12.12100028,A,0,0,THE BIGGEST CLUMP OF ASCOPHYLLUM CHARLIE HAS EVER SEEN!,ASCO,A,94
1150708.86791331,667361.128839806,711,10/18/94,NIANTIC BAY,41,17.47500038,72,12.12399959,M,1.70000004,0,BLACK PT.,ASCO,O,94
1150722.3678863,667341.940886065,712,10/18/94,NIANTIC BAY,41,17.47200012,72,12.12100028,M,2.29999995,3:33,BETWEEN CRESCENT BEACH & BLACK PT.,ABSENT,O,94
1136896.49691606,666906.723908722,713,12/01/94,MOUTH OF 3 MILE RIVER,41,17.41399955,72,15.14000034,L,1.29999995, ,SNORKELING TOWARD 3 MILE RIVER,ABSENT,O,94
1136891.99692506,666906.693068892,714,12/01/94,MOUTH OF 3 MILE RIVER,41,17.41399955,72,15.14099979,L,1.29999995, , ,ABSENT,O,94
1137002.99899964,666856.473024979,715,12/01/94,MOUTH OF 3 MILE RIVER,41,17.40699958,72,15.11699962,L,1.29999995,12:47, ,ASCO,A,94
1136861.12297106,666839.801142305,716,12/01/94,MOUTH OF 3 MILE RIVER,41,17.40299987,72,15.14799976,L,1.29999995, , ,ABSENT,O,94
1137281.6900433,666822.938971311,717,11/03/94,POINT O'WOODS,41,17.39999961,72,15.05599975,A,3.70000004,2:45, ,ABSENT,O,94
1137080.50114122,666803.986909479,718,12/01/94,MOUTH OF 3 MILR RIVER,41,17.39699935,72,15.10000038,L,2.29999995, , ,ABSENT,O,94
1137058.25085764,666780.143125147,719,12/01/94,MOUTH OF 3 MILR RIVER,41,17.39299964,72,15.10499954,L,2, , ,ABSENT,O,94
1136674.24703246,666662.284108892,720,12/01/94,MOUTH OF 3 MILE RIVER,41,17.37400054,72,15.18900012,L,1.29999995, , ,ABSENT,O,94
1136844.62497255,666596.547035649,721,12/01/94,MOUTH OF 3 MILE RIVER,41,17.36300086,72,15.15200042,M,1.29999995,12:33,"SAND:HIGH ENERGY AREA; EELGRASS ROOT EXPOSURE",ABSENT,O,94
1136898.56285681,666553.858144641,722,12/01/94,MOUTH OF 3 MILR RIVER,41,17.3560009,72,15.14000034,H,3, ,PATCHY,ABSENT,O,94
1147650.26904364,666484.915041059,723,10/25/94,BLACK POINT,41,17.33399963,72,12.79300022,A,2.70000004, ,BEACH-LIKE SAND TO SHORE,ABSENT,O,94
1136452.93612339,666253.293128982,724,12/01/94,MOUTH OF 3 MILE RIVER,41,17.3069992,72,15.23799991,L,2, ,"VERY ROCKY SHORELINE; HUGH BOULDERS",ABSENT,O,94
1148084.52604914,665523.480940312,725,10/25/94,BLACK POINT,41,17.17900085,72,12.68599987,A,3, ,CHONDRUS ON SHORE,CHON,A,94
1150358.57793146,665464.089982972,726,10/25/94,BLACK POINT,41,17.1630001,72,12.20300006,A,3.29999995,10:39, ,ABSENT,O,94
1150401.32784598,665421.370908305,727,10/25/94,BLACK POINT,41,17.15600013,72,12.19400024,A,0, ,"HIGH TIDE: 0715;LOW TIDE: 1253",ABSENT,O,94
1150130.89203514,665388.522876889,728,10/25/94,BLACK POINT,41,17.15099906,72,12.25300025,L,2.29999995, ,EELGRASS CLUMPS,"ASCO,LAMI",O,94
1149907.95711355,665272.940102816,729,10/18/94,NIANTIC BAY,41,17.13199996,72,12.30200004,H,2,3:48,PATCHY EELGRASS,ABSENT,O,94
1149961.89499781,665230.284020141,730,10/18/94,NIANTIC BAY,41,17.125,72,12.28999996,A,2.29999995,0,LAMINARIA ON ROCKS,"ASCO,LAMI",O,94
1149302.77394073,665122.350837067,731,10/25/94,BLACK POINT,41,17.1079998,72,12.43400001,A,3, ,LAMINARIA ONLY FLOATING,LAMI,O,94
1135491.12308639,665082.448029727,732,12/01/94,HATCHETT POINT,41,17.11499977,72,15.44900035,L,2,1:12,EDGE OF EELGRASS BED,ABSENT,O,94
1135578.49889588,665059.228916064,733,12/01/94,HATCHETT POINT,41,17.11100006,72,15.4300003,L,2.29999995, , ,ABSENT,O,94
1135679.25099097,665040.523900971,734,12/01/94,HATCHETT POINT,41,17.1079998,72,15.40799999,L,3,1:04, ,ABSENT,O,94
1135616.81312372,665016.445865139,735,12/01/94,HATCHETT POINT,41,17.10400009,72,15.42199993,L,2.70000004, , ,ABSENT,O,94
1135684.18897322,664961.976157814,736,12/01/94,HATCHETT POINT,41,17.09499931,72,15.40699958,L,3, , ,ABSENT,O,94
1134818.7481188,664143.090984553,737,12/01/94,HATCHETT POINT,41,16.96100044,72,15.59700012,L,2.29999995, ,ROCK AND SAND: LAMINARIA AND EELGRASS,LAMI,O,94
1134765.49789722,664064.21515806,738,12/01/94,HATCHETT POINT,41,16.94799995,72,15.6090002,A,0,1:17,ROCK AND SAND: LAMINARIA AND EELGRASS,LAMI,O,94
1132812.84891538,664047.306071147,739,12/01/94,TOWARD CONNECTICUT R.,41,16.9470005,72,16.03499984,A,1.70000004,2:17, ,ABSENT,O,94
1133845.11391123,663858.857957229,740,12/01/94,HATCHETT POINT,41,16.91500091,72,15.81000041,A,2,1:35,SANDY,ABSENT,O,94
1133968.3659613,663816.559157312,741,12/01/94,TOWARD CONNECTICUT R.,41,16.90800094,72,15.78299999,A,1.70000004, , ,ABSENT,O,94
1130249.44590572,663625.408949062,742,12/01/94,TOWARD CONNECTICUT R.,41,16.87999916,72,16.59499931,A,1.70000004, , ,ABSENT,O,94
1130039.38103713,663588.675098643,743,12/01/94,TOWARD CONNECTICUT R.,41,16.87400054,72,16.64100074,A,2.70000004, , ,ABSENT,O,94
1134227.68499647,663447.363045305,744,12/01/94,HATCHETT POINT,41,16.84700012,72,15.72700023,A,2.70000004,1:29,BOULDERS ON SAND,"CHON,LAMI",O,94
1110365.13692114,663283.255105808,745,06/16/95,SOUTH COVE N ENTRANCE,41,16.84000015,72,20.93600082,A,1,11:34,MUD/SILT,ABSENT,O,95
1127087.78687473,662970.793132305,746,12/01/94,TOWARD CONNECTICUT R.,41,16.77499961,72,17.28599929,A,2.70000004,2:43, ,ABSENT,O,94
1127034.09898996,662970.511964887,747,12/01/94,TOWARD CONNECTICUT R.,41,16.77499961,72,17.29800033,A,2.29999995, , ,ABSENT,O,94
1077601.16800039,662600.138033733,748,05/26/95,PATCHOGUE R. CHAN N RT 1,41,16.74699974,72,28.0550003,A,2.5999999,1:17,MUD,ABSENT,A,95
1110639.4578948,662506.161843732,749,06/16/95,SOUTH COVE MAIN ENTRANCE,41,16.71199989,72,20.8770008,A,1,11:43,MUD/SILT  SALINITY 15%o,ABSENT,O,95
1123894.68991446,662298.630106553,750,12/01/94,TOWARD CONNECTICUT R.,41,16.66699981,72,17.98399925,A,0,3:00,"TWO LARGE ROCKS; SAND",ABSENT,O,94
1110659.83711913,661972.511992395,751,06/16/95,SOUTH COVE S ENTRANCE,41,16.62400054,72,20.87299919,A,0.60000002,11:48,MUD/SILT  SALINITY 15%o,ABSENT,O,95
1081907.9740193,661819.238020733,752,05/26/95,TOWARD WESTBROOK,41,16.61800003,72,27.14900016,A,2, , ,PILA,O,95
1091793.97393231,661666.980123147,753,11/17/94,OLD KELSEY POINT,41,16.58699989,72,24.99099922,A,2,12:53, ,ABSENT,O,94
1084937.44991572,661654.903047562,754,05/26/95,NORTH OF SALT ISLAND,41,16.5890007,72,26.48800086,A,2,11:29,SAND,CHON,O,95
1085206.51597863,661485.366969317,755,05/26/95,EAST OF SALT ISLAND,41,16.56100082,72,26.42900085,A,3.29999995,11:14,DIATOMS SAND,"CHON,LAMI,ULVA",O,95
1077594.41998239,661300.729871392,756,05/26/95,WESTBROOK HARBOR CHANNEL,41,16.53499984,72,28.0909996,A,3.29999995,1:04, MUD,FUCU,O,95
1080813.64910822,661269.910051137,757,05/26/95,TOWARD WESTBROOK,41,16.52799987,72,27.38800048,A,2,11:35, ,PILA,O,95
1087187.22986497,661231.584012315,758,05/26/95,TOWARD WESTBROOK,41,16.51799964,72,25.99699974,A,2.5999999,11:09,SAND,ABSENT,O,95
1095874.34109963,661112.241075143,759,11/17/94,CHAPMAN BEACH,41,16.49300003,72,24.10099983,A,1, ,BENTHIC DIATOMS,ABSENT,O,94
1077053.91384555,660970.448051646,760,05/26/95,PATCHOGUE R. CHAN S RT 1,41,16.47900009,72,28.17600059,A,2.5999999,1:20, ,ABSENT,A,95
1090493.21111389,660769.476012647,761,05/26/95,OLD KELSEY PT,41,16.44000053,72,25.27599906,A,1.60000002,11:00, ROCK SAND,"CHON,LAMI,ULVA",O,95
1088431.06005447,660628.301098138,762,11/17/94,SALT WORKS BAY (ROCK),41,16.41799926,72,25.72599983,A,1.70000004,1:07,SAND,ABSENT,O,94
1088417.87307297,660567.456075475,763,11/17/94,MONEY POINT,41,16.40800094,72,25.72900009,A,2.70000004, ,LAMINARIA ON ROCK,"CHON,LAMI",O,94
1089512.76294355,660316.538926393,764,05/26/95,OLD KELSEY PT,41,16.36599922,72,25.48999977,A,4, ,SAND,ULVA,O,95
1076744.16184039,659894.560111567,765,05/26/95,WESTBROOK HARBOR CHANNEL,41,16.30200004,72,28.24399948,A,0, , ,FUCU,A,95
1096823.42089438,659872.168095976,766,11/17/94,CHAPMAN POINT,41,16.2880001,72,23.89500045,A,1.29999995,12:36,BENTHIC DIATOMS,ABSENT,O,94
1076494.72205055,659615.901876226,767,05/26/95,WESTBROOK HRBR CHAN ENT,41,16.25799942,72,28.33200073,A,0, ,MUD,ABSENT,O,95
1078726.6890433,659179.864034399,768,05/26/95,WESTBROOK HARBOR,41,16.18499946,72,27.84499931,A,1,11:43, SHELL,ULVA,O,95
1076369.28398122,658977.972049728,769,05/26/95,WESTBROOK HARBOR JETTY,41,16.15299987,72,28.36000061,A,0, ,SAND,CHOR,O,95
1110105.66106214,658945.401904896,770,11/17/94,LYNDE PT. LIGHTHOUSE,41,16.12599945,72,20.99699974,A,2.29999995, , ,ABSENT,O,94
1110056.47284031,658939.230985478,771,11/17/94,LYNDE PT. LIGHTHOUSE,41,16.125,72,21.00799942,A,2, ,"COBBLE; ROCK",LAMI,O,94
1109960.3470483,658926.934094056,772,11/17/94,LYNDE PT. LIGHTHOUSE,41,16.12299919,72,21.02899932,A,2.29999995, , ,"CHON,ULVA",O,94
1109392.52797396,658820.530107394,773,11/17/94,FENWICK POINT,41,16.1060009,72,21.15299987,A,2.70000004, , ,ABSENT,O,94
1060744.74206764,658750.500063732,774,05/26/95,CLINTON HARBOR DOCK,41,16.12299919,72,31.77000045,A,0, , ,ABSENT,O,95
1060749.24205863,658738.639851227,775,06/01/95,CLINTON HARBOR GAS DOCK,41,16.12100028,72,31.76899909,A,0, , ,ABSENT,O,95
1060753.74204963,658732.734023139,776,05/26/95,CLINTON HARBOR DOCK,41,16.12000083,72,31.76799964,A,0, , ,ABSENT,O,95
1108516.14193147,658677.159003064,777,11/17/94,FENWICK POINT,41,16.08300018,72,21.34399986,A,1.70000004, ,SAND,ABSENT,O,94
1111537.24514122,658532.478846222,778,11/17/94,LYNDE PT. LIGHTHOUSE,41,16.0569992,72,20.68499946,A,0,11:09, ,ABSENT,O,94
1111597.68301247,658526.82203339,779,11/17/94,LYNDE PT. LIGHTHOUSE,41,16.05599975,72,20.67200088,A,2.29999995, ,"HIGH TIDE: 0823;LOW TIDE: 1509",ABSENT,O,94
1111528.87114222,658412.336041898,780,11/17/94,LYNDE PT. LIGHTHOUSE,41,16.03700065,72,20.68700027,A,0, ,"HURRICANE GORDON NEAR N.C.; WAVES 2-4 FT",ABSENT,O,94
1107167.43990447,658094.315024391,781,11/17/94,FENWICK POINT,41,15.98799991,72,21.63899993,A,2, ,"SAND; 2MM",ABSENT,O,94
1040740.22597438,658093.663122803,782,06/01/95,TUXIS ISLAND,41,16.02199935,72,36.13600158,A,3,1:02, ,ABSENT,O,95
1041863.54000072,657974.059031308,783,06/01/95,TOWARD TUXIS ISLAND,41,16.0020008,72,35.89099884,A,4,12:54,ROCK LEDGE,ABSENT,O,95
1077384.36200355,657802.57413806,784,05/26/95,MENUNKETESUCK ISLAND,41,15.95899963,72,28.13899993,A,1.60000002,12:08,SAND,ABSENT,O,95
1029477.90401089,657786.25789772,785,06/01/95,HOGSHEAD PT EAST RIV BCH,41,15.97399997,72,39.59400177,A,1.29999995,1:48, ,ABSENT,A,95
1098560.76814148,657413.694994554,786,11/17/94,OYSTER RIVER (SANDBAR,41,15.88199996,72,23.51799964,A,2,12:28, ,ABSENT,O,94
1106016.24207564,657353.780088142,787,11/17/94,KNOLLWOOD,41,15.86699962,72,21.89100074,A,2.70000004,11:44, ,ABSENT,O,94
1069138.62915123,657339.877884984,788,05/26/95,CLINTON BEACH,41,15.88700008,72,29.93899917,A,1.60000002,2:05,SAND,ABSENT,O,95
1062025.9330748,657332.005853474,789,06/01/95,CLINTON HRBR NEAR PILING,41,15.88899993,72,31.49099922,L,2,11:14,MORE EELGRASS 20 YARDS TOWARD CHANNEL,ABSENT,O,95
1061967.74487098,657331.849029645,790,06/01/95,CLINTON HARBOR,41,15.88899993,72,31.50399971,L,2,11:29, ,ABSENT,O,95
1059098.68007106,657323.618074983,791,06/01/95,CHANNEL POLE,41,15.88899993,72,32.17900085,A,0, ,RUPPIA TOWARD SHORE,"ENTE,GRAC,ULVA",A,95
1102785.51198855,657309.975057647,792,11/17/94,KNOLLWOOD,41,15.86200046,72,22.59600067,A,3,11:54, ,ABSENT,O,94
1059365.93084888,657228.809865639,793,06/01/95,STUDY SITE,41,15.87300014,72,32.07199859,L,0, ,"ALSO SOME CLUMPS,RUPPIA TOWARD SHORE","ENTE,GRAC,ULVA",O,95
1058761.80607289,657084.263894901,794,06/01/95,CHANNEL POLE,41,15.85099983,72,32.24900054,L,0, ,"EELGRASS SOUTH OF POLE,RUPPIA TOWARD SHORE","ENTE,GRAC,ULVA",A,95
1061377.74506672,657063.442086145,795,06/01/95,CLINTON HARBOR,41,15.84500026,72,31.63299942,A,1,11:38,SAND,ABSENT,O,95
1078707.44400306,656984.349068478,796,05/26/95,MENUNKETESUCK ISLAND,41,15.82199954,72,27.81999969,A,2,11:50, ROCK,"LAMI,ULVA",A,95
1078327.62684931,656818.53706415,797,05/26/95,MENUNKETESUCK ISLAND,41,15.79500007,72,27.90299987,A,0, , ROCK,FUCU,A,95
1058358.36888763,656606.56209439,798,06/01/95,CHANNEL POLE,41,15.7709999,72,32.29199981,L,0, ,"EELGRASS SOUTH OF POLE,RUPPIA TOWARD SHORE","ENTE,GRAC,ULVA",O,95
1060218.12008938,656440.737950981,799,06/01/95,CLINTON HARBOR,41,15.74300003,72,31.88599967,A,1,11:42,SAND,ABSENT,O,95
1099169.34402405,656353.188913479,800,11/17/94,CORNFIELD POINT,41,15.70699977,72,23.38599967,A,1.70000004,12:19,ROCKS,"CHON,LAMI,ULVA",O,94
1100407.17291322,656236.80299139,801,11/17/94,CORNFIELD POINT CASTL,41,15.68700027,72,23.11599922,A,3.70000004,12:08,"COBBLE; SAND; NEAR CASTLE",CHON,O,94
981718.206879556,656231.212123305,802,06/01/95,BRANFORD HARBOR GAS DOCK,41,15.72000026,72,49.01699829,A,0,3:10, ,ABSENT,O,95
1058083.4941093,656109.56505689,803,06/01/95,CHANNEL POLE,41,15.69200038,72,32.38899993,L,0, ,"EELGRASS SOUTH OF POLE,RUPPIA TOWARD SHORE","ENTE,GRAC,ULVA",A,95
1057787.30703764,655894.993963733,804,06/01/95,CHANNEL POLE,41,15.65400028,72,32.41699981,L,0, ,"EELGRASS SOUTH OF POLE,RUPPIA TOWARD SHORE","ENTE,GRAC,ULVA",O,95
1059767.68299814,655839.126949474,805,06/01/95,CLINTON HARBOR,41,15.64400005,72,31.98500061,A,1.60000002,11:46,SAND,ABSENT,O,95
1075498.84215255,655276.614951149,806,05/26/95,DUCK ISLAND W OF JETTY,41,15.54399967,72,28.51700019,L,2.5999999,1:40,DENSE PATCH THEN SPARSE NARROW BAND,"LAMI,ULVA",A,95
1075445.46594697,655166.738858566,807,05/26/95,DUCK ISLAND W OF JETTY,41,15.52600002,72,28.52899932,M,0, ,DENSE PATCH THEN SPARSE NARROW BAND,"LAMI,ULVA",A,95
1075463.77890247,655039.28406097,808,05/26/95,DUCK ISLAND W OF JETTY,41,15.50500011,72,28.52499961,A,1.29999995,1:45,EDGE OF EELGRASS BED,ABSENT,A,95
1063238.24889164,654943.779986888,809,05/26/95,CLINTON HRBR HAMMOCK PT,41,15.49499988,72,31.22800064,A,2,2:44,LAMINARIA COMMUNITY ROCKS,LAMI,O,95
1075381.27808322,654942.658926144,810,05/26/95,DUCK ISL N OF BREAKWATER,41,15.48900032,72,28.54299926,A,2.29999995,1:46,MUD AND SHELL,LAMI,A,95
1074957.64802498,654685.798875555,811,05/26/95,DUCK ISL N OF BREAKWATER,41,15.44699954,72,28.67099952,A,2.29999995,1:48,MUD,ABSENT,O,95
1059005.37185872,654652.610949814,812,06/01/95,E OF WILLARD IS MARSH,41,15.44900035,72,32.15200042,L,0, ,BUOY SITE,ABSENT,O,95
1067126.12694263,654540.870031565,813,05/26/95,KELSEY POINT,41,15.42700004,72,30.37999916,A,1.60000002,2:13,BARE ROCK MUD SAND,LAMI,O,95
1073926.69700289,654482.428875476,814,05/26/95,DUCK ISL N OF BREAKWATER,41,15.41399955,72,28.8959999,A,0, , ,ABSENT,O,95
1073052.24796438,654321.105051145,815,05/26/95,DUCK ISL END BREAKWATER,41,15.38799953,72,29.08699989,A,2.29999995,1:58, LOBSTER,"ASCO,FUCU,LAMI",O,95
1053469.80714247,654241.69412072,816,06/01/95,HAMMONASSET BEACH,41,15.4300003,72,33.34700012,A,2.29999995,12:46,SAND,ABSENT,A,95
1066521.06516063,654072.132123888,817,05/26/95,KELSEY POINT,41,15.35000038,72,30.51199913,A,1.29999995,2:17,MUD SAND,LAMI,O,95
1059139.74888656,653711.506860897,818,06/01/95,CLINTON HR CH WEST ROCK,41,15.29399967,72,32.12300109,A,1,12:16, OYSTER REEF COBBLE,"CHON,LAMI,ULVA",O,95
1065185.12787189,652868.433087721,819,05/26/95,NORTH OF JETTY,41,15.16399955,72,30.82500076,A,1, ,ROCKS,ABSENT,A,95
1059146.50084156,652789.338101566,820,06/01/95,CLINTON HARBOR,41,15.14200019,72,32.12200164,A,1.60000002,12:24,SAND,ABSENT,O,95
1057481.75285873,651771.133116975,821,06/01/95,HAMMONASSET POINT,41,14.97500038,72,32.48600006,A,2.5999999,12:31,CRUSTOSE RED ROCK,"CHOR,LAMI",O,95
1065681.69610447,651718.380925894,822,05/26/95,KELSEY POINT BREAKWATER,41,14.96300029,72,30.6970005,A,2,2:26, ,"FUCU,LAMI",O,95
1056346.13406697,651258.385126725,823,06/01/95,HAMMONASSET POINT,41,14.89099979,72,32.73400115,A,0, , ,ABSENT,O,95
895775.754092887,623743.881100729,824,11/16/95,"FRASH POND, STRATFORD",41,10.33399963,73,7.71400022,A,0, ,SPARSE RUPPIA,GRAC,A,95
895739.261055633,623082.804010808,825,11/16/95,"FRASH POND, STRATFORD",41,10.22500038,73,7.72100019,A,0, ,SPARSE RUPPIA,"CODI,ENTE,GRAC,ULVA,ULVI",A,95
895730.261073634,623076.912946478,826,11/16/95,"FRASH POND, STRATFORD",41,10.22399997,73,7.72300004,A,0, ,".5-1.2M FRINGED WITH SPARSE RUPPIA,TEMP 11 C, SAL 25%O","CODI,ENTE,GRAC,ULVA,ULVI",A,95
895703.261127636,623045.896932393,827,11/16/95,"FRASH POND, STRATFORD",41,10.21899986,73,7.72900009,A,0, ,SPARSE RUPPIA,"CODI,ENTE,GRAC,ULVA,ULVI",A,95
895671.855022475,623040.100027978,828,11/16/95,"FRASH POND, STRATFORD",41,10.21800041,73,7.73600006,A,0, ,SPARSE RUPPIA,"CODI,ENTE,GRAC,ULVA,ULVI",A,95
895703.167951971,623028.100051969,829,11/16/95,"FRASH POND, STRATFORD",41,10.2159996,73,7.72900009,A,0, ,SPARSE RUPPIA,"CODI,ENTE,GRAC,ULVA,ULVI",A,95
895647.105071977,623016.489838973,830,11/16/95,"FRASH POND, STRATFORD",41,10.21399974,73,7.74100017,A,0, ,SPARSE RUPPIA,"CODI,ENTE,GRAC,ULVA,ULVI",A,95
895629.104123726,623003.224117473,831,11/16/95,"FRASH POND, STRATFORD",41,10.21199989,73,7.74499988,A,0, ,MEDIUM DENSITY RUPPIA,"CODI,ENTE,GRAC,ULVA,ULVI",A,95
895519.134855464,622962.198937058,832,11/16/95,"FRASH POND, STRATFORD",41,10.20499992,73,7.76900005,A,0, ,MEDIUM DENSITY RUPPIA,"CODI,ENTE,GRAC,ULVA,ULVI",A,95
895478.758951977,622949.027047396,833,11/16/95,"FRASH POND, STRATFORD",41,10.20300006,73,7.77799987,A,0, ,MEDIUM DENSITY RUPPIA,"CODI,ENTE,GRAC,ULVA,ULVI",A,95
895478.728112131,622943.096941143,834,11/16/95,"FRASH POND, STRATFORD",41,10.20199966,73,7.77799987,A,0, ,MEDIUM DENSITY RUPPIA,"CODI,ENTE,GRAC,ULVA,ULVI",A,95
895492.133925214,622937.113029227,835,11/16/95,"FRASH POND, STRATFORD",41,10.20100021,73,7.77500009,A,0, ,MEDIUM DENSITY RUPPIA,"CODI,ENTE,GRAC,ULVA,ULVI",A,95
895422.227897048,622835.119138733,836,11/16/95,"FRASH POND, STRATFORD",41,10.18400001,73,7.78999996,A,0, ,MEDIUM DENSITY RUPPIA,"CODI,ENTE,GRAC,ULVA,ULVI",A,95
895076.818154797,622739.933961645,837,11/16/95,"FRASH POND, STRATFORD",41,10.16800022,73,7.89200019,A,0, ,ROCKS,FUCU,O,95
895119.319054052,622721.950073734,838,11/16/95,"FRASH POND, STRATFORD",41,10.16499996,73,7.88299989,A,0, ,ROCKS,FUCU,O,95
990319.448863387,656936.300936222,839,06/01/95,HOTCHKISS GROVE BEACH,41,15.83699989,72,47.13999938,A,2,2:30,COARSE ROCK,ABSENT,O,95
989871.764063224,656585.106100559,840,06/01/95,HOTCHKISS GROVE BEACH,41,15.77900028,72,47.23799896,A,2.29999995,2:42,ROCKS COBBLE,ABSENT,O,95
1088592.2500208,660593.31494765,841,05/26/95,SALT WORKS BAY,41,16.41200065,72,25.69099998,A,3.29999995,11:05,SAND,"CHON,LAMI,ULVA",O,95
1075965.59187523,658580.829143226,842,05/26/95,TOWARDS DUCK ISLAND,41,16.08799934,72,28.44799995,A,1.29999995,1:30,SAND,ABSENT,O,95
1062403.11900023,658535.389929637,843,06/01/95,CLINTON HARBOR,41,16.08699989,72,31.40800094,A,1,4:18, COBBLE OYSTER SHELL,"LAMI,ULVA",O,95
1061647.8688703,658182.026135057,844,06/01/95,CLINTON HARBOR,41,16.02899932,72,31.57299995,A,1.29999995,4:23,OYSTER SHELLS MUD,"LAMI,PILA,ULVA",O,95
1060878.80610397,657942.818936303,845,06/01/95,CLINTON HARBOR,41,15.98999977,72,31.74099922,L,0.60000002,4:32,EELGRASS VERY SPARSE 20M TO SHORE,"ENTE,GRAC,ULVA",O,95
1061095.86899005,657931.526964143,846,06/01/95,CLINTON HARBOR,41,15.98799991,72,31.69400024,A,1,4:28, ,"ENTE,GRAC,ULVA",O,95
1059323.74195689,657672.205960482,847,06/01/95,CLINTON HARBOR,41,15.94699954,72,32.12300109,L,0.60000002, ,RUPPIA TOWARD SHORE,"ENTE,GRAC,ULVA",A,95
1062759.30792038,657510.367045313,848,06/01/95,CLINTON HARBOR,41,15.91800022,72,31.33099937,A,1,4:10,SNAILS MUD,ABSENT,O,95
1062277.18388464,656216.262021974,849,06/01/95,CLINTON HARBOR,41,15.70499992,72,31.43700027,A,1,4:02,MUD,ABSENT,O,95
