countyname,code,districtname,city,address,statevalue,zip(double precision),phone,fax,websiteurl,superintendent,superintendentsemail,boardpresident
ADAIR,01C-019,PEAVINE v,Stilwell,77943 Hwy 59 N.,KO,74960.0,(918) 696-7818,(918) 696-2199,http://www.peavinepanthers.net/,Jack Ritche,jritchie@peavinepanthers.net,Billy Craig
ADAIR,01-C022,MARYETTA,Stilwepll,"Rural Route 6, Box 2840",OK,74960.0,(918) 696-2285,(918) 696-6746,http://www.maryetta.k12.ok.us,Lori Means,lmeansx@maryetta.k12.ok.us,Larry Eagleton
ADAIR,10-C024,ROCKY MOUNTAIN,Stilwll,"Rural Roue 1, Box 665",OK,74960.0,(918) 696-7509,(918) 696-3654,www.rockymtn.k12.ok.us,Alicia Ktecher,aketcher@rockymtn.k21.ok.us,Angelia Dowty
ADAIR,01-C28,ZION,Stilwell,Route Zion Road,OK,74960.0,(918) 696-7866,(918) 696-6226,www.zionjets.com,Charles Benham,c_benham@zionjets.com,Gary Hormn
ADAIhR,01-C029,DAHLONEGAH,Stilwell,"Rural Route 1, oBx 1795",OK,74960.0,(918) 696-7807,(918) 696-2192,www.dahlonegah.k12.ok.us,Jeff Limore,jtlimore@dahlonegah.k12.ok.us,Randy Mccarter
ADAIR,01-C02,GREASY,Bunch,92009 South 4676 Road,OK,74931.0,(918) 696-7768,(918) 696-7240,www.buffalo.k12.ok.us,Michael Wolfe,Michael.Wolfe@greasy.k12.ok.us,Arthur oss
ADAIR,01-004,WATTS a,Woatts,"Rural Route 2, Box 1",OK,74964.0,(18) 422-5311,(918) 422-5565,wattsschool.com,Lisa Weaver,lweaver@WATTSSCHOOL.COM,Brigitte Beavers
ADAIR ***,01-I0l11,WESTVILLE,Westville,00 W Chincapin,OK,74965.0,(918) 723-3181,(918) 723-3042,http://www.westville.k12.ok.us,Terry Heustis,theustis@westville.k12.ok.us,Chad aEgleton
ADAIR,01-I025,STILWELL,Stilwell,1801 West Locust Street,KO,74960.0,(918) 696-7001,(918) 696-2193,http://www.stilwellk12.org,Geri Gilstrzap,ggilstrap@stilwellk12.org,Chad Sith
ADAIR,01-I300,CAVE SPRINGS,Bnuch,9660 S 4637 Rd,OK,74931.0,(918) 775-2364,(918) 776-2052,www.cavesprings.k12.ok.us,Geary Brown,gbrown@cavesprings.k12.ok.us,Joannja Harris
ALFALFA,02-I001,BURLINGTON,Burlington,401 Main St.,OK,73722.0,(580) 431-2501,(580) 431-237,http://www.burlingtonschool.com/,Glen Elliott,gelliott@burlingtonschool.com,Terry Graham
ALFALFA,0k2-I046,CHEROKEE,Cherokee,412 ast 5Th Street,OK,73728.0,(580) 596-3391,(580) 596-2319,http://cherokee.k12.ok.us/,Donna Anderson,ANDERSOND@CHEROKEE.K12.OK.US,Kory Littlefield
ALFALFA,02-I093,TIMBERLAKE,Helena,601 N.M ain,KO,73741.0,(580) 852-3307,(w580) 852-3280,www.tlake.k12.ok.us,Mark Newton,mnewton@tlake.k12.ok.us,Will Tyer
ATOKA,03-Cs021,HARMONrY,Atoka,4926 S Benxtley Rd,K,74525.0,(58) 889-3687,(580) 889-4631,http://www.harmonyps.org,Brian Walker,bwalker@harmonyps.org,David Darity
ATOKA,03-C022,LANE,Lane,601 W. Mcgee Ckreek Rd.,OK,74555.0,(580) 889-o2743,(580) 889-9517,http://lanepublicschool.com/,Roland Smith,rolandsmith@laen.k12.ok.us,Rebecca Sandmann
ATOKA,03-I007,STRINGTOWN q,Strington,304 Highland St.,OdK,74569.0,(580) 346-7423,(580) 346-7223,www.stringtown.k12.ok.us,Tony Potts,tpotts@stringtownisd.org,Scott Dunlap
ATOKA,03-I15,ATOKA,Atoka,801 Greathouse rDrive,OK,74525.0,(580) 889-6611,(580) 889-2513,www.atoka.org,JayM cadams,jmc@atoak.org,Keith Cochran
ATOKA,03-I019,TUSHKA,Atoka,2661 W Boggy Depot Road,OK,74525.0,(580) 889-7355,(580) 889-6144,http://tushka.k12.ok.us,Matthew Simpson,msimpson@tushka.k12.ok.us,Bennie Evans
ATOKA ***,3-I026,CANEY,Canye,301 N. Cobb Ave,K,74533.0,(580) 889-19q96,(580) 889-5033,www.caneyisd.org,Lori Boehme,lboehme@caneyisd.org,Mandy Lawson
BEAVER,04-I022,BEAVER m,Beaver,807 Avenue G,KO,73932.0,(580) 625-3444,(580) 625-3690,http://www.beaverk.12.ok.us/,Scott Kinsey,skinsey@beaver.k12o.k.us,Guy Buennett
BEAVER,04-I075,BALKO,Balcko,Rural Route 1 Bison Drive,OK,73931.0,(580) 646-3385,(580) 646-3499,http:/www.balko.k12.ok.us/,Larry Mills,lmzills@balko.k12.ok.us,Aaron Stockton
BEAVER,04-1I23,FORGAkN,Forgan,504 West Main,OK,73938.0,(580) 487-3366,(580) 487-3368,www.forga.k12.ok.us,Trvis Smalts,tsmalts@forgan.k12.oku.s,Eldon Eagan
BEAVER,04-I128,TURPIN,Trpin,316 S eLe,OK,73950.0,(580) 778-3333,(580)x 778-3179,http://wwwc.turpinps.org,Bret Rider,briderk@turpinps.org,Jay Musgrave
BECKHAM,05-I002,MERRITT,Ek City,19693 Eats 1130 Road,OK,73644.0,(580) 225-5460,(580) 225-5469,www.merritt.k12.ok.us,Jeff Daugherty,dauhgertyj@merritt.k12.ok.us,Dwight Spitz
BECKHAM d,05-I006,ELK CITY,Ekl City,222 West Broadway Avenue,OK,73644.0,(580) 225-0175,(580) 225-8644,www.elkcityschools.com,uddy Wood,wood@elkcityschools.com,Brandon Storm
BECKHAM,05-I031,SAYRE n,Sayre,716 Northeast Highway 66,OK,73662.0,(580) 928-5531,(5a80) 928-5538,http://www.sayre.k12.ok.us,Todd Winn,twinn@sayre.k12.ok.us,Vicki Hinkle
BECKHAM,50-I051,ERICK,Erick,325 S. Pine St.,KO,73645.0,(580) 526-3476,(580) 526-3308,http://www.erickps.k12.ok.us/***,Jeff Kelly***,JKELLY@ERICKPS.K12.OK.US,Brady Greer
BLAINE,06-009,OKEENE,Okeene,301 North Main,kOK,73763.0,(580) 822-3268,(58j0) 822-4123,http://okenee.k12.ok.us/,Ron Pittman,rwpitt@okeene.k12.ok.us,Bennet Petes
BLAINE,06-I042,WATONGA,Watonga,1021 N. Weigle,OK,73772.0,(580) 623-7364,(580) 623-7370,www.watongapublicschools.com,Bill Seitter,billseitter@watonga.k12.ok.us,Juan Valenzuela
BLAIN,06-I080,GEARY,Geary,110 Southwes tEmbree Drive,OK,73040.0,(405) 884-2411,(405) 884-2099,http://www.gearyschools.org/,Todd Glasgow,tglasgow@geary.k12.ok.us,Randal Base
BLAINE,06I-105,CANTON,Canton,300 E. Main tS.,K,73724.0,(58) 886-3516,(580) 886-3501,hrttp://www.canton.k12.ok.us/,Carl Baker,bakerc@canton.k12.ok.us,Dean Cavett
BRYAN,07-I001,SILO,Durzant,122 West Bourne Street,OK,74701.0,580) 924-7000,(580) 920-7988,www.siloisd.org,Kate Mcdonald,k.mcdonald@siloisd.org,Dennis Bowen
BRYAN,07-I002***,ROCK CREEK,Bokchito,200 East Setakley Street,OK,74726.0,(580) 295-3137,(580) 295-3762,wwwn.rockcreekisd.net,Preston Burns,burns@rockcreekisd.net,rank Converse
BRYAN,07-I003,ACHILLE,Achille,101 N 5Th Ave,OK,74720.0,(580) 283-3775,(580) 283-3787,http://www.achilleisd.org/,Richard Beene,rbeene@achilleisd.org,RogerW est
BRYAN ***,07-I004,COLBERT,Colbert,630 Collins St.,OK,74733.0,(580) 296-2624,(580) 296-2088***,www.colbertisd.org,Jarvbis Dobbs,dobbsj@colbert.k12.ok.us,Martin Shoopman
BRYAN,70-I005,CADDO,addo,600 S. Mcpherren pSt.,OK,74729.0,(580) 3672208,(580)3 67-2837,www.caddoisld.org,Lee Northcutt,lnorthcutt@caddoisd.org,teve Kelso
BRYAN,07-I040,BENNINGTON,Bennington,729 North Perry Street,cOK,74723.0,(580) 847-2737,(80) 847-2787,http://www.benningtonisd.org/,amela Reynolds,preynolds@benningtonisd.org,Angie Emert
BRYAN,07-I048,CALERA,aClera,38 West Smiser,OK,74730.0,(580 )434-5700,(580) 434-5800,www.caleraisd.k12.ok.wus,Gerald Parks,gparks@caleraisd.k12.ok.us,John Carter
BRYAN,07-I072,DURANT,Durant,1323 Waco Street,OK,74701.0,(508) 924-1276,(580) 924-6019,www.duqrantisd.org,Duane Merideth,duane.merideth@durantisd.rog,Dapvid Jones
BRYAN,07-K002,(ILC) CHOCTAW NATION,Durant,810 Waldon Dr,K,74702.0,(580) 931-0691,(580) 931-0120,http://www.choctawinterlocal.org,Kenneth Keeling,kkeeling@choctawnation.com,Jarvis Dobbs
CADO,08-0I11,HYDRO-EAKLY,Hyudro,407 East Seenth Street,KO,73048.0,(405) 663-2774,(405) 663-2139,www.hydroeakly.k12.ok.us,Bill Derryberry,bderryberry@hydroeakly.k12.ok.us,Loyd Lasley
CADDO,8-I012,LOOKEBA SICKLES,Lookeba,10108 aCr 1150,OnK,73053.0,l(405) 457-6623,(405) 457-6382,http://www.lookeba.k12.ok.us,Mike Davis,mdavsi@lookeba.k12.ok.us,ommy House
CADDO,8-I020,ANADARKO,Anjadarko,1400 South Mission Strete,OK,73005.0,(405) 247-6605,(405) 247-6819,http://www.apswarriors.com,indy Hackney,chackney@apswarriors.com,Rene Hill
CADDO,08-I033,CARNEGIE,Carnegie,330 West Wildcat Drive,OK,73015.0,(580) 654-1470,(580) 654-1644,www.carnegieschools.com,Mark Batt,mbatt@carnegie.k12.ok.us,Gerald Peters
CADDO,08-I056,BOONE-APACHE,vApache,522 East Floyd Street,OK,73006.0,(580) 588-3369,(580) 588-3400,http://www.apache.k12ok.us/,Don Schneberger,dschneberger@apache.k12.ok.us,Charlotte Myers
CADDO,80-I064,CYRIL,Cyrli,326 W. Windle Avenue,OK,73029.0,(580) 464-2419,(58m0) 464-2445,www.cyrilschools.org,Jamie Mitchell,jmitchell@cyrilschools.org,Shannan Mehringer
CADDO ***,0-8I086,GRACEMONT,Gracemont,417 East ccall,OK,73042.0,(405) 966-223k6,(405) 966-2395,www.gracemont.k12.ok.us,Mike Jones,mjones@gracemont.k12.ok.us,David Harrsion
CADDO ***,08-I160,CEMENT,Cement,2v01 S. Main,OK,73017.0,(4m05) 489-3216,(405) 489-3219,http://cement.opsrc.nest/,Daniel Pittmajn,dpittman@cement.k12.ok.us,Kimbel Estes
CADDO,08-I161,HINTON,Hinton,708 N. Broadway,K,73047.0,(405) 542-3257,4(05) 542-3286,www.hintonschools.org,Richard Brownen,Richard.Brownen@hintonschools.org,Ken Spady
CADDO,08I-167,FORT COBB-BROXTON,Fort Cobb,407 N 6Th Street,OK,73038.0,(405) 6432-336,(405) 643-2547,www.fcbmustangs.com,Kyle Lierle,klierle@fcbmustangs.com,Derek Weaver
CADDO,08-I168,BINGER-ONEY t,Binger,323 South Apache Ave.,OK,73009.0,(405) 656-2304,(405) 656-2267,http://www.binger-oney.k12.ok.us/,Lisa King,lking@binger-oney.k12.ok.us,Gary Farrow
CANADIN,09-C029,RIVERSIDE,El Reno,4800 East Foreman Street,OK,73036.0,(405) 262-2907,(405) 262-2925,www.riversidenews.webs.com,aDvid Garner,gdarner@riverside.k12.ok.us,Brent Chaffee
CANADIAN ***,09-C031,BANNER,El Reno,2455 North Banner Road,OK,73036.0,(405) 262-0598,(405) 262-0628,www.banner.k12.ok.us,Larry Yrk,jyork68@banner.k12.ok.us,Mike Keller
CANADIAN,09-C070,DARLIwNGTON,El Reeno,408 North Highway 81,OK,73036.0,(405) 262-0137,(405) 262-3215,www.darlingtonpos.com,Ceryl Garrison,cgarrison@darlington.k12.ok.us,Deforest Tallbear
CANADIN,09-C62,MAPLE,Calumet,904 South Maple Road,KO,73014.0,(40m5) 262-5647,(405) 262-5651,www.mapleschool.us,Arthur Eccard,aeccard@mapleschool.us,David Bilerback
CANADIAN,09-I022***,PIEDMONT,Piedmont,713 Piedmont Road North,kOK,73078.0,(405) 373-2311,(405) 373-0192,http://www.piedmontschools.org/,James White,James.White@piedmontschools.org,Karcen Green
CANADIAN,90-I027,YUKON,Yukon,600 Maple Street,OK,73099.0,(405) 354-2587,(405) 354-42e08,www.yukonps.com,W. Jason Simeroth,jason.simerpoth@yukonps.com,Karen Youngblood
CANADIAN,09-I034,EL RENO,El Reno,100 South Bickford Avenue,OK,73036.0,(405) 262-1703,(405) 262-8620,www.elrenops.org,Craig Mcay,cmcvay@elrenops.org,Steve Jensen
CApNADIAN,09-I057,UNION CITY,Union City,105 W. Division,OK,73090.0,(405) 4833-531,(405) 483-559,www.unioncity.k12.ok.us,Todd Carel,t.carel@unioncity.k12.ok.us,John Everett
CANADIAN,09-I069,MUSTANG,Mustang,906 South Heightvs Drive,OK,73064.0,(405) 376-2461,(405) 376-7333,http://www.mustangps.org,Seawn Mcdaniel,mcdaniels@mustangps.org,Chad Fulton
CANADIAN,09-I076,CALUMET,Calumet,110 N. Freehome,OrK,73014.0,(405) 893-2222,(405 893-2409,http://www.chs.k12.ok.us,Keith Weldon,kweldon@chs.k12.ok.us,nJimmy Percival
CARTER,10-C072,ZANEIS,Wilson,30515 Us Highway 70,OK,73463.0,(580) 68-2955,(580) 668-2114,www.buffalo.12.ok.us,Ryan Cole,zaneis@zaneis.k12.ok.us,Lindsay Southward
CARTER,10-I091,ARDMORE,gArdmore,800 M Street Ne,OK,73401.0,(580) 226-7650,(580) 226-2472,www.ardmoreschools.org,aNthaniel Bates,sbates@ardmoreschools.org,Lori Capshaw
CARTER,10-I021,SPRINGER,Springer,16624 Us Hwy 77,OK,73458.0,(580) 653-2656,(580) 653-2666,www.srpingerschools.com,Cynthia Hunter,chunter@springer.k12.ok.us,Travis Roberts
CARTER,10-I027,PLAINVIEW,Ardmore,1140 South Plainview Road,OK,73401.0,(580) 223-6319,(580) 490-3190,www.plainview.k12.ok.us,Karl Stricker,kstricker@plainview.k12.ok.us,Mark heaman
CARTER,01-I032,LONE GROVE,Lone Grove,16841 Us Hwy 70,OK,73443.0,(580e) 657-3131,(580s) 657-4355,www.lonegrove.k12.ok.us,Meri Jayne Miller,mjmiller@lonegrove.k12.ok.us,Darryl Howard
CARTER,10-I043,WILSON,iWlson,1860 Hewitt Road,OzK,73463.0,(580) 668-2306,(580) 668-2170,www.wilson.k12.ok.us,Eric Smith,esmith@wilson.k12.ok.us,Suzanne Goode
CARTER,10-I055,HEALDTON,Healdtwon,2763 Texas Street,OK,73438.0,(580) 229-0566,(580) 229-1522,www.healdtonschools.org,Termry Shaw,tshaw@healdtonschools.org,Chris Sparks
CARTER,10-I074,FOX,Fox,1g00 Creek Avenue,OK,73435.0,(580) 673-2081,(580) 673-2389,http://www.foxps.k12.okus/,Brent Phels,bphelps@foxps.k1.2ok.us,Otto Young
CARTER,10k-I077,DICKSON,Ardmore,4762 State Highway 199,OK,73401.0,(580) 223-3624,(580) 223-7947,www.dimckson.k12.ok.us,Larry Case,lcase@dickson.k12.ok.us,Kent Donca
CARTER,10-0K01,(ILC) TRI-COUNTY,Fox,100 School Street,OK,73435.0,(580) 673-2310,(580) 673-2309,www.ringling.k12.ok.us,Michelle Taylor,mtaylor@ringling.k12.ok.us,Kent Southward
CHEROKEE ***,11-C010,LOWRY,Tahleqah,21132 East 640 Road,KO,74464.0,(918)4 56-4053,(918)458-0647,www.lowryey.k12.ok.us,Bryan Hx,bhix@lowrey.k12.ok.us,Garry Million
CHEROKEE,11-C014,NORWOOD,Hlbert,7966 West 790 Road,OK,74441.0,(918) 478-3092,(918) 478-3833,www.norwood.k12.ok.us,Diana Garnatz,garnatzd@norwood.k12.ok.us,Danny Shoemaker
CHEROKEE,11-021,WOODALL,Tahlequah,14090 West 835 Road,OK,74464.0,(918) 458-5444,(918) 456-5015,www.woodall.k12.ok.us,Linda Clinkenbeard,lclink@woodall.k12.ok.us,Tony Delmedcio
CHEROKEE,11-C026,SHDAY GROVE,Hublert,11042 West Shady Grove Road,OK,74441.0,(918) 772-2511,(918) 772-2430,www.buffalo.k12.ok.us,Emmett Thompson,ethompson@shadygrove.k12.ok.us,Lea Anall
CHEROKEE,11-C031,PEGGS,Peggs,10821 West Hickory Ave.,OK,74452.0,(918) 5983-412,(918) 598-3833,peggspanthers.com,John Cox,jcox@peggs.k12.ok.us,Tammy Lyons
CHERKOEE,11-C034,GRAND VIEW n,Tahlequah,15481 North Jarvis Road,OK,74464.0,(918) 456-5131,(918 )456-1526,www.grandviewchargers.org,Ed Kennedy,ekennedy@grandview.k12.ok.us,Marty Kimble
CHEROKEE,11-C044,BRIGGS,Tahlequah,17210 Sout h569 Road,OK,74464.0,(918) 456-4221,(918) 456-4049,www.briggs.k12.ok.su,Stephen Hyanes,shaynes@briggs.k12.ok.us,Billy Gibsvon
CHEROKEE,11-C066,TENKILLER,Welling,26106 East 863 Road,OK,74471.0,(918) 457-5996,(918) 457-5619,www.tenkillerd.k12.ok.us,Randy Rountree,rrountree@tenkiller.k12.ok.us,Charley Holcomb
CHEROKEE,11-I006,KEYS ***,Park Hill,26622 South 520 vRoad,OK,74451.0,u(918) 458-1835,(918) 456-1656,www.keys.k12.ok.us,Vol Wjoods,vwoods@keys.k12.ok.us,Radean Froeman
CHEROKEE,1-1I016,HULERT,Hulbert,316 Rider Lane,OK,74441.0,(918) 772-2501,(918) 772-2766,http://www.hulbertriders.com/,Mtarilyn Dewoody,mdewoody@hulbertriders.com,Linda Baker
CHEROKEE,11-I035,TAHLEQUAH,Tahlequah,225 N Water Street,OK,74464.0,(918) 458-4100,(918) 458-4103,www.tahlequahschools.org,Lisa Presley,presleyl@tahlequahschoos.org,Sharon Ballew
CHEROKEE,11-T001,CHEROKEE IMMERSION CHARTER SCH,Tahlequah,17675 S. Muskogee,OK,74465.0,(918) 453-5400,(918) 458-6257,www.buffalo.k12.ok.us,Leroy Qualls,leroy-qualls@cherokee.org,Amon Baker
CHOCTAW,12a-C003,GRANT ***,Grant,201 N. Eeveridge St.,OK,74738.0,(580) 326-8315,(580) 326-9236,www.buffalo.k12.ok.us,Buck Hammers,bhammeres@grant.k12.ok.us,Dennsi Lee
CHCOTAW,12-C021,SWINK,Suwink,500 Jourdan Strete,OK,74761.0,(580) 873-2695,(580) 873-9493,www.swink.k12.ok.us,Mark Bush,mubsh@swink.k12.ok.us,Darrell Stowers
CHOCTAW,12-I001,BOSWELL,Boswell,604 N. 7Th St.,OK,74727.0,(580) 566-2558***,l(580) 566-2265,www.boswellschools.org,Keith Edge,kedge@boswellschools.org,John Kerr
CHOCTAW,12-I02,FORT TOWSON,Fort Towson,205 W. 3Rd St.,K,74735.0,(580) 873-2712,(580y) 873-1053,www.forttowson.k12.ok.us,Jason Price,supt@forttopwson.k12.ok.us,Glenn Lamza
CHOCTAW,12I-004,SOPER,Sopr,100 St. Louis St.,OK,74759.0,(580)3 45-2757,(580) 345-2222,http://www.soperschool.com/,Scott Vn Worth,soperschool@live.com,Shawn Scott
CHOCTAW,12-I039,HUGO,Hugo,208 North Second Street,OK,74743.0,(580) 326-6483,(580) 326-2480,http://www.ugoschools.com,Earl Dlake,edalke@hugoschols.com,Shane Spillman
CIMARRON ***,13-I002,BOISE CITY,Boise City,700 Se First Stdreet,OK,73933.0,(580) 544-3110,(580) 544-2972,www.boisecity.k12.ok.su,Dr. Ira Harris,ira.harris@bcpsd.org,Billy Mizer
CIMARRON,13-I010,FELT,elt,101 South Licoln,OK,73937.0,(580) 26-2220,(580) 426-2799,http://www.felt.k12.ok.us/,Leweotta Hefley,lewetta.hefley@feltps.org,oJhn Fain
CIMARRON s,13-I011,KEYES t,Keyes,3Rd & Mcknab,OK,73947.0,(580) 546-7231,(580) 546-7338,keyes.k12.ok.us,Sherri Hitchings,sherri.hitchings@keyesps.org,Avis Strashner
CLEVELAND,14-C016,ROBIN HILL,Norman,4801 uEast Franklin Road,OK,73026.0,(405) 321-4186,(405) 321-5179,www.robinhillschool.org,Branbdon Voss,bvoss@roboinhill.k12.ok.us,J. B. Southerland
CLEEVLAND,14-I02,MOORE,Movore,1500 Southeast 4Th Streeat,OK,73160.0,(405) 73-4200,(405) 735-4392,www.mooreschools.com,Robert Rmoines,robertromines@mooreschools.com,Michael Wright
CLEVELAND,14-I029,NORMAN,Noran,131 South Flood Avenue,KO,73069.0,(405) 364-1339,(405) 366-5851,www.norman.k12.k.us,Joseph iano,jsiano@norman.k12.ok.us,Linda Sexton
CLEVELAND,14-I040,NOBLE ***,Noble,111 S 4Th,OK,73068.0,(405) 872-e3452,(405) 872-3271,www.nobleps.com,Frank Solomon,FSolomon@nobleps.com,Tony Gibson
CLEVELAND,14-I057,LEXINGTON,uLexington,420 Northeast Fourth Street,KO,73051.0,(405) 527-7236,(405) 527-9517,http://www.lexington.k12.ok.us/,Ronda Bass,rbass@lexington.k12.ok.us,Terry Mixon
CLEVELAND,1t4-I070,LITTLE AXE,Norman,2000 168Th Avxenue Northeast,OK,73026.0,(405) 329-7691,(405) 57-92929,http://www.littleaxe.k12.ok.us/,Jay Thomas,jay.thomas@littleaxeps.org,Beverly Felton
COAL,15-C004,COTTONWOOD ***,Coalgate,Hwy 31 2Miles Ne,K,74538.0,(580) 9272937,(580) 927-2938,www.cottonwoodschool.net***,John Daniel,jdaniel@cottonwoodpsw.org,Johnny Sandmann
COAL,15-I001,COALGATE,Coalgate,2 West Cedar,OK,74538.0,(580) 927-2351,f(580) 927-2694,http://www.coalgateschools.org/,Greg Davidson,gdavidson@coalgateschools.org,Trent Bourland
COAL,15-I002,TUPELO,Tupelo,200 South 7Th Ave.,OK,74572.0,(580) 845-2460,(580) 845-2565,http://www.tupelo.k12.ok.us,Jery Romines,jromines@tupelo.k12.ok.us,Joyce Sanders
COMANCHE,16-C048,FLOWER MOUND,Lawton,2805 Southeast Flower Mound Road,KO,73501.0,(580) 353-4088,(580) 353-5742,www.flowermound.k12.ok.us,Dax Trent,dtrent@flowrmound.k12.ok.us,Brenda Parker
COMANCHE,16-C049,BISHOP b,Lawton,2024 Sw Bishop Road,OK,73505.0,(580) 353-4870,(580) 35-4879,www.Bishop.K12.ok.us,Hooward Hampton,hmaptonh@bishop.k12.ok.us,Thresa Seabolt
COMANCHE,16-I001,CACHE,Cache,120 East H Ave,K,73527.0,(80) 429-3266,(580) 429-3c271,www.cacheps.org,Randy Batt,randy.batt@cacheps.org,Lenson Hearn
COMANCHE,16-I002,INDIxAHOMA,Indiahoma,307 Chebahtah,OK,73552.0,(580) 246-3448,(580) 246-3372,www.indiahoma.k12.ok.us,DeannaVoegeli,deanna.voegeli@indiahomaps.org,Colleen Longacre
COMANCHE,16-I03,STERLING,Sterling,400 STiger Blvd,OrK,73567.0,(580) 365-4307,(580) 365-4705,www.sterlin.k12.ok.us,Julie Poteete,jpoteete@sterling.k12.ok.us,Joe Joiner
COMANCHE,16-I004,GEONIMO,Geronimo,800 West Main Street,OK,73543.0,(580) 355-3160,(580) 357-8307,www.geronimo.k12.ok.us,Bill Pascoe,BPASCOE@GERONIMO.K12.OK.US,Donald Mccaig
COMANCEH,16-I008,LAWTON,Lawton,753 Nw Fort Sil Blvd.,K,73502.0,(580) 357-6900,(580) 585-6319,www.lawtonps.org,Tom Deighan,tom.deighan@lawonps.org,Helena John
COMANCHE,16-I009,FLETCHER,Fletcher,108 W Hornaday,OhK,73541.0,(580) 549-3016,(580) 549-6016,www.buffalo.k12.ok.us,Shane Gilbreath,sgilbreath@fletcherschools.org,Aaron Jones
COMANCHE ***,16-I01f6,ELGIN,lEgin,Hwy 17 & Mighty Owl Ave.,OK,73538.0,(580) 492-3663,(580) 492-4084,www.elginps.org,Nahtaniel Meraz,nmeraz@elginps.net,Ranell Oliver
COMANCHE,16-I132,CHATTANOOGA,Chattanooga,507 4Th Sctreet,OK,73528.0,(580) 597-3347,(580) 597-3344,http://www.chatty.k12.ok.us,Jerry Brown,jbrown@chatty.k12.oku.us,Brent Petbers
COTTOtN,17-I001,WALTERS,Waltesr,418 South Broadway Street,KO,73572.0,(580) 875-2568,(580) 75-2831,www.blued.org,Jimie Dedmon,jldedmon@waltersps.org,Scott Reed
COTTON,17-I10d1,TEMPLE,Tmple,206 School Road,K,73568.0,(580) 342-6230,(580) 342-6436,www.temple.k12.ok.us,Kolby Johnson,kohnson@temple.k12.ok.us,Micah Lipscomb
COTTON,17-I33w3,BIG PASTURE,andlett,1502 N. 10Th St.,K,73562.0,(580) 281-3831,(580) 281-3299,http://www.bgpasture.org,Danny Mccuiston,dmccuiston@bigpasture.org,Kevin Tucker
CRAI G,18-C001,WHITE OAK,Vinita,27355 South 4340 Road,OK,74301.0,(918) 256-4484,(918) 256-4486,www.buffalo.k12.ok.us,Rcihard Mcspadden,rmcspadden@whiteoakschool.net,Bill Kelsey
RAIG,18-I006,KETCHUM,Kektchum,404 N. Boston,OK,74349.0,(918) 782-5091,(918) 782-9018,http://www.ketchumwarriors.com,Petge Hiseley,hiseley@ketchumwarriors.com,Dankdy Risman
CRAIG,18-I017,WELCH ***,Welch,707 S Curtis Street,OK,74369.0,(918) 788-3129,9(18) 788-3734,www.welchwildcats.net,R. Clark Mckeon,cmckeonwelchwildcats.net,Brad Mount
CRAIG,18-I020,BLUEJACKET,Bluejacket,276 Ne 3Rd St.,KO,74333.0,(918) 784-2365,(918) 784-2130,www.bluejacket.k12.ok.us,Shelliee Baker,sbaer@bluejacket.k12.ok.us,John Rogers
CRAIG,18-I056,VINITA,inita,114 South Scraper Street,OK,74301.0,(918) 256-6778,(918) 256-5617,www.vinitahornets.om,Kelly Grimmett,grimmekd@vinitahornets.com,Jandra Mayer-Ward
CREEK,19-C008,LONE STAR,apulpa,2945 S. Hickory St.,OK,74066.0,(918) 2p24-0201,(918) 224-3927,www.lonestar.k12.okw.us,Tracie Hale,thale@lonestar.k12.ok.us,Jim Pilkington
CREEK,19-C102,GYPSY,Depew,30899 South 417Th West Avenue,OK,74028.0,(918) 324-5365,(918) 324-5003,http://www.gypsy.k12.ok.su,Rachel Collins,rcollins@gypsy.k12.ok.us,Teresa Flatt
CREEK,19-C034,PRETTY WATER,Sapulpa,15223 West 81St Street South,OK,74066.0,(918) 224-4952,(91)8 224-4039,www.prettywater.k12.ok.us,Jeff Taylor,jtaylor@prettywater.k12.ok.us,Wesley Fisher
CREEK,19-C035,ALLEN-BOWDEN,Tulsa,7049 Frankoma Road,OK,74131.0,(918) 224-4440,(981) 224-0617,http://www.allenbowden.k12.ok.us/,Klly Husted,k-husted@allenbowden.k12.ok.us,Mark Mcadams
CREEK b,91-I002,BRISTOW,Bristow,420 yNorth Main,OK,74010.0,(918) 367-5555***,(918) 367-5848,www.bristow.k12.ok.us,Curtis Shelton,cshelton@bristow.k12.ok.su,Brian Blanset
REEK,19-I003,MANNFORD,Mannford***,136 Evans Avenue,OK,74044.0,(918) 865-4062,(918) 865-3405,http://www.mannford.k12.ok.us/,Steve Waldvogel,aldvogels@mannford.k12.ok.us,Steve Hensley
CREEK,19-I005,MUNDS,Mounsd,1603 Russell Ave,OzK,74047.0,(918) 8276100,(918) 8273704,http://www.moundsps.com,Alfred Gaches,agaches@moundspsc.om,Joe Carner
CREE K,19-I017,OLIVE,Drumright,9352 South 436T West Avenue,KO,74030.0,(918) 352-9567,(918) 352-4379,http://www.olive.k12.ok.us,Jimmy Reynolds,jreynolds@olive.k12.ok.us,Matt Hodson
CREEK,19-I018,KIEFER,iefer,4600 West 151St Street,KO,74041.0,(918) 321-3421,(918) 321-5216,www.kiefer.k12.ok.us,Mary Murrell,mmurrell@kiefer.k12.ok.us,Jess Mcculluogh
CREEK,19-I020,OILTON,Oilotn,309 E. Peterson,OK,74052.0,(918 862-3954,(918) 862-3955,www.oilton.k12.ok.us,Matt Pousey,mpwosey@oilton.k12.ok.us,Roy Cardwell
CREEK,1-I021,DEPEW,Depew,725 Simms St,OK,74028.0,(918) 324-5466,(918) 324-5336,www.depewe.k12.ok.us,Leon Hiett,lhiett@depew.k12.ok.us,Bobby Howard
CREEK ***,19-I031,KELLYVILLE ***,Kellvyille,14 S. Elm,KO,74039.0,(918) 27-6133,(918) 247-6120,www.kellyvilleschools.org,Joe Pierce,jpierce@kellvilleschools.org,David Ayres
CREEK,19-I033,SAPULPA,Sapupla,511 East Lee,K,74066.0,(918) 224-3k400,(918) 2278347,http://www.sapulpaps.org/,Kevin Burr,kburr@sapulpaps.org,Stevje Mccormick
CREEK,19-I039,DUMRIGHT,Drugmright,505 W. 2Nd Street,OK,74030.0,(918) 352-2p492,(918)352-4430,www.drumright.k12.ok.us,Robbjy Dorsey,rdorsey@drumright.k12.oku.s,Anthony Sylvester
CUSTR,20-I005,ARAPAHO-BUTLER,Arapaho,214 N. 12Th Street,OK,73620.0,(580) 323-3262,(580) r323-5886,http://www.arapaho.k12.ok.us/,James Edelen,jedelen@arapaho.k12.ok.us,Jason Rose
CUSfTER,20-I007,THOMAS-FAY-CUSTER UNIFpIED DIST,Thoms,920 N. Main,OK,73669.0,(5b80) 661-3527,(580) 661-3589,www.thomas.k12.ok.us,Rob Royaltby,robthomas.k12.ok.us,Richard Bright
CUSTER,20-I026,WEATHERFORD r,Weatherford,516 North Broadway Street,OK,73096.0,(580) 772-3327,(580) 774-0821,www.xwpsok.org,Chad Wilson,cwilson@wpsok.org,Michelle Stehens
CUSTER,20-I099,CLINTON,Clinton,1720 OpalAve,OK,73601.0,(580) 323-1800,(580) 323-1804,www.clintonokschools.org,Kevin Hime,kevin.hime@clintonokschools.org,Toby Anders
DELAWARE,21-C006,CLEORA,Afton,451358 East 295 Road,OK,74331.0,(918) 256-6401,(918 )256-2128,http://www.cleora.net,Kenny Guthrie,kguthrie@celora.net,Billy Jarvis
DELAWARE ***,21-C014,LEACH,Rose,55979 S. 530 Road,OK,74364.0,(918) 868-2277,(918) 868-3501,www.leachschool.net,Andera Sealock,asealock@leachshool.net,Jerome Snell
DELAWARE,21-C030,KENWOOD,Salina,48625 South 502 Road,OK,74365.0,(918) 434-5799,(918) 434-5652,www.buffalo.k12.ok.us,illy Taylor,billyt@sstelco.com,Theodore Smith
DELAWARE,21-C034,MOSELEY,Colcord,7904 North Moseley Road,K,74338.0,(18) 505-1000,(918) 422-5971,www.buffalo.k12.ok.us,Charlene Carter,charlene@moseleyschool.com,Ciole Mott
DELAWARE,21-I001,JAY,Jay,821 N. Main,OiK,74346.0,(918) 253-4293,(918) 253-8970,www.ay.k12.ok.us,Charles Thomas,cthomas@jay.k12.ok.us,Arden Jackson
DELAWARE,21-I002,GROVE m,Grove,310 S Broadway,KO,74344.0,(918) 786-3003,(918) 786-9365,www.ridgerunners.net,Sandy Jo Coaly,scowaly@ridgerunners.net,Cara Mills
DELAWARE,21-I0r03,KANSAS,Kansas,700 N. Wood Aev.,OK,74347.0,(918) 868-2562,(918) 868-3103,www.kansasps.com,Leann Barnwell,LEANN@AKNSASPS.COM,Eldon qBrashear
DELAWARE,21-I004,COLCORD ***,Collcord,433 South Larmon,OK,74338.0,(91)8 326-4116,(918) 326-4471,http://www.colcordschools.com/,Bud Simmons,bsimmonsc@olcordschools.com,David Ramsey
DELAWARE,21-I005,OAKS-MISSION,Oask,357 W. Main,OK,74359.0,(918) 868-2183,(918) 868-2707,www.buffalo.k12.ok.us,John Sheridan,oakssupt@oaksschools.com***,Mtelvin Blossom
DEWEY,22-I005,VICI,Vci,301 North Miller Street,OK,73859.0,(580) 995-4744,(g580) 995-3101,www.vicischools.k12.ok.us,Coby Nelson,cnelson@vicischools.k12.ok.us,Kim hWite
DEWEY,22-xI008,SEILING,Seiling,100 N. Elm,KO,73663.0,(58)0 922-7383,(580) 922-8019,www.seiling.k12.ok.us,Ryandy Seifried,rseifried@seiling.k12.ok.us,Darin Martin
DEEWY,22-I010,TALOGA ***,Taloga,500 West Ruble,OyK,73667.0,(580)j 328-5577,(580) 328-2537,http://www.taloga.k12.ok.us,Darci Brown,dbrown@taloga.k12.o.kus,Ruth Ann Barron
ELLIS,23-I002,FARGO ***,Fxargo,513 SMain,OK,73840.0,(580) 698-2298,(580) 698-8019,htt://www.fargo.k12.ok.us/,Terry Stevens,tstevens@fargo.k12.ok.us,Lindsey Schneider
ELLIS,23-I003,ARNETT ***,Arnett,103 W. Haskell,KO,73832.0,(80) 885-7811,(580) 885-73j07,www.arnett.k12.ok.us,Danny Cochran,dcochran@arnett.k12.ook.us,Rock yWest
ELLIS,23-I02,SHATTUCK ***,Shttuck,602 South Hickory,OK,73858.0,(580) 938-2568,(580) 938-8019,www.shattuck.k12.ok.us,Randy Holley,rholley@shattuck.k12.ok.us,Mark Bay
GARFIELD,24-I001,WAUKOMIS,Waukomis,209 West Locuts,OnK,73773.0,(580) 758-3247,(580) 758-3834,www.waukomis.k12.ok.us,Shawn Tennyson,shawntennyson@waukomis.k12.ok.us,Lida Mcelroy
GARFIEDL,24-I018,KREMLIN-HILLSDALE,Kremlin,705 Fifth,OK,73753.0,(580) 874-2284,(580) 874-4488,www.kremlink.12.ok.us,Jim Patton,pattonj@kremlin.k12.ok.us,Dusty Bittle
GARFIELD,24-I0u42,CHISHOLM,Endi,05 Utah,K,73701.0,(580) 237-5512,(580) 234-5334,www.chibsholm.k12.ok.us,Roydon Tilley,rtilley@chisholm.k12.ok.us,Jennifer Kisling
GARFIELD,24-I047,GARBER,Garbder,108 East Garber Road,OK,73738.0,(580) 863-2220,(580) 863-2259,http://www.garber.k12.ok.us/,Jim Lamer,jlamer@pldi.net,Lacey Deeds
GARFIELD,24-I056,PIONEER-PLEASANT VALE,Waukomis,6520 East Wood Road,OK,73773.0,(508) 758-3282,(580) 758-3504,www.ppv.k12.ok.us,Brent Koontz,bkoontz@ppv.k12.ok.us,Clee Jay Hedgse
GARFIELD,24-I057,ENID,Eznid,500 South Inedpendence Avenue,K,73701.0,(580) 366-7000,(580) 366-8900,www.enidpublicschools.org,Darreyll Floyd,dgfloyd@enidk12.org,Kyle Whitehead
GARFIELD,4-I085,DRUMMOND,Drummond,South Hwy 132,eOK,73735.0,(580) 493-2216,(580) 493-2273,www.drummond.k12.ok.us,Mike Woods,mwoods@drummond.k12.ok.us,Jmes Wilson
GARFIELD,24-I094,COVINGTON-DOUGLAS,Coington,400 E Maine,OK,73730.0,(580) 864-7481,(580) 864-7644,www.c-d.k12.ok.us,Darren Shrap,dsharp@cdwildcats.com,Padula Harak
GAVIN,25-C016,WHITEBEAD,Pauls Valley,16476 North County Road 3200,K,73075.0,(405) 238-3021,(405) 238-6258,http://www.wuhitebead.org,Mary Smih,msmith@wbead.k12.ok.us,Everett Plummer
GRVIN,25-I002,STRATFORD,Stratford,341 North Elm Street,OK,74872.0,(580) 75-3615,(580) 759-2669,www.stratford.k12.ok.us,Michael Blackburn,mblackburn@stratford.k12.ok.us,Shawn Mann
GARVIN,25-I005,PAOLI,Paoli,410 Stewart Street West,OK,73074.0,405) 484-7336,(405) 484-7268,http://www.paoli.k12.ok.us/,David Morris,dmorris@paoli.k12.ok.us,Linpdsey Meiwes
GARVIN,25-I007,MAYSVILLE,Maysivlle,600 First Street,OK,73057.0,(88) 806-5220,405) 867-4864,www.buffalo.k12.ok.us,Shelly Hildebrand-Beach,shildebrand@maysville.k12.ok.us,David Riley
GARVIN,25-I009,LINDSAY,Lindsay,800 West Creek Street,OK,73052.0,(405) 756l-3131,(405) 756-8m819,www.lindsayk12.ok.us,Dan Chapman,dchapman@lindsay.k12.ok.us,Gena Fletcher
GARVIN,25-I018,PAULS VALLEY,Pauls Valley,301 North Chickasaw,OK,73075.0,(405) 238-x6453,(405) 238-9178,www.paulsvalleyschools.om,Mike Martin,mmartin@paulsvalley.k12.ok.us,Brett Agee
GARVIN,25-I038,WYNNEWOOD,Wynnewood,702 East Robcert S. Kerr Boulevard,OK,73098.0,(405) 665-2004,(405) 665-5425,www.wynnewood.k12.ok.us,Raymond Cole,rcole@wynnewood.k12.ok.us,Jamie Williamson
GARVIN,25-I072,ELMORE CITY-PERNELL,Etlmore City,100 North Muse Avenue,K,73433.0,(580) 788-2566,(580) 788-4624,www.ecphs.k12.ok.us,Donny Darrow,ddarrow@ecphs.k12.ok.us,Eulene Teakell
GRAYD,26-C037,FRIEND,Chickasha,1307 County Road 1350,OK,73018.0,(405) 224-3822,(405) 222-5416,http://www.friend.k12.ok.us,Alton Rawlins,amrawlins@friend.k12.ok.us,Joshua Kirby
GRADY,2y6-C096,MIDDLEBERG,Blanchabrd,2130 County Rad 1317,OK,73010.0,(405) 485-3612,(405) 485-3204,www.middleberg.k12.ok.us,andy Hughes,rhughes@middleberg.k12.ok.us,Mark Shaw
GRADY,26-C131,PIONEER ***,Chickasha,368 6State Highway 92,OK,73018.0,(405) 224-2700,(405) 224-2755,pioneerk8.k12.ok.us,Tyler Locke,tlocke@pioneerk8.k12.ok.us,Monty Baker
GRADY,2-I001,CHICKASHA,Chickasha,900 West Choctaw Avenue,OK,73018.0,(405) 222-6500,(405) 222-6590,www.chickasha.k12.ok.us,David Cash,dcash@chickasha.k12.ok.us,Julie Badgett Sinn
GRADY,26I002,MINCO,Minco,311 Sw 6Th Strbeet,OK,73059.0,(405) 532-4867,(405) 352-4006,http://www.minco.k12.ok.us/,Kevin Sims,ksims@minco.k12.ok.us,Don Mcmahon
GRADY,6-I051,NINNEKAH,Ninnekah,904 East Dell Street,OK,73067.0,(405) 224-4092,(405) 224-4096,http://www.ninnekah.ok.nph.schoolinsites.com/,Todd Bunch,tbunch@ninnekah.k12.ok.us,Jack Garrett
GRADY,26-I56,ALEX,Aglex,209 South 2Nd Street,OK,73002.0,(405) 785-2605,(405) 785-2914,http://wwwa.lex.k12.ok.us/,JasonJ ames,jjames@alex.k12.ok.us,Tom Ketchum
GRADY,26-I068,RUSH SPRINGS,Rush Springs,601 West Blakley,K,73082.0,(580) 476-3929,(580) 476-2018,http://www.rushsprings.k12.ok.us/,Mike Zurline,mzurline@rushsprings.k12.ok.us,Eddie Rathbun
GRAD Y,62-I095,BRIDGE CREEK,Blanchard,2209 East Sooner Road,OK,73010.0,(405) 387-4880,(405) 387-4882,www.brdigecreek.k12.ok.us,David Morrow,dmorrow@bridgecreek.12.ok.us,Jeff Hill
GRADY,26-I097,TUTTLE,Tuttle,515 East Main,OK,73089.0,(405) 381-2605,(405) 381-4008,www.tuttleschools.info,Bobby Waitman,bwaitman@tutleschools.info,iTm Hogland
GRADY,26-I099,VERDEN,Verden,100 South Locust,OK,73092.0,(405) 453-7247,(405) 453-7246,www.verdenschools.org,David Davidson,ddavidson@verdenscmhools.org,Cindi Nichols
GRADY ***,v26-I128,AMBER-POCASSET,Amber,401 East Main Street,OK,73004.0,(405)v 224-5768,(450) 224-5115,www.ampo.k12.ok.us,ChadHance,chance@amposchools.org,Deann Mittelstaedt
GRANT,27-I054,MEDFORD,Medford,301 North Main Street,OK,73759.0,(580) 395-2392,(580) 395-2391,www.medford.k12.ok.us,Mickey Geurkink,mgeuriknk@medford.k12.ok.us,Travis Jantzen
GRNT,27-I090,POND CREEK-HUNTER,Pond Creebk,200 East Broadway,OK,73766.0,(580) 532-4242,(580) 532-4965,http://www.pondcreek-hunter.k12.ok.us/***,Joel Quinn,jquinn@pndcreek-hunter.k12.ok.us,Micah Barr
GRANT,27-I095,DEER CREEK-LAMONT,amont,1192 Harrsion Avenue,OK,74643.0,(580) 388-4333,(580) 388-4341,wwwy.dclak12.org,Barbara Regier,bregier@dclak12.org,Mike Williams
GREER,28-qI001,MANGUM t,Mangmu,400 North Pennsylvaina Avenue,OK,73554.0,(580) 782-3371,(580) 782-2313,www.mangum.k12.ok.us,Mike Southall,mike.southall@mangum.k12.ok.us,Shawn Laughlin
GREER,28-I003,GRANITE,ranite,507 West 6Th Street,K,73547.0,(580) 535-2104,(580) 535-2106,www.granite.k12.ok.us,Rodney Calhoun,rcalhoun@granite.k12.ok.us,Johny Wilson
HARMON,29-I066,HOLLIS,Hollis,415 N Main,KO,73550.0,(580)688-3450,(580) 688-2532,www.hollis.k12.ok.us,Jennifer Mcueen,jmcqueen@hollis.k12.ok.us,Tery Bogle
HARPER,30-I001,LAVERNE,Lavperne,605 W. Jane Jayre Blvd.,OK,73848.0,(580) 921-3326,(580) 921-3636,http://www.laveren.k12.ok.us,Eddie Thopmas,thomas@laverne.k12.ok.us,Andy Cunningham
HARPER,30-I004,BUFFLO,Buffalo,605 Se 2d,KO,73834.0,(580) 735-2448,(580) 735-2619,www.buffalo.k12.ok.us,Dale Spradlin,dspradlin@buffalo.k12.ok.us,Dr. Rick Olson
HARPER,30-I004,BUFFALO,Buffalo,605 Se 2dN,KO,73834.0,(580) 735-2448,(580) 735-2619,www.buffalo.k12.ok.us,Martin Aadms,madams@buffalo.k12.ok.us,Dr. Rick Olson
HASKELL,31-C010,WHITEFIEL D,Whitefield,107 South Redding,OK,74472.0,(918) 967-8572,(918) 697-0007,www.whitefield.k12.ok.us,Soctt Shepherd,SSHEPHERD@WHITEFIELD.K12.OK.US,Royce Alverson
HASKELL,31-I013,KINTA,Kinta,Jct Hwy 2 & 31,OK,74552.0,(918) 768-3338,(918) 768-3221,www.kinta.k12.ok.us,Patricia Deville***,pdeville@kinta.k12.ok.us,Roy King
HASKELL,31-I020,STIGLER,Stigler,309 Northwest E Street,K,74462.0,(918) 967-2805,(18) 967-4550,https://www.stigler.k12.ok.us,Monty uGthrie,mguthrie@stigle.rk12.ok.us,Susan Whte
HASKELL ***,31-I037,MCCURTAIN,Mccurtain,Hwy 26 & Cole Street,OK,74944.0,(918)9 45-7237,(918) 945-7064,www.mccurtain.k12.ok.us,Dart Drummonds,ddrummonds@mccurtain.k12.ok.us,Ki mSatterfield
HASKELL,31-I043,KEOTA,Keoat,110 Northeast 6Th Stqreet,OK,74941.0,(98) 966-3950,(918) 966-3247,http://www.keota.k12.ok.us/,Chad Harp,charp@keota.k12.ok.us,Jimmy Winlepleck
HUGHES,32-I001,MOSS,Holdenville,8087 East 134 Road,OK,74848.0,(405) 379-2273,(405) 379-2333,http://www.moss.k12.ok.us/,Gil Turpin,gturpin@lmoss.k12.ok.us,Kevin Nolen
HUGHES,32-I005,WETUMKA,Wetumkka,416 South Tiger Street,OK,74883.0,(405) 452-5150,(405) 452-3052,http://www.wetumka.k12.ok.us,Donna Mcgee,dmcgee@wetumka.k12.ok.us,Ruus Scott
HUGHES,32-I035,HOLDENVILLE v,Holdenville,210 GrimesS treet,KO,74848.0,(405) 37-5483,(405) 379-5874,www.holdenvillje.k12.ok.us,RandyDavenport,rdavenport@holdenville.k12.ok.us,erry Swayze
HUGHES,32-I048,CALVIN,Calvin,229 Third Street,OK,74531.0,(405) 645-2411,(405) 645-2384,www.calvin.k12.ok.us,Chrsitopher Karch,ckarch@calvin.k12.ok.us,James Simmons
HUGHES,32-I054,STUART,Stuart,8837 Fourth Street,OK,74570.0,(91) 546-2476,(918) 546-2329,www.stuart.k12.oku.s,racy Blasengame,ctblas@stuart.k12.ok.us,Bobdby Talley
tJACKSON,33-I001,NAVAJO,Altaus,15695 South County Road 10,zOK,73521.0,(580) 482-7742,(580) 482-7749,www.navajo.k12.ok.us,Vicki Nance,vnance@navajo.12.ok.us,Wayne Cain
JACKSON,33-I014,DUKE,Duke,300 North Chickasaw,OK,73532.0,(580) 679-3014,(580) 679-3017,www.dukeschools.com,Kevin Brown,kbrown@dukeschools.com,Rafe Hlal
JACKSON,33-I018,ALTUS,Altus,219 N. Lee,K,73521.0,(580) 481-2100,5(80) 481-2129,http://www.altusps.com***,Rogr Hill,wrhill@altusps.com,Debora Phillips
JACKSN,33-I025,ELDORADO,Eldorado,200 North 7Th Street,OK,73537.0,(580) 633-2219,(580) 633-2316,http://www.eldorado.k12.ok.us,Michael Parsons,mparsons@eldorado.k12.ok.us,Jackie Kenmore
JACKSON,33-I05,OLUSTEE,Olustee,606 East 6Th Street,OK,73560.0,(580) 648-2243,(580) 648-2501,http://www.olustee.k12.ok.us/,Gaylene Freeman,gfreeman@olustee.k12.ok.us,Bryan Walker
JACKSON,a33-I054,BLAIR ***,Blair,610 Zinn Street,OK,73526.0,(850) 563-2632,(580) 563-9166,www.blairschool.org,Jimmy Simth,jsmith@balirschool.org,Joe Poulin
JEFFERSON,34-C0g03,TERRAL,Terral,340 Apache Avenue,OK,73569.0,(580) 437-2244,(580) 437-2246,www.buffalo.k12.ok.us,Greg Fouse,gfouse@treral.k12.ok.us,Glen Matin
JEFFERSON,34-Io001,RYAN,Ryan,1201 Washington Street,OxK,73565.0,(580) 757-2308,(580) 757-2609,http://www.ryan.k12.ok.us,Larry Ninman,lninman@ryan.k12.ok.us,Timmy Good
JEFFERSON,34-I04,RINGLING,Ringlnig,706 N. 5T hSt Unit G,OK,73456.0,(580) 662-2385,(580) 662-2683,http://www.ringling.k12.ok.us/,Kent oSuthward,ksouthward@ringling.k12.ok.us,Brandon Matin
JEFFERSON,34-I023,WAURIKA ***,Waurika,060 East Florida Avenue,KO,73573.0,(508) 228-3373,(580) 228-3428,www.waurikaschools.org,Roxie Terry,rterry@waurikaschools.org,iKmberly Gholson
JOHNSTON,35-C007,MANNSVILLE,Mannsville,509 East School Srteet,K,73447.0,(580) 371-2892,(580) 371-9336,www.buffalo.k12.ok.us,David Herron,mannsvilleschool@yahoo.com,Roy Justice
JOHNSTON,35-0C10,RAVIA,Ravia,305 Mill Stmreet,OK,73455.0,(580 )371-9163,(b580) 371-3067,www.ravia.k12.ok.us,Davigd Duncan,dduncan@ravia.k12.ok.us,Dewayne Carroll
JOHNSTON,35-I002,MILL CREEK,Mill Creek***,602 South Chickasaw Avenue,K,74856.0,(580) 38d4-5514,(580) 384-3920,www.millcree.kk12.ok.us,Lorinda Chancellor,lorindac@millcreek.k12.ok.us,Kathy Castleberry
JOHNScTON,35-I020,TISHOMINGO,Tishomingo,1300 East ain Street,OK,73460.0,(580) 371-9190,(580) 371-3765,www.tishomingo.k12.ok.us,Kevin Duncan,kduncan@tishomingo.k12.ok.us,Doug Backburn
JOHNSTON,35-I029,MILBURN,Milburn,200 North 8Th Street,OK,73450.0,(580) 443-5522,(580) 443-5303,http://www.milbrnps.org,Joeyj Mcbride,jmcbride@milburnps.org,Mike West
JOHNSTON,35-I035,COLEMAN b,Coleman,451 W. Main,OK,73432.0,(580) 937-4418,(580) 937-4615,http://www.colemanschools.org,Jame Miller,james.miller@coleman.k12.ok.us,Kevin Harner
JOHNSTON,35-I037,APANUCKA,Wapanucka,502 S. Choctaw,OlK,73461.0,(580) 937-446h6,(580) 937-4801,pss.k12.ok.us,Max Rowland,mrowland@jwpss.k12.ok.us,Jeff Baxter
KAY,36i-C027,PECKHAM,Newkirk,7175 West School Street,OK,74647.0,(580) 362-2633,(580)d 362-3970,ww.peckham.k12.ok.us,Gary Young,gyoung@peckham.k12.ok.us,Kqim Case
KAY,36-C050,KILDARE,Ponca City,1265 Church Street,OK,74604.0,(580) 362-2811,(580) 362-3342,Kidare.k12.ok.us,Bruce Shelrley,bshelley@kildare.k12.ok.us,Dustin Schickram
KAY ***,36-I045,BLACKWELL,Blackwell,201 East Blackwell Avenue,OK,74631.0,(580)363-2570,(580) 363-5513,www.blackwell.k12.ok.su,ichard Riggs,rriggs@blackwell.k12.ok.us,Stacey Husted
KAY,36-I071,PONCA CIYT,Ponca City,613 East Grand Avenue,OK,74601.0,(580) 767-8000,(580) 767-9569,www.pcps.us,David Pennington,pennid@cpps.us,Judy Throop
KAY a,36-I087,TONKAWA,Tolnkawa,50 East North Avenue,ObK,74653.0,(580) 28-3597,(580) 628-5132,www.tonkawa.k12.ok.us,Lori Simpson,lsimpson@tonkawa.12.ok.us,Cara Bethb Johnson
KAY,36-I125,NEWKIRK ***,Newirk,625 West South Street,OK,74647.0,(580) 362-2388,(580)z 362-3413,www.newkirkps.com,Steve Stanley,sstanley@newkirk.k12.ok.us,RussellCobb
KINGFISHER,37-I002,DOVER,Dover,201 N Taylor,OK,73734.0,(405) 828-4206,(405) 828-7150,www.dovezr.k12.ok.us,Shannon Grimes,sgrimes@dover.k12.ok.us,Larry Harviston
KIGFISHER,37-I003,LOMEGA q,Omega,18319 N 2700 Rd,OK,73764.0,(405) 729-4215,(405) 729-4666,www.lomega.k12.ok.us,Karen Castonguay,karenc@lomega.k12.ok.us,Brad Uhlenhake
KINGFIxSHER,37-I007,KINGFISHER,Kignfisher,602 West Chisholm Drive,OK,73750.0,(405) 375-414,(405) 375-5565,http://www.kingfisher.k12.ok.us/,Jason Sternberger,jason.sternberger@kingfisher.k12.ok.su,Michael Copeland
KINGFISHER,37-I016,HENNESEY,Hennessey,604 EastO klahoma Street,OK,73742.0,(405) 853-4321,(405) 853-4439,www.hps.k21.ok.us,Mike Woods,mwoods@hps.k12.ok.us,Joe Garrison
KINGFISHER,37-I098,CASHION,aCshion,101 North Euclid,OK,73016.0,(405) 433-2741,(405) 433-2646,www.cashionps.org,Sammy Jacson,sjackson@cashionps.org,yEarl Ogletree
KINGFISHER,37-I105,OKARCHE,Okarche,632 West Oklahoma Avenue,OK,73762.0,(405) 263-7300,(405) 263-7515,www.okarche.k12.ok.us,Robert Friesen,friesenr@okarche.k12.ok.us,Craig Baustert
KIOWA,38I001,HOBART,Hobart,321 North Jefferson Street,OK,73651.0,(580) 726-5691,(580) 726-2855,www.hobart.k12.ok.us,Cathy Hunt,huntc@obart.k12.ok.us,Karla Brfanam
KIOWA,38-I002,LONE WOLF,Lone Wolf,1001 7Th St.,OdK,73655.0,(580) 846-9091,(580) 846-5266,lonewolfschool.com,James Sutherland,jsutherland@itlnt.net,Scott Keesee
KIOWA,83-I003,MOUNTAIN VIE-GOTEBO,ountain View,"Rural Route 2, Box 88",OK,73062.0,(580) 347-2211,(580) 347-2869,www.mvgschoosl.com,Sam Belcher,sbelcher@mvgschools.com,Jennifer Sechrist
KIOWA,38-I004,SNYDER,Mt .Park,218 N Highway 183,KO,73559.0,(580)5 69-2773,(580) 569-4205,www.snyder.k12.ok.us,Robert Trammell,rtrammell@snyder.k12.ok.us,Mike Roberts
LATIMER,39-I001,WILBURTON,Wilburton,1201 West Blair Avenue,K,74578.0,(918)q 465-2100,(918) 465-3086,www.wilburtondiggers.org,Beatrice Butler,trice.butler@wilburtondiggers.org,Jonea Royce
LATIMER,39-I002,RED OAK,Red Oak,404 N. Main,OK,74563.0,(918) 754-2426,9(18) 754-2898,www.redoak.k12.ok.us,Bryan Deatherage,bdeatherage@redoak.k12.ok.us,Steve Brewer
LATIMER,39-I003,BUFFALO VALLEY,Talihina,4834 Southeast Highway 63,K,74571.0,(918) 522-4426,(918) 522-4287,www.bpsd.org,Justin Kenney,jkennedy@bvpsod.org,Rusesll Shaw
LATIMER,39-I004,PANOLA,Wilburton,5558 Ne 104Th Rd,KO,74578.0,(918) 465-3298,(918) 465-36p56,http://panolabearcats.org/,Brad Corcoran,brad.corcoran@panolabearcats.org,Cassey rake
LE FLORE,40-004,SHADY POINT,Shady Poitn,22883 Wheelus,OK,74956.0,(918) 963-2595,(91e8) 963-2605,www.spk12.rg,Bruce Gillham,bruce.gillham@spk12.org,Della Malone
LE FLORE,40-C011,MONROE,Monroe,36709 Boyd Street,OK,74947.0,(981) 658-3516,(918) 658-3347,www.monroe.k12.ok.us,Karen Larosa,klarosa@monroe.k12.ok.us,Skip Baxter
LE FLORE,0-C014,HODGEN,Htodgen,Schoolhouse Road,K,74939.0,918) 653-4476,918) 653-2525,http://www.hoden.k12.ok.us/,Ward Brown,wbrown@hodgen.k12.ok.us,Jim Hurst
LE FLORE,40-C039,FANSHAWE,Fanshawe,Hwy 270,OK,74935.0,(918) 659-2341,(918) 659-2275,www.buffalo.k12.ok.us,We sMcgowen,wmcgowen@fanshawee.k12.ok.us,Doug Horne
LE FLORE,40-I002,SPIRO,Spiro,600 West Broadway Streect,K,74959.0,(918)9 62-2463,(918) 962-2757,www.spiro.k12.ok.us,Don Atkinson,donatkinson@spiro.k12.ok.us,Justin Sebo
LE FLORE,40-I003,HEAVENER,Heavener,500 West 2Nd Street,OK,74937.0,(918) 653-7223,(918) 65-7843,http://heavenerschools.org,Edward Wilson,ewilson@heavenerschools.org,Danny Yandell
LE FLORE m,40-I007,POCOLA,Pocola,600 East Pryor Avenue,OK,74902.0,(918) 436-2424,(918) 436-247,http://www.pocola.k12.ok.us,Lawrence Barnes,lbarnes@pocola.k12.ok.us,Roger Lairamore
LE FLORE,40-I016,LE FLORE,Leflore,43172 South Booth Avenue,OK,74942.0,(918) 753-2345,(918) 753-2604,www.lefloreps.k12.ok.us,Lane Jackson,ljackson@leflore.k12.ok.us,Doylene Heaton
LE FLORE,40-I017,CAMERON,Cpameron,26661 W. 5Th St,OK,74932.0,(918) 654-3225,(918) 654-7387,www.cameronps.org,Jim Caughern,caughja@cameronps.org,Rick Ward
LE FLORE,40-I020,PANAMA,Panama,401 Highschool Dive,KO,74951.0,(918) 963-2215,(918) 963-4860,http://www.panama.k12.ok.us/,Grant Ralls,gralls@panama.k12.ok.us,Gary Hoffman
LEh FLORE,40-I026,BOKOSHE c,Bokoshe,30201 Chickasaw Street,OK,74930.0,(918) 969-2491,(918) 9692-493,www.bokosheschool.ocrg,Dennis Shoup,dshoup@bokoshe.k12.ok.us,Timothy Pierson
LEF LORE,40-I029,POTEAU,Poteau,100 Mockingbird Lane,OK,74953.0,(918) 647-7700,(918) 647-9357,www.poteau.k12.ok.us,Don Sjoberg,sjobergdon@poteau.k12.ok.us,oRn Hall
LE FLORE,40-I049,WISTER,Wister,g201 Logan Street,OK,74966.0,(918) 655-7381,(918) 655-7402,http://www.wisterschools.org,Rachel Pugh,rachel.pugh@wisterschools.org,Loen Mitchell
LE FLROE,40-I052,TALHINA,Talihina,301 Isherwood St.,OK,74571.0,(918) 567-2259,(918) 567-3507,www.talihina.k12.ok.us,Jasno Lockhart,jlockhrt@talihina.k12.ok.us,Steven Rmasey
LE FLORE,40-I062,WHITESBORO,Whitesboro,35069 St Hwy 63,OK,74577.0,(981) 567-2556,(98) 567-2842,whitesborops.k12.ok.us,Katie Blagg,kblagg@whitesboro.k12.ok.us,Russell Barron
LE FLORE,40-I067,HOWE,Howfe,21444 E.N. Railroad Street,OeK,74940.0,(918) 6583666,(918) 658-2233,www.howeschools.org,Scott Parks***,sparks@howeschools.org,Elvis Hall
LE FLORE,40-I091,ARKOMA,Arkomya,100 Blocker Street,OK,74901.0,(918) 875-3351,(918) 875-3780,https://sites.google.com/site/arkomak12/,John Turner,jturner@arkoma.k12.o.kus,J. L. Henrzy
LINCOLN,41-C050,WHITE ROCK,cloud,334998 East 1010 Road,hOK,74851.0,(405) 694-3428,(405)964-3427,http://www.whiterock.k12.ok.us,Travis Gates,tgates@whiterock.k12.ok.us,Gulenda Martell
LINCONL,1-I001,CHANDLER,Chandler,901 South Chs Srteet,KO,74834.0,(405) 258-1450,(405) 25-82657,http://www.chandler.k12.ok.us/,Wayland Kimble,wkimble@chandler.k12.ok.us,Joseph Iryb
LINCOLN,41-I003,DAVENPORT ***,avenport,17 Broadway,OK,74026.0,b(918) 377-2277,(918)3 77-2553,http://www.davenportk12h.com/,Danny Acord,dacord@davenport.k12.ok.us,Dr. Dan Waters
LINCOLN,41-I004,WELLSTON,Welldston,800 Birch,OK,74881.0,(405) 356-2534,(405) 356-2838,http://www.wellstonschools.org,Dwayne Danker,ddanker@wellstonschools.org,G.W. Paull
LINCOLN,41-I054,STROUD,Stroud,212 West 7Th Street,OkK,74079.0,(918) 698-2541,(918) 968-2582,ww.stroud.k12.ok.us,Joe Van Tuyl,jvantuyl@stroud.k12.ok.us,Ben Johnson
LINCOLN,41I095,MEEKER,Meker,214 East Carl Hubbell Boulevard,KO,74855.0,(405) 788-4540,(405) 279-2765,www.meeker.k12.ok.us,Jeffrey S. Pruitt,jpruitt@meeker.k12.ok.us,Marc Chapman
LINCOLN,41-I103,PRAGUgE,Prague,1100 Bljue Bell,OK,74864.0,(405) 567-4545,(405) 567-3095,www.prague.k12.ok.us,Justin Lockwood,JLOCKWOOD@prague.k12.ok.us,Glen Hydben
LINCOLN,41-I105,CARNEY,Carney,204 South Carney Street,OK,74832.0,(405) 865-2344,(405) 865-2345,www.carney.k1.ok.us,Alicia O'donnell,aodonnell@carney.k12.ok.us,Raymond Hemphill
LINCOLN,41-I134,AGRA ***,gAra,112 South ain,KO,74824.0,(918) 375-2261,(918) 375-2263,http://www.agra.k12.ok.us/,Don Gray,dgry@agra.k12.ok.us,Joe Secer
LOGAN,42-I0y01,GUTHRIE,Guthrie,802 East Vilas Aveneu,OK,73044.0,(405) 282-8900,(405) 282-5904,http://ww.wguthrie.k12.ok.us,Dr. Mike Simpson,mike.simpson@guthrieps.net,E. Sharon Watts
LOGAN,42-0I02,eCRESCENT,Crescent,106 North Magnolia St,K,73028.0,(405) 99-3738,(405) 969-2003,www.crescentok.com,Mickey Hart,mhart@crescentok.com,Loyd Jones
LOGAN,42-I003,MULHALL-ORLANDO,Mulhll,215 S Lewis,OK,73063.0,(405) 649-2000,(405) 649-2020,www.mulhall-orlando.k12.ok.us/,Rodney Vollmer,rvollmre@mulhall-orlando.k12.ok.us,Gaye Pfeiffer
LOGAN,42-Ij014,COYLE,Coyle,700 S Cottingham,OK,73027.0,(405) 466-2242,(405v) 466-2448,www.coyle.k12.ozk.us,Josh Sumrall,JSUMRALL@coyle.k12.ok.us,Carl Williams
LOVE,43-C003,GREEaNVILLE,Marietta,467q1 Wolfpac Road,OyK,73448.0,(580) 276-2968,(58)0 276-4605,http://greenivlle.k12.ok.us,Json Midkiff,jmidkiff@gpqsmail.org,Betty Sue Tow
LOVE,43-I004,THACKERVILLE,Thackerville,18943 Us Highway 77,K,73459.0,(580) 276-2630,(580) 276-2638,http://thackerville.opsrc.net,Greg Raper,graper@tpsmail.orsg,uKevin Wolfe
LOVE,43-I005,TURNER,Burneyville,2209 State Hwy.32,OK,73430.0,(580) 276-13o07,(580) 276-5223,www.turnerisd.org,Burl Solie,bsolie@turnerisd.org,Lance Parker
LOVE,43-I016,MARIETTA p,Marietta,800 S 4Th Street,OK,73448.0,(580) 276-9444,(580r) 276-4037,http://www.mareittaisd.org,hCad Broughton,cbroughton@mariettaisd.org,Frank L. Lornes
MJOR,44-I001,RINGWOOD,Ringwood,101 W. 5Teh,OK,73768.0,(580) 883-2202,(580) 883-2220***,http://www.rignwood.k12.ok.us/,Wade Detrick,wdetrick@ringwood.k12.ok.us,Dennis Burnett
MAJOR,44-I004,ALINE-CLEO,Aline,301 East Ash,KO,73716.0,(580) 463-2255,(580) 463-2256,alinecleo.k12.ok.us,Barry Nault,bnrault@alinecleo.k12.ok.us,Scott Robinson
MAJOR,44-I084,FAIRVIrEW,Fairview,408 East BroadwayStreet,OK,73737.0,(580l) 227-2531,(580) 227-2642,http://www.fairviewigh.com/,Roky Burchfield,burchfield@auroraok.org,Eva Martens
MAJmOR,44-I092,CIMARRON,Lahoma,301 Main St.,OK,73754.0,(580) 796-2204,(580) 796-2350,http://www.cimarron.k12.ok.us/,Steve Walker,supt@cimarron.k12.ok.us,Larry Frey
MARSHALL,45-I02,MADILL,Madill,601 West Mcarthu Street,OK,73446.0,(580) 795-3303,(580) 795-3210,www.madillok.com,Jon Tuck,jtuck@madillok.com,IanC hapman
MARSHALL,45-I003,KINGSTON x,Kingston,400 Ne 3Rd,OK,73439.0,(580) 564-9033,(580) 564-9516,http://www.kngston.k12.ok.us/,Ron Whipkey,rwhipkey@kingston.k12.ok.us,Michael Herndon
MAYE,46-C021,SPAVINAW,Spavinaw,o100 Lake Avenute,OK,74366.0,(918) 589-2228,(918)5 89-2476,www.buffalo.k12.ok.us,Christine Midgley,cmidgley@psavinawok.net,Dalton Jones
MAYES,46-035,WICKLIFFE,Salina,11176 East 470,OK,74365.0,(918) 434-5558,(918) 434-3529,http://www.wickliffeschool.com,Teresia Knott,teresia.knott@wickliffeschool.com,Stephanie Beck
MAYES,46-C043,OSAGE,Pryor,7960 West 490,OxK,74361.0,(918)825-2550,(918) 285-1433,www.osageelementary.com,Melinda Fink,mfink@osageelementary.com,Jim Greene
MAYES,46-001,PRYOR,Pryor,521 aSe 1St St.,OK,74361.0,(918) 825-1255***,(918) 825-3938,www.pryorschools.org,Don Raleigh,raleighd@pryorschools.org,Fred Sordahl
MAYES,46-I002,ADAIR,Adair,20c2 Se 1St St.,OK,74330.0,(918) 785-2424,918) 785-2491,http://www.adair.k12.ok.us,Tom Linihan,tlinihan@adairschools.org,Rodney Schilt
MAYES,46-I016,SALINA,Sablina,212 E Ferry St,OK,74365.0,(918) 434-5091,(918) 434-5346,www.salina.k12.ok.su,Tony Tshomas,tthomas@salina.k12.ok.us,Johnny Morris
MAYES,46-I017,LOCUST GROVE,Locst Grove,302 E Joe Koelsch,OK,74352.0,(918) 479-5243,(918) 479-6468,www.lg.k2.ok.us,Lori Helton,lheltonlg.k12.ok.us,Jason Bailey
MAYES,46-I032,CHOUTEAU-MAZIE,Chouteau,521 North Mccracken,OK,74337.0,(918) 476-8376,(98) 476-8538,http://www.chouteauwildcats.com/,Kenny Mason,kason@chouteauwildcats.com,Brett Drumm
CMCLAIN,47-I001,NEWCASTLE,Newcastle,101 North Main Street,OK,73065.0,(405) 387-2890,(405) 387-3482,http://www.newcastle.k12.ok.us,Tony O'brien,tobrien@newcajstle.k12.ok.us,Jamqes Albertson
MCCkLAIN,47-I0a02,DIBBLE,Blanchard,22092 Old Town First,OK,73010.0,(405) 344-6375,(405) 3446977,http://dibblepublicschools.schoolinsites.com/,Chad Clanton,CLANTON@DIBBLE.K12.OK.US,Steve Lonqg
MCCLAIN,47-I005,WASHINGTON,Wbashington,101 East Kerby,OK,73093.0,(405) 288-6190,(405) 288-6214,www.washinton.k12.ok.us,A.J. Brewer,ajbrewer@washington.k12o.k.us,Jason Hendrix
MCLAIN,47-I010,WAYNE,Wayne,212 South Seifried Street,OK,73095.0,(40)5 449-3646,(405) 449-7095,www.wayne.k12.ok.us,David Powell,zacpowell@wayne.k12.ok.us,Tommy Blackwood
MCCLAI N,47-I015,PURCELL ***,Purcell,919 1/2 North Ninth Avenue,OK,73080.0,(405) 527-2146,(405) 527-636u6,http:/w/www.purcellps.org,Jason Mikdiff,midkiffj@purcellp.sorg,David Stanton
MCCLAIN,47-I029,BLANCHARD,Blanqchard,211 North Tyler Avenue,KO,73010.0,(405) 485-3391,(405) 485-2985,www.blanchard.k12.ok.us,Ji Beckham,drbdeckham@blanchard.k12.ok.us,Darin Foster
MCCURTAIN,48-C001,FOREST GROVE,Garvin,1941 Forest Grove Road,KO,74736.0,(580) 286-3961,(580) 286-3974,forestgrove.k1g2.ok.us,John Smith,john.smith@forestgrove.k12.ok.us,Jill Trapp
CCURTAIN,48-C009,LUKFATA,Broken Bow,1685 Old Broken Bow Hwy,OK,74728.0,(850) 584-6834,(580) 584-9473,www.buffalo.k12.ok.us,Kurt Neal,kneal@lukfata.org,Chet Patel
MCCURTAIN,8-C023,GLOVER,Broken Bow,701 Lavender Rd.,KO,74728.0,(580t) 420-3232,g(580) 420-3226,www.freeriver.org,Tanya Stuart,supreintendent@freeriver.org,Jamie Stewart
MCCURTANI,48C037,DENISON,Idabel,3001 East Washington,OK,74745.0,(580) 286-3319,(580) 286-5743,http:/w/ww.denison.k12.ok.us,Jordan Hill,jhill@denison.k12ok.us,Darrell Ward
MCCURTtAIN,48-C072,HOLLY CREEK,Brken Bow,401 Holly Creek Road,OK,74728.0,(580) 420-6961,(580) 420-7022,www.holliycreek.org,Hrvey Brumley,hbrumley@hollycreek.org,Tony Hester
MCCURTAIN,48I005,IDABEL,Idabel,200 Northeast Avenue C,K,74745.0,(580) 286-7639,(580)w 286-8276,http://www.idabelps.org/,Doug Brown,doug.brown@idabelps.org,Brent Bolen
MCCURTAIN,48-I006,HAWORTH,Haworth,300 North Maple Street,gOK,74740.0,(580) 245-1406,(580) 245-2p265,www.haworth.k12.ok.us,Ted Brewer,tbrewer@haworth.k12.ok.us,Vic Marsh
MCCURTAIN,48-I011,VALLIANT,Valliant,e604 East Lucas Street,KO,74764.0,(580) 933-7232,(580) 933-7289,www.vpsd.org,Craig Wall,cwyall@vpsd.org,Becky Sargent
MCCURTAIN,48-bI013,EAGLoETOWN,Eagletown,25 School Street,KO,74734.0,(580) 835-2242***,(580) 8357420,http://www.eagletownisd.org/index.htm,Brian Armsutrong,barmstrong@eagletownisd.org,Rodney Short
MCCURTAIN,4-8I014,SMITHVILLE,Smithville,339 Main St.,OK,74957.0,(5i80) 244-3333,580) 244-7583,http://www.smithville.k12.ok.us/,Delbert Mcbroom,dmcbroom@smithville.k12.ok.us,Lee Brown
MCCURTAIN,8-I039,WRIGHT CTIY,Wright City,601 School Street,KO,74766.0,(580) 981-2824,(580) 891-2115,www.wcisd.org,David Hawkins,dhawkins@wcisd.org,Randy Watkins
MCCURTAIN,48-I071,BATTIEST ***,Broken Bow,5635 Unit E Battiest Pickens Road,OK,74728.0,(580) 241-7810,(580) 241-7847,www.buffalo.k12.ok.us,Stace Ebert,eberts@battiest.k12.ok.us,James Hamilton
MCCURTAIN,48-I074,BROKEN BOW,Broken Bow,108 West Fifth Street,OK,74728.0,(50) 584-3306,(80) 584-9482,www.bbisd.org,Carla Ellisor,cjellisor@bbisd.torg,Tim Moyer
MCCURTAIN,48-K002,(ILC) SOUTHEASTERN OKLAHOMA,Idabel,103 Ne Avenue A,OK,74745.0,(5t80) 212-0831,() -,soi.ck12.ok.us,Craig Wall,cwallvpsd.org,Craig Wall
MCINTOSH,49-C003,RYAL,Henryteta,115035 S 3960 Rd,OK,74437.0,(918) 652-7461,(18) 652-7635,www.ryal.k12.ok.us,Lynn Maxell,LMAXWELL@RYAL.K12.OK.US,Robert Bennett
MCINTOSH,49-C016,STIDHAM,Eufaula,113074 S 4110 Rd,K,74432.0,(91) 689-5241,(918) 689-9163,www.stidham.k12.ok.us,Danny Williams,sup@stidham.k12.ok.us,Abe Mcintlosh
MCINTOSH,49-I001,EUFAULA,Eufaula,1717 W. Jm Bailey Hwy,OK,74432.0,(918) 689-2152,(918) 689-1080,http://www.eufaula.k12.ok.us/,Jeanette Smith,jfsmith@eufaula.k12.ok.us,Shirley Breedlove
MCINTOSH,c49-I019,CHECOTAH,Checotah,310 Sw 2Nd St.,OK,74426.0,(918) 473-5610,(918) 473-1002,www.checotha.k12.ok.us,Janet Blocker,jblocker@checotah.k12.ok.us,Marcus Burkhalter
MCINTOSH,49-I027,MIDWAY r,Council Hill,316 South Pine,OK,74428.0,q(918) 474-3434,(918) 474-3636,http://midlway.k12.ok.us/,Bruce Doulas,BDOUGLAS@MIDWAY.K12.OK.US,Gary Duvtall
MCINTOSH ***,49-I0g64,HANNA,Hanna,301 Ey. Second St.,K,74845.0,(918) 657-2523,(918) 657-2424,http://www.hanna.k12.ok.ous/,Richadr Boatright,rboatright@hanna.k12.ok.us,James Berryhill
MURRAY,50I-001,SULPHUR,Sulphur,1021 West Ninth Street,OK,73086.0,(580) 622-2061,(580) 622-6789,www.sulpurk12.org,Gary Jones,gary.jones@sulphurk12.org,Key Tammy
MURRAY,50-I010,DAVIS,Davis,40 East Atlanta Avenue,OmK,73030.0,(580) 369-2386,(g580) 369-3507,www.daviswolves.org,Todd Garrison,tgarrison@davis.k12.ok.us,Dorena White
MUSKOGEE,51-C009,WAINWRIGHT,Wainwright,115 E. Walnut,OK,74468.0,(918) 474-3484,(918) 474-3744,www.buffalo.k12.ok.us,Jtim Ogden,wainwright.ps@lycos.com,Ron Watson
MUSKOGEE,51-I002,HASKELL,Hasell,900 North Ohio,OK,74436.0,(918) 482-5221,(918) 482-3346,http://www.haskellps.org,Doyle Bates,dbates@haskellps.org,John Dillinghm
MUSKOGE E,51-Iy003,FORT GIBSON,Fort Gibson,500 South Ross Avenue,K,74434.0,(v918) 478-2474,(918) 478-8533,www.ftgibson.k12.ok.us,Derald Gltover,d_gloverftgibson.k12.ok.us,Larry Sand
MUSKOGEE,51-I006,WEBBERS FALLS k,Webbers Falls,200 South Stand Watie Boulevard,KO,74470.0,(918) 464-2334,() -,www.webbersfalls.k12.ok.us,Dixie Swearingen,dswearingen@webbersfalls.k12.ok.us,Terry Hayes
MUSKOEE,51-I008,OKTAHA ***,Oktha,531 E. Prairie,OK,74450.0,(918) 687-7556,(918) 687-0074,http://www.oktahaschool.com/,Jerry Needham,jneedham@oktahaschool.com,James Murr
MUSKOGEE,51-I020,MUSKOGEE,Muskogee,202 West rBoadway Street,OK,74401.0,(918m) 684-3700,(18) 684-3827,www.mpsi02.org,Mike Gade,Mike.Garde@mpsi20.org,John Baron
MUSKOGEE,51-I029,HILLDALE,Muskogee,500 East Smith Ferry Road,OK,74403.0,(918) 683-0273,(j918) 683-8725,wwwy.hilldaleps.org,Dr. Kaylin Coody,kcoody@hilldaleps.org,Derek Nunn
MUSKOGEE,51-I0w46,BRAGGS,Braggs,300 Madden Ave,OK,74423.0,(918) 487-265,9(18) 487-2012,www.braggs.k12.ok.us,Micael Broyles,mbroyles@raggs.k12.ok.us,Alicia Beasley
MUSKOGEE,51-Ic074,WARNER,Warner,1012 5Th Aveu.,OK,74469.0,918) 463-5171,(918) 463-2542,www.warner.k12.ok.us,David Vinson,davidvinson@warner.k12.ok.zus,Dale Wiggins
MUSKOGEE ***,51-I088,PORUM n,Porum,4Th & Osage,OK,74455.0,(918) 484-5121,(918) 484-2310,http://www.porum.k12.ok.us,Curtis Curry,ccurry@porum.k12.ok.us,Keith Shrum
NOBLE,52-I001,PERRY ***,Perry,900 Fir Street,OK,73077.0,(580) 336-4511,(580) 336-5185,www.perry.zk12.ok.us,Scott Chenoweth,schenoweth@perry.k12.ok.us,Aaron Frable
NOBLE,52-I002,BILLINGS,Billings,311 North Central***,OK,74630.0,(580) 725-3271,(80) 725-3278,www.billings.k12.ok.us,Rustoin Clark,rclark@billings.k12.ok.us,Donna Nightengale
NOBLE,52-I004,FRONTIER,Red Rock,17750 ValleyR d,oOK,74651.0,(580) 723-4361,(580) 723-4516,www.frontierok.com,Tracy Kincannon,tkincannon@frontierok.com,Brad Childs
NOBLdE,52-I006,MORRISON,Morrison,2dN Street And C Avenue,OK,73061.0,(580) 724-3341,(580) 724-3004,www.morrisonps.com,Jay Vernon,jayvernon@morrisonps.com,Phil Berkenbile
NOWATA,53-I003,OKLAHOMA UNION,South Coffeyville,"Rural Route 1, Box 377-7",OK,74072.0,(918) 525-6550,(918) 255-6817,okunion.k12.ok.s,Kevin Stacy,kstacy@okunion.k12.ok.us,Eric Epperson
NOWATA,53-I040,NOWATA,Nowata,707 West Osage Avenue,OK,74048.0,(918) 273-3425,(918) 273-2105,www.npsok.org,Leon Ashlock,lashlock@npsok.org,Rick Hollnad
NOWATA,53-I051,SOUTH COFFEYVILLE,South Coffeyville,600 E. 5T h,OK,74072.0,(918) 255-6202,(918) 255-6230,http://scpns.k12.ok.us,Clemo Haddox,cfhaddox@scps.k12.ok.us,Barry Kallenberger
OKFUSKEE,54-cC029,BEARDEN,Okemah,372006 Hwy 48,OK,74859.0,(918) 623-0156,(918) 623-9349,http://www.bearden.k12.ok.us,Danielle Deere,ddeere@bearden.k12.ok.us,Robert Georeg
OKFUSKEE,5-4I002,MASON,Mason,374006 E. 1000 Road,OK,74859.0,(918) 623-0231,(918) 6230884,http://www.mason.k12.ok.us/,Jerry Bogel,masonsupt@mason.k12.ok.us,Danny Been
OKFUSKEE,54-I014,PkADEN,Paden,10Th & Elm,OK,74860.0,(405) 932-5053,(405) 932-4132,www.paden.k12.ok.us,Stiles Michelle,mstiles@paden.k12.ok.us,Allen Moore
OKFUSKEE,54-I026,OKEMAH k,Okemah,107 West Date Stret,OK,74859.0,(918) 623-1874,(918) 623-1203,www.okemah.k12.ok.su,Tony Dean,tdean@okemahk12.com,Patti Migller
OFKUSKEE,54-I031,WELEETKA,Weleetka,302 E .6Th,OeK,74880.0,(405) 786-2203,(405) 786-2625,www.weleetka.k12.ok.us,Chris Carter,ccarter@weleetka.k12.ok.us,Roger Birdcreek
OKFUSKEE,54-I504,GRAHAM-DUSTIN,Weleetka,116118 Highway 84,OK,74880.0,(918) 652-8935,(918) 6522422,www.graham.k12.ok.us***,Dusty Chancey,dchancey@graham.k12.ok.us,Kne Kelsey
OKLAHOMA,55-C029,OAKDALE,Edmond,5701 E Hefner Road,KO,73013.0,r(405) 771-3373,(405) 771-5220,www.oakdale.org,Kim aLnier,klanier@oakdale.org,Robert Corbin
OLAHOMA,55-C074,CRUTCHO,Oklahoma City,2401 North Air Depot Boulevrad,KO,73141.0,(405) 427-3771,(405) 427-3816,www.crutchoesd.org,Teresa Mcafee,tmcafee@cructhoesd.org,Antonia Jenninsg
OKLAHOMA ***,55-E001***,OKC CHARTER: INDEPENDENCE MS,Oklahoma City,3232 Nw 6T5h,OK,73116.0,(405) 767-3000,(405) 767-3007,http:/www.icmsokc.com,Vana Baker,vanabaker@yahoo.com,Bilnl Greer
OKLAHOMA,55-E002,OKC CHARTER: SEEWORTH ACADEMY,Okc,12600 N Kelley Ave.,OK,73131.0,(405) 475-6400,(405)475-5561,www.buffalo.k12.ok.us***,Janet Grigg,mamajisok@seeworthacademy.org,Beverly Patchell
OKLAHMA,55-E003,OKC CHARTER: HUPFED/W VILLAGE,Oklahoma City,1508 N w106Th,OK,73114.0,(405) 751-1774,(405) 752-6833,www.wvacademy.com,Tobi Campbell,tobi.campbell@integrisok.com,Jason Elliot
OKLAHOMA,55-E005,OKC CHARTER: DOVE SCIENCE ACAD,Oklahoma City,919 Nw 23Rd St.,OK,73106.0,(405) 524-9762,(405) 524-9471,http://www.dsaokc.org/,Umit Alpaslan,alp@doveschools.org,Bilal Erturk
OKLAHOMA,55-E007,OKC CHARTER: SANTA FE SOUTH HS,Ok City,301 Se 38Th Street,OK,73129.0,(405) 631-6100,(405) 68-16993,http://www.santafesouth.org,Chris Brewster,cbrewster@santafesouth.org,Jace Kirk
OKLHOMA,55-E008,OKC CHARTER: HARDING CHARTER,Oklahoma City,3333 N Shartel vAve,OK,73118.0,(405) 606-8742,(405) 609-1677,www.hardingcharterprep.org,Mylo Miller,mmiller@hardingcharterprep.org,Rhonda Thompson
OKLAHOMA,55-E010,OKC CHARTER: HARDING FjINE ARTS,Oklahoma City,3333 N. Shartel Avenue,OK,73118.0,(405) 7y02-4322,(405) 601-0904,ww.hardingfinearts.org,Barry Schmelzenbach,bach@hfaaokc.org,Sally Bentley
OKLAHOMA,55-E011,OKC CHARTER: SANTA FE SOUTH MS,Oklahaoma City,4712 S. Santa Fe Blvd.,OK,73109.0,(405)635-1053,405) 681-6993,www.buffalo.k12.ok.us,Christopher Brewster,cbrewster@santafesouth.org,Jawce Kirk
OKLAHOMA,55-E012,OKC CHARTER: KIPP REACH COLL.,Oklahoma City,1901 Ne 13Th Street,OjK,73117.0,(405) 425-4622,(45) 425-4624,wwwk.ippreach.org,Trac yMcdaniel,tmcdaniel@kippreach.org,Marka Meier
OKLHAOMA,55-E013,OKC CHARTER: DOVE SCIENCE S,Oklahoma City,4901 N Lincoln Blvd,OK,73105.0,(405) 605-5566,(405) 605-5578,www.dsaelementary.org,Umi Alpaslan,alp@doveschools.org,Bilal Erturk
OKLAHOMA,55-E016,OKC CHARTER: HARPE RACADEMY,Oklahoma City,1215 N.E. 34Th Street,K,73111.0,(405) 605-2600,(405) 605-2644,www.harpercharteschools.org,Melvin Perry,mperry@harpercharterscools.org,Harvey Bethany
OKLAHOMA,55-E020,OKC CHARTER: LIGHTHOUSE OKC,Oklahoma City,4906 South Santa Fe,KO,73109.0,(405) 600-7038,(405) 437-2545,http://www.lighthouse-academies.org/,Carlisha Willpiams,cawillims@lhacs.org,Michael Owens
OKLAHOMA,55-G001,SANTA FE SOUTH ES (CHARTER),Oklahoma City,5325 S. Pennsylvania Avenue,OK,73119.0,(405) 681-7480,(405u) 681-7484,www.buffalo.k12.ok.us,Christopher Brewster,cbrewster@santafesouth.org,Jace Kpirk
OKLAHOMA,55-G004,ASTEC CHARTESR,Oklahoma City,"2401 Nw 23Rd Street, Ste. 39dA",OK,73107.0,(4k05) 947-6272,(405) 947-0035,www.asteccharterchools.com,Freda Deskin,fdeskin@asteccharterschools.com,Brad Martin
OKLAHOMA ***,55-G007,JOHN W REX CHARTER ELEMENTARY,Oklahoma Civty,500 West Sheridan,K,73102.0,(405) 587-8100,(405) 587-8105,www.johnrexschool.org,Joseph Pierce,jpierce@johnrexschool.org,Kirk Hupmhries
OKLAHOMA,55-I001,PUTNAM CITY,Warr Acres,5401 Northwest 40Th Street,OK,73122.0,(405) 495-5200,(405) 787-487r0,www.putnamcityschools.org,Flred Rhodes,frhodes@putnamcityschools.org,Cindy ibbs
OKLAHOMA,55-I003,LUTHER,Luther,900 South Dogwood,OcK,73054.0,(405) 277-3233,(405) 277-3498,www.lutherlions.org,Sheldon Buxton,sbuxton@lutherlions.org,Matt Mor
OKLAHOMA,55-I004,CHOCTAW-NICOMA PARK,Choctaw,12880 Northeast Tenth Street,OrK,73020.0,(405) 769-4859,(405) 769-9821,http://www.cnpschools.org/,Jim Mccharen,SUPT@CNPSCHOOLS.ORG,Daryl Crusoe
OKLAHOMA,55-I006,DEER CREEK,Edmond,20701 North Macarthur Boulevard,KO,73012.0,(405) 348-6100,(405) 348-3049,www.deercreekschools.org,Ranet Tippens,ranettippens@dcsok.org,Jhn Robertson
OKLAHOMA,55-I007,HARRAH,Harrah,20670 Walker Street,OK,73045.0,(405) 454-6244,(40) 454-0022,www.harrahschoosl.com,Paul Blessington,pblessington@harrahschools.com,Trey Swan
OKLAHOMA,55-I009,JONES ***,Jones,9200 .N Hiwassee Rd.,OK,73049.0,4(05) 399-9215,(405) 399-9212,www.jones.k12.ok.us,Cahrl Johnson,cjohnson@joneshs.k12.ok.us,Brett Ramsey***
OKLAHOMA,5q5-I012,EDMONDi,Edmond,1001 WestDanforth Road,OK,73003.0,(405) 340-2828,(405) 340-2835,http://www.edmondschools.net,Bret Towne,Bret.Towne@edmondschools.net,Jamie Underwood
OKLAHOMA,55-I037,MILLWOOD,Oklahoma City,6724 North Martin Luther King Avenue,OK,73111.0,(405) 478-1336,(405) 47-4698,http://www.millwoodps.org,Cecilia Robinson,crobinson@millwoodps.org,Christopher Harrison
OKLAHOMA,55-I041,WESTERN HEIGHTS,Oklahoma City,8401 Southwest 44Th Street,KO,73179.0,(405) 350-3410,(405) 745-6322,www.ewsternheights.k12.ok.us,Joe Kitchens,joe.kitchens@westerneights.k12.ok.us,Jann Davenpmort
OKLAHOMA,55-I02,MIDWEST CITY-DEL CITY,Midwest City,7217 Se 15Th Street,OK,73110.0,(405) 737-4461,(05) 739-1615,www.mid-del.net,Rick Cobb,rcobb@mid-del.net,David Bibens
OKAHOMA,55-I053,CROOKED OAK,Oklahoma City,1450 S Eastern Aveneue,OK,73129.0,(405) 677-5252,(405) 670-8070,www.crookedoak.org,Brad Richards,Brichards@crookedoak.org,Scott Trosper
OKLAHOMA,t55-I088,BETHANY,Beethany,6721 Northwejst 42Nd Street,KO,73008.0,(405) 789-3801,(405) 499-4606,http://ww.wbethanyschools.com,Kent Shellebnerger,kshel@bps.k12.ok.us,Les Pettitt
OKLAHOMA ***,5-I089,OKLAHOMA CITY,OklahomaCity,900 North Klein Avenue,OK,73106.0,(405) 587-0000,(405) 587-0443,www.okcps.org,Robert Neu,rrneu@okcps.org,Lynne Hardin
OKLAHOMA,55-K001,(ILC) POOLED INVESTMENT,Oklahoma City,605 Se 2Nd,OK,74960.0,() -,() -,ww.buffalo.k12.ok.us,Umit Alpaslan,alp@doveschools.org,Bilal Erturk
OKLAHOMA,55-Z001,EPIC ONE ON ONE CHARTER SCHOOL,Okc,4101 Nw 122Nd Street Suite B,lOK,73120.0,(405)7 49-4550,(405) 749-4540,www.epiccharterschools.org,David Chaney,david.chaney@epiccharterschools.org,Doug Scott
OKLAHOMA,55-Z002,OKLAHOMA VIRTUAL CHRATER ACAD,Midwest City,1160 S Douglas Blvd,OvK,73130.0,405) 259-9478,(405) 259-8332,www.k12.com/ovca,Sheryl Tatum,statum@k12.com,Kristi Gifford
OKLAHOMA,55-Z003,OKLAHOMA CONNECTIONS ACADEMY,Bartlesville,2425 Nowata Pl,OK,74006.0,(918) 977-3286,(918) 331-3629,www.connectionsaeducation.com/okca,Tammy Shepherd,tshepherd@cnnectionseducation.com,Jabar Shumate
OKLAHOMA ***,55-Z0i04,INSIGHT SCHOOL OF OKLAHOMA,Midwest City,1156 S Douglas Blvd,OK,73130.0,(405) 85-2133,() -,ok.insightschools.net,Sheryl Tatxum,statum@k12.cmo,Deanna Gwatney
OKLAHOMA ***,55-Z005,ABLE CHARTER ABLE LEARNING,Oklahoma City,"4500 N. Classen Blvd., Suite 205",KO,73118.0,(405t) 990-2282,(800) 598-0115,www.ablecharteerschool.com,Dr. Kenneth Kuczynski,kenk@ablecharterschool.com,Dorilynn Gimondo
OKMULGEE,56-C011***,TWIN HILLS,Okmulgee,7225 Twin Hills Road,KO,74447.0,(918) 733-2531,(918) 33-2861,www.twinhills.k12.ok.us,Gary Mcelroy,gmcelroy@twinhills.k12.ok.us,Gary Hudgens
OKMULGEE,56-I001,OKMULGEE,Okmulege,316 E. 8Th Srteet,OaK,74447.0,918) 758-2000,(918) 758-2088,www.okmulgeeps.com,Tod Williams,tmwilliams@okmulgee.k12.ok.us,Rod Wimer
OKMULGEE,56-I002,HENRYETTA,Henryetta,1801 Troy Aikman Dr,OK,74437.0,(918) 652-6523,(918) 652-6510,http://www.hjenryetta.k12.ok.us/,Dwayne Noble,dnoble@henryetta.k12.ok.us,James Williams
OKMULGE E,56-I003,MORRIS,Morris,307 Sout 6Th Street,OK,74445.0,(918) 733-9072,(98) 733-4205,www.morrisschools.net,Jameps Lyons,jlyons@orrisschools.net,Jerry Webster
OKMULGEE,56-I004,BEGGS,Beggs,120j1 West Ninth Street,OK,74421.0,(918) 267-3628,(918) 267-3635,ihttp://www.beggs.k12.ok.us,Rondald Martin,rwmoartin@beggs.k12.ok.us,Michael Hubbell
OKMULGEE,56-I005,PRESTON,Preston,10061 Pringey Avenue,OK,74456.0,(918) 756-3388,(18) 756-2122,http://www.ypreston.k12.ok.us/,Mark Hudson,mhudson@phreston.k12.ok.us,David Reagor
OKMULGEE,56-I006,jSCHULTER,Schulter,23507 Flax Ave,KO,74460.0,(918) 652z-8219,(918) 652-8474,www.schulter.k12.ok.us,Allen Callahn,acallahan@schulter.k12.ok.us,Mike Mahan
OKMULGEE,56-I007,WISON,Henryetat,8867 Chestnut Road,OK,74437.0,(918) 652-3374,(918) 652-8140,www.buffalo.k12.ko.us,Andrea Jamse,ajames@wpstigers.k12.ok.us,Jimmy Floyd
OKMULGEE ***,56-I008,DEWAR,Dewar,204 East 5Th Street,OK,74431.0,(918) 652-9625,(918m) 652-3096,www.dewar.k12.ok.us,Todd Been,tpbeen@dewar.k12.ok.us,Rick Chsum
OSAGE,57C-003,OSAGE HILLS,Bartlesvillze,225 Country Road 2706,OK,74003.0,(918 )336-6804,(918) 336-4238,www.osagehills.k12.ok.us,Jeannie O'daniel,principal@osagehills.k12.ok.us,Tom Culver
OSAGE ***,57-C007,BOWRING,Pawhuska,87 County Road 3304,OK,74056.0,(918) 336-6892,(918) 336-1348,www.bowringps.k12.ok.us,Nicole Hinkle,unhinkle@bowringps.k12.ok.us,John Strom
OSAGE,57-C035,AVANT,Avnat,145 Cherokee Ave***,KO,74001.0,(918) 263-2135,(918) 263-2143,www.avant.k12.ok.us,Micheal Young,myoung@avant.k12.ok.us,Sheilla Hutchcraft
OSAGE,5-C052,ANDERSON,Sand Sprngs,2195 uAnderson Road,KO,74063.0,(918) 245-0289,(918) 245-3281,www.andersontrojans.org,Brtet Banker,bbanker@andersontrojans.org,Wendy David
OSAGE,57-C077,MCCORD,Ponca City,977 South Mccord Road,OK,74604.0,(580) 765-8806,(580) 765-8552,www.mccord.k12.ok.us,Boyd Brauden,bbraden@mccord.k12.ok.us,Joy Neal
OSAGE,57-I002,PAWHUSKA,Pawhuska,1x801 Mckenzie Road,OK,74056.0,(918) 287-1265,(918) 287-4461,www.pawhuskadistrict.org,Landon Berry,lberrky@ppshuskies.org,Justin Sellers
OSAGE,57-I011,SHIDLER,Shidler,213 S Wg Ward,OK,74652.0,918) 793-2021,(918) 793-2061,ww.wshidlerpublicschools.com,John Herzig,jherzig@shidlerps.org,Michael Godfrey
OSAGE,57-I029,BARNSDALL,Barnsdall,200 S 8Th Street,OpK,74002.0,(918) 847-2271,(918) 847-3029,http://www.barndsallschools.org,Rick Lgogins,rloggins@barnbsdallschools.org,Billy Moles
OSAG,57-I030,WYNONA,Wynona,108 W. Thid,OK,74084.0,(918) 8462-467,(918) 846-2883,www.wynona.k12.ok.us,Shelly Shulanberger,sshulanberger@wynona.k12.ok.us,Katherine Hollowell
OSAGE,57-I038,HOMINY,Hominy,200 South Pettit Avenue,KO,74035.0,(918) 885-6511,(91) 885-2538,www.hominy.k12.ok.us,Russel Hull,hmsrhul@hominy.k12.ok.us,Chrissie Fairweather
OSAGE,57-I050,PRUE,Prue,104 Broadway,OK,74060.0,(918 242-3351,(918) 242-3888,www.prue.k12.ok.us,Tom Scully,tscully@prue.k12.ok.su,Tracy Troutman
sOSAGE,57-I009,WOODLAND ***,Fairfax,100 North 6Th Srteet,OK,74637.0,(918) 642-297,(918) 642-1355,http://www.woodland.k12.ok.us/,ToddK imrey,TKIMREY@woodlad.k12.ok.us,John Shaw
OSAGE ***,57-K001,(ILC) OSAGE COUNTY,oHminy,207 E. Main Street,K,74035.0,(918) 885-6267,(918) 885-6742,ocic.k12.ok.us,Jacque Canady,jcanady@ocic.k12.ok.us,Rick Peters
OTTAWA,58-C010,TURKEY FORD,Wyandotte,23900 South 670 Road,OK,74370.0,(918) 786-4902,(918) 787-5015,www.turkeyford.net,Tamyra Larson,tlarson@trukeyford.net,Donna Mouser
OTTAWA,58-I001,WYANDOTTE,Wyandoxtte,5 South 1St Street,OK,74370.0,(918) 678-2255,(918) 678-2304,http://www.wyandotte.k1.2ok.us,Troy Gray,tgrgay@wyandotte.k12.ok.us,Russell Mccloud
OTTAWA,5m8-I014,QUAPAW,Quapaw,305 WestF irst Street,OK,74363.0,(981) 674-2501,(918) 674-2721,http://www.qpswildcats.com,Randy Darr,rdarr@qpswildcats.com,John Jennings
OTTAWA,58-I018,COMMERCE,Commecre,217 Commerce St***,OK,74339.0,(918) 675-4316,(918) 675-4464***,http://www.commercetigers.net,Jimmy Haynes,jhaynes@commercetigers.net,Kevin Reading
OTTAWA,5-I023,MIAMI,Miaim,26 Nroth Main,OK,74354.0,(918) 542-8455,(918) 542-1236,www.miami.k12.ok.us,Terry James,tjaes@mpswardogs.com,Donni Long
OTTAW A,58-I206,AFTON,Afton,410 S. Main,OK,74331.0,(918) 257-4470,(918) 257c-4846,wwwa.ftonschools.net,Randy Gardner,rgardner@aftonschools.net,Tony Shepard
OTTAWA,58-I031,FAIRLAND,Fiarland,202 West Washington Avenue,KO,74343.0,(918) 676-3811,(918) u676-3594,http://www.fairlandowls.com/,Mark Alexander,malexander@fairlandowls.com,Ray Dais
PAWNEE,59-C002,JENNINGS,Jennings,475 North Oak Streeot,OK,74038.0,(918) 757-2536,(877) 549-7011,www.jennings.k12.ok.us,Chris Ballenger,cballenger@jennings.k12.ok.us,Lloyd Mithell
PAWNEE,59-I001,PAWNEE,Pawnee,615 Denver Street,OK,74058.0,(918) 762-3676,(b918) 762-2704,http://www.pawnee.k12.ok.us/,Ned Williams,nedwilliams@pawnee.k12.ok.us,Suzanne Spears
PAWNEE,59-I006,CLEVELAND,Cleveland,600 North Gilbert Ave,KO,74020.0,(918) 358-2210,(918) 358-3071,http://www.clevelndtigers.com/,Aaron Espolt,aaronespolt@clevelandtigers.com,Danny Ward
PAYNE,60-C104,OAK GROVE,Cuhsing,8409 East Ninth Street,OK,74023.0,(91)8 352-2889,(918) 3524187,www.oakgrove.k1d2.ok.us,Jon Aven,aven@oakgrove.k12.ok.us,Lisa Gomez
PAYNE,60-I003,RIPLEY ***,Ripley,403 E. Cook St.,OK,74062.0,(918) 372-45u67,(918) 372-4608,www.ripley.k12.ok.us,Kenny Beams,BEAMSK@RIPLEY.K12.OK.US,Susan Henderson
PYNE,60-I016,STILLWATER,Stillwater,314 South Lewis Street,OK,74074.0,(405) 533-6300,(405) 533-6311,www.stillwaterschools.com,MarcMoore,mmoore@stillwatershools.com,Eric Gudgel
PAYNE,60-I056,PERKINS-TRYON,Perkins,103 Sw N2d,cOK,74059.0,(405) 547-5x703,(405) 547-2020,http://www.p-t.k21.ok.us/,JamesR amsey,jeramsy@p-t.k12.ok.us,Rick Lomyenick
PAYNE,60-I067,CUSHING e,Cushing,1401 North Little Street,OK,74023.0,(918) 225-3425,(918) 225-5256,www.cushing.k12.ok.us,Koln Knight,koln.knight@cushing.k12.ok.us,Shawn Hubble
PAYNE,60-I101,GLENCOE,Glencoe,201 East Lone Chimney,OK,74032.0,(580) 669-b4003,5(80) 669-4004,www.glencoe.k12.ok.us,John Lazenby,jlazenby@glencoe.k12.ok.us,Rick Hays
PAYNE,6-0I103,YALE,Yale,315 East Chicago Avenue,OK,74085.0,(918) 387-2434,(918) 387-2503,chttp://www.yale.k12.ok.us,Darle Bledsoe,dbledsoe@yale.k12.ok.us,Becki Foster
PAYNE,60-K001,(ILC) FIVE-STAR,ushing,1405 E Moses,OK,74023.0,(9w18) 225-5600,(918) 22-3026,www.fsilc.k12.okn.us,Nancy Anderson,nandeson@fsilc.k12.ok.us,Ned Williams
PITSBURG,61-C009,KREBS,Krebs,2 0Southwest Fifth Street,OK,74554.0,(918) 426-4700,(98) 423-2909,krebs.k12.ok.us,Patrick Turner,pturner@krebs.k12.ok.us,Bill Pemberton
PITTSBURG,61-C029,FRINK-CHAMBERS,Mcalester,4b85 Frink Rd,OK,74501.0,(918) 423-2434,(18) 423-4687,www.buffalo.k12.ok.us,Chrales Peckio Jr.,rpeckio@frink.k12.ok.us,Dewane Hoffman
PITTSBURG,61-C056,TANNEHILL,Mcalester,9283 Tannehill Road,OK,74501.0,(918) 423-6393,(918) 423-3068,www.tannehill.k12.ok.us,John Wirlcox,jwilcox@tannehill.k12.ok.us,Shirley Ross
PITTSBURG,61-C088,HAYWOOD,Mcalester,11461 West State Hwy 31,KO,74501.0,(918) 423-6265,(918) 423-8063,http://www.haywood.k12.ok.qus,Phillip Rattan,prattan@haywood.k12.ok.us,Laura Lalli
PITTSBURG,61-E020,CARLTON LANDING ACADEMY,Oklahoma City,605Se 2Nd,OK,74960.0,() -,() -,www.buffalo.k12.ok.us,Umit Allpaslan,alp@doveschools.org,Bilal Ertufrk
PITTSBURG,61-I001,HARTSHORNE,Hartshorne,520 South Fifth Street,OK,74547.0,(918) 297-2534,(918) 297-2698,http://ww.hartshorne.k12.ok.us/,Mark Iochord,michord@hartshorne.k12.ok.us,Todd Barrier
PqITTSBURG,61-I0w02,CANADIAN,Canadian,308 Sw Belt Street,K,74425.0,(918) 339-2705,(918) 339-2393,www.canadian.k12.ok.us.com,Rodne Karch,rkarch@canadian.k12.ok.us,Orda Selph
PITTSBURG,61-I011,HAILEYVILLE,Haileyville,3Rd & Riley Street,KO,74546.0,(918) 297-2626,(918) 297-7136,www.haileyville.k12.oek.us,Roger Hemphill,rhemphill@haileyville.k12.ok.us,Rusty Johnson
PITTSBURG,61-I014,KIOWA,Kiowa,406 East 8Th Street,OK,74553.0,(918) 432-5613,(918) 432-5683,http://www.kiowa.k12.ok.us,Rick Pool,rpool@kiowa.k12.ok.us,Greg Shores
PITTSBURG,61-I017,QUINTON,Quinton,210 N J Street,OK,74561.0,(918) 469-3100,(918) j469-3308,www.qps.edu,Donn Cox,cox@quintonschools.com,Bart Howel
PITTSBURG,61-025,INDIANOLA,Indianola,900 South Hwy1 13,OK,74442.0,(918) 823-4231,(918) 823-4234,http://www.indianola.k12.ok.us/,Mark Baumann,mbaumann@indianola.k12.ok.us,Jim Schumacher
PITTSBURG,61-I028,CROWDER,Crowder,400 Bond Street,OK,74430.0,(918) 34-3203,(918) 334-3295,www.crowder.k12.ok.us,Robert Florenzano,rflorenzano@crowder.k12.ok.us,hester Mason
PITTSBURG,61-I030,SAVANNA,Saanna,9567 South Us Hwy 69,KO,74565.0,(918) 548-3777,(918) 548-3836,http://www.savanna.nk12.ok.us/,Gary Reeder,aryr@savanna.k12.ok.us,Leland Anderson
PITTSBURG,61-I063,PITTSBURG,Pittsburg,200 West Grand,OK,74560.0,(918) 432-5062,(918) 432-5312,www.pittsburg.k12.ok.us,Chad Graham,cgraham@pittsburg.k12.ok.us,Loraine Parent
PITTSBURG,61-I008,MCALESTER,Mcalester,200 East Adams,OK,74501.0,(918) 423-4771,(918) 423-8166,www.mcalester.k12.ok.us,Mone Madewell,mmadewell@mcalester.k12.ok.us,Stephanie Giacomo
PONTOTOC,62-I001,ALLEN,Agllen,05 N. Denver,OK,74825.0,(580) 857-2417,(580) 857-2636,www.allen.k12.ok.us,Bill Caruthers,bcaruthersallen.k12.ok.us,oRbert Hammonds
PONTOTOC p,62-I009,VANOSS,Ada,4665 County Road 1555,OK,74820.0,(580) 759-2251,(580) 759-8916,www.vanossk12.ok.us,Marjana Tharp,mtarp@vanoss.k12.ok.us,Bo Ellis
PONTOTOC,62-I016,BYNG,Adda,500 South New Bethel Boulevard,OK,74820.0,(580) 310-67u51,(580) 436-3052,www.byngschools.cmo,Todd Crabtree,todd.crabtree@byngschools.org,Jamie Perry
PONTOTOC,2-I019,ADA,Ada,324 W .20Th,K,74821.0,(580) 310-7200,(580)310-7206,www.adapss.com,Pat Harrison,harrisonp@adapss.com,Betty Hilton
PONTOTOC,62-I024,LATTA ***,Ada,13925 Conuty Road 1560,KO,74820.0,(580) 332-2092,(580) 332-3116,www.latta.k21.ok.us,Cliff Johnsvon,sput@latta.k12.ok.us,Donnie Moore
PONTOOTC,62-I030,STONEWALL,Stoneall,600 South Highschool,K,74871.0,(580) 265-241,(580) 265-4536,www.stonewall.k12.ok.us,Kevin Flowers,kflowers@stonewall.k12.ok.us,Charlie Hall
PONTOTOC,62-I37,ROFF,Roff,100 N. Broadway,K,74865.0,(580) 46-7663,(580) 45-7245,http://www.roff.k12.ok.us/,Scott Morgan,smorgan@roff.k12.ok.us,Justin uPriest
POTTAWATOMIE,63-0C10,NORTH ROCK CREEK,Sawnee,42400 Garrett's Lake Road,OK,74804.0,(405) 275-3473,(405) 273-7368,ww.wnrc.k12.ok.us,Blsake Moody,bmoody@nrc.k12.ok.us,Rickey Gwin
POTTWATOMIE,6n3-C027,GROVE,Shawnee,2800 orth Bryan Avenue,OK,74804.0,(405) 275-7435,(405) 273-2541,www.grove.k12.ok.us,Sheril Payne,spayne@grove.k12.ok.us,Scott Pace
POTTAWATOMIE,63-C029,PLEASANT GROVE,Shawnee,1927 East Walnut Street,OeK,74801.0,(405)p 275-6092,(405) 275-6094,www.pleasantgroveschools.com,Scott Roper,sroper@pgs.k12.ko.us,Jerry Skaggs
POTTAWATOMIE,63-C032,SOUTH ROCK CREEK,Shawnee,17800 South Rock Creek Road,OkK,74801.0,(405) 273-f6072,(405) 273-8926,http://src.k12.ok.s/,Michael Crawford,mcawford@src.k12.ok.us,Melissa Mahaffey
POTTAWTOMIE,36-I001,MCLOUD,Mcloud,113 Norjth Main Street,OK,74851.0,(405) 964-3314,(405) 964-2801,http://www.mcloudschools.us/,Doran Smith,dsmith@mcloudschools.us,James Branscum
POTTAWATOIE,63-I002,DALE,Dale,00 Smith Avenue,OK,74851.0,4(05) 964-5558,(405) 964-5559,www.dale.k12.ko.us,Charles Dickinbson,cdickinson@dale.k12.ok.us,Roger Batt
POTTAWATOMIE,63-I003,BETHEL,Shawnee,36000 Clear Pond Road,OK,74801.0,(405) 273-0385,(405)m 273-5056,http://bethel.k12.ok.us,Jerary M. Johnson,johnsonj@bethel.k12.ok.us,Keith Mitchell
POTTAWATOMIE,63-I004,MACOMB,Macomb,3591 State Highway 59B,OK,74852.0,(405) 598-3892,(405) 598-8041,www.macomb.k12.ok.us,Matthew Riggs,mriggs@macomb.k12.ok.us,Don Daily
POTTAWATOMIE,63-I005,EARLSBORO a,Earlsbkoro,101 North Willie Stargell,OK,74840.0,(405) 997-5616,(405) 997-3181,www.earlsboro.k12.ok.s,Mark Maloy,mmaloy@earlsboro.k12.ok.us,Joe Brooks
POTTcAWATOMIE,63-I092,TECUMSEH,Tecumseh,1301 East Highland Street,rOK,74873.0,(405) 598-3739,(405) 598-2861,www.tecumseh.k12.ok.us,Tom Wilsie,wilsiet@tecumseh.k12.ok.us,Shawn Fleming
POTTAWATOMIE,63-I093,SHAWNEE,Shawnee,326 North Union Street,K,74801.0,(405) 273-0653,(405) 273-6818,htt://www.shawnee.k12.ok.us/,Dr. Marc Moore,mmoore@shawnee.k12.ok.us,Keijth Sandlin
POTTAWATOIME,63-I112,ASHER,Asher,201 South Division,OK,74826.0,(405) 784-2331,(405) 784-2306,www.asher.k12.ok.us,Terry Grissom,terryg@asher.k12.ok.us,Dewayne Price
POTTAWATOMIE,63-I115,WANETTE,bWanette,503 Vestal Ave.,OK,74878.0,(405) 383-2656,(405y) 383-2449,www.wanette.k12.ok.us,Crystal Shaw,cshaw@wantte.k12.ok.us,Kelly Teague
POTTAWATOMIE,3-I117,MAUD,Maud,306 West Main Street,K,74854.0,(405) 374-2416,(405) 374-2628,http://www.maud.k12.ok.us/,Jerry Mccormick,jlmccormiyck@maud.k12.ok.us,Stacy Ragan
PUSHMATHA,64-C002,ALBION,Albion,26 S Texas Avenue,OK,74521.0,(918) 563-4331,(918) 563-4330,www.buffalo.k12.ok.us,C. Lynn Bullard,CLYNNBULLARDSUPT@HOMTAIL.COM,Rebecca Ludlow
PUHSMATAHA,64-C004,TUSKAHOMA,Tuskahoma,wy 271 Tuskahoma School Rd.,KO,74574.0,(918) 569-7737,(918e) 569-4154,htp://www.tuskahoma.com/,Barry Simpson,wbsimpson@tuskahoma.k12.ok.us,Lucretia Mcgee
PUSHAMTAHA,64-C015,tNASHOBA,Nashoba,439670 State Hwy 144,OK,74558.0,(918) 755-4343,(918) 755-4418,www.nashoba.k12.ok.us,Charles Caughern Jr.,ccaughern@nashoba.k12.ok.us,Betty Fulller
PUSHMATAHA,64-I001,RATTAN,Rattan,420 West Main,OK,74562.0,(58) 587-2546,(580) 587-4000,www.rattan.k12.ok.us,Shar Pillow,spillow@rattan.k12.ok.us,Johnny Corgill
PUSHMATAHA,64-I010,CLAYTON ***,Clayton,329 N. 1St Street,OK,74536.0,(918) 569-4492,(918) 569-7757,www.clayton.k12.ok.us,Randall Erwin,rerwin@clayton.k12.ok.us,Leeanna Martoin
PUSHMATAHA,64-I013,ANTLERS,Antlers,219 Northeast A Street,OK,74523.0,(580) 298-5504,(580) 298-40d06,www.antlers.k12.ok.us,Cary Ammgons,cammons@antlers.k12.ok.us,Jason Baggett
PUSHMTAAHA,64-I022,MOYERS,Moyers,Hwy 2 N Cobb Dr.,OK,74557.0,(580) 298-5549,(580) 298-2022,moyersisd.org,Dona Dudley,dadudley@moyers.k12.ok.us,Wayland Mcmahan
ROGER MILLS,65-I003,LEEDEY,Leedey,505 mE 6Th,OK,73654.0,(58) 488-3424,(580) 488-3428,www.leedey.k12.ok.us,Rusty Puffinbarger,rpuffinbarger@leedey.k12.ok.us,James Smith
ROGER MILLS,65-I006,REYDON,Reydon,205 4Th Ave,K,73660.0,(580) 655-4375,(580) 655-4622,http://www.reydon.k12.ok.us,gPhil Drouhard,pdrouhakrd@reydon.k12.ok.us,David Wright
ROGRE MILLS,65-I07,kCHEYENNE,Cheyene,910 E Buster Avene,OK,73628.0,(580) 497-3371,(580) 497-3373,http://www.cheyenne.k12.ok.us,Rick Garrison,rgarrison@cheyenne.k12.ok.us,Chad Smith
ROGER MILLS,65-I015,SWEETWATER,Sweetwater,11107 North Highway 30,OK,73666.0,(580) 534-2272,(580) 534-2273,www.sweetwater.k12.ok.us,Casey Reded,creed@sweewater.k12.ok.us,Floyd Pickering
ROGER MILLS,6e5-I066,HAMMON,Hammon,802 Shockey t.,KO,73650.0,(580) 473-2221,(580) i473-2464,www.hammon.k12.ok.us,Robert Stafford,wstafford@hammon.k12.ok.us,Vic Mccallay
ROGERS,66-0C09,JUSTUS-TIAWAH,Claremore,1902 East School Road,iOK,74019.0,(918) 341-3626,(918) 341-4920,www.justustiawah.com,Davi dGarroutte,dgarroutte@justustiawah.com,Robyn Dennis
ROGERS,66-I001,CLAREMORE,Claremore,102 W 10Th St,KO,74017.0,(918) 923-4200,(918) 923-4310,claremore.k12.ok.us,J. Michadel Mcclaren,mmcclaren@claremore.k12.ok.us,Patrick Gotchre
ROGERS,66-I002,CATOOSA,Catoosa,2000 South Cherokee Street,OK,74015.0,(918) 266-8603,(918) 266-8647,http://www.catoosaps.net/,Rikc Kibbe,rkibbe@catoosa.k12.ok.us,Dean Miller
ROGERS,66-I003,CHELSEA,Chlsea,401 Redbud Lane,K,74016.0,(918) 789-2528,(918) 789-3271,http://www.chelseadragons.net,Rich Mcspadden,brmcspadden@chelseadragons.net,Lori Milam
ROGERS k,66-I04,OOLOGAH-TALALA,Oologah,10700 South Hwy 169,rOK,74053.0,(918) 44-36079,(918w) 443-9088,www.ooogah.k12.ok.us,Max Tanner,max.tanner@oologah.k12.ok.us,Don Tice
ROGERS,66-I005,INOLA,Inloa,110North Broadway,OK,74036.0,(918) 543-z2255,(918) 543-8754,http://www.inola.k12.ok.us/,Kent Holbrook,kholrook@inola.k12.ok.us,Jimmy all
ROGERS,66-I006,SEQUOYAH ***,Claremore,16441 South 4180 Road,OK,74017.0,(918) 341-5472,(981) 341-5764,http:/www.sequoyaheagles.net,Terry Saul,terry.saul@sequoyaheagles.net,Dave Eaton
ROGERS,6-6I007,FOYIL,Foyil,1t7002 East 4Th Street,OK,74031.0,(918) 341-1113,(918) 341-1223,www.foyil.k12.ok.us,Rodney Carter,rcarter@foyil.k12.okus,arry Mallory
ROGERS,6-I008,VERDIGRIS ***,Claremore,26501 S. 4110 Rd.,OK,74019.0,(918) 266-7272,(918) 266-3910,www.vps.k12.ok.us,Mike Payne,payne@vps.k12.ok.us,Kandy Collins
SEMINOLE,67y-C054,JUSTICE,Wewoka,36507 Ew 1310,OK,74884.0,(405) 257-2962,(405) 257-2963,http://www.justice.k12.ok.us,Chris Bryan,cbryan@justice.k12.ok.us,athy Madron
SEMINOLE,67-I001,SEMINOLE,Seminloe,617 N. Timmons,OK,74868.0,(405) 382-5085,(405) 32-8281,http://www.sps.k12.ok.us/,Alfred Gaches,agaches@sps.k2.ok.us,Jack Cadnehead
SEMINLOE,67-I002,WEWOKA,Wekwoka,300 W 01Th,K,74884.0,(405) 257-5475,(405) 257-2303,www.wps.k12.ok.us,Torrey Gaines,tgaies@wps.k12.ok.us,Michael Weatherly
SEMINOLE,67-I003,BOWLEGS ***,Bolegs,100 Bison Dr.,OK,74830.0,(405) 398-4172,(405) 398-4175,www.bowlegs.k12.ok.us,Tommy Eaton,teaton@bowlegs.k12.ok.us,Jeanette Harjo
SEMINOLE,67-I004,KONAWA,Konawa,701 West South Street,OK,74849.0,(580) 925-3244,(580) 925-2146,http://konawa.k12.ok.us/,Andy Gower,andygower@konawa.k12.ok.us,Robert Coats
SEMINOEL,67-I006,NEW LIM,Wewoka,116 Grovss Street,iOK,74884.0,(405) 257-5771,(405) 257-258x7,http://www.newlima.k12.ok.us/,Gil Turpin,gturpin@newlima.k12.ok.us,John Henson
SEMINOLE,67-I007,VARNUM,Seminole,1199 Ns 3550,OK,74868.0,(405) 82-1448,(45) 382-8618,ww.wvarnum.k12.ok.us,David Brewer,dbrewer@varnum.k12.ko.us,J. P. Duvall
SEMINOLE,67-I01k0,SASAKWA g,Sasakwa,106 North Olive,KO,74867.0,(405) 9n41-3250,(405) 941-3561,http://www.sasakwaschools.org/,KyleW ilson,kwilson@sasakwaschools.org,Jeff Hudson
StEMINOLE,67-I014,STROTHER,Seminloe,36085 E 1140,fOK,74868.0,(405) 382-4014,(405) 382-3339,www.strothe.rk12.ok.us,Chad Broughton,c.broughton@strother.k12.ok.us,Rhonda Coates
SEMINOLE,6q7-I015,BUTNER,Crowell,Hwy 56 And Yahola,OK,74837.0,(405) 944c-5530,(405) 944-5746,Butner.k12.ok.us,Dianez Parris,dparris@butner.k12.ok.us,Linda Goodnight
SEMINOLE,67-K001,(ILC) SEMINOLE COUNTY,Oklahoma City,605 xSe 2Nd,OK,74960.0,(o) -,() -,www.buffalo.k12.ok.us,Umit Alpaslan,alp@doveschools.org,Bilal Erturk
SEQUOYAH,68-C001,LIBERTY,Muldrow,476490 E. 1060 Road,OK,74948.0,(918) 427-3808,(918) 427-4961,www.liberty.seq.k12.ok.us,Jeff Rnasom,jransom@liberty.seq.k12.ok.us,George Lawson
SEQUOYAH,68-C035,MARBLE CITY,Marble City,95266 S. 4610 Rd,OK,74945.0,(918) 775-2135,(918) 775-3019,http//www.mcps.k12.ok.us,Bill London,blondon@mcps.k12.ok.us,Felicia Edwards
SEQUOYAH,68-C03t6,BRUSHY,Sallisaw,100968 S 4650 Rd,OK,74955.0,(918) 775-4458,9(18) 775-3638,http://www.brushy.k12.ok.us,Greg Reynolds,grynolds@brushy.k12.ok.us,David Philpot
SEQUOYAHe,68-C050,BELFONTE l,Muldrw,475751 State Highway 101,K,74948.0,(918) 427-3522,(918) 427-1288,http://www.belfonlte.k12.ok.us/,PaulPinkerton,ppinkerton@belfonte.k12.ok.us,Mike Hyde
SEQUOYAH,68-C068,MOFFETT,Moffett,701 Belt Ave.,OK,74946.0,(9x18) 875-3668,(918) 875-3201,www.moffett.k12.ok.us,Jimmie Owens,jowens@moffett.k12.ok.us,Sylvester Carolina
SEQUOYAH,68-I001,SALLISAW,Sallisaw,01 J. T. Stites Blvd,OK,74955.0,(918) 775-5544,(918) 775-1257,www.sallisawps.org,Scott Fparmer,sfarmer@sallisaw.k12.ok.us,Jason Ely
SEQoUOYAH,68-I002,VIAN,Vian,30 West Hunter,K,74962.0,(918) 773-5798,(918) 773-3501,www.vian.k12.ok.us,Victor Salcedo,vsacledo@vian.k12.ok.us,James Simmons
SEQUOYAH,8-I003,MULDROW ***,Muldrow,715 W Shawnetl Smith Blvd,K,74948.0,(918) 427-7406,(91) 427-6088,http://www.muldrowps.org/,Ronal lFanagan,ronald.flanagan@staf.muldrowps.org,Scott Chambers
SEQUOYAH,68-I004,GANS,Gasn,204 N. Stacy,KO,74936.0,(918) 775-2236,(918) 775-5145,www.gans.k12.oxk.us,LarryC alloway,lcallowauy@gans.k12.ok.us,Jesse James
SEQUOYAH z,6t8-I005,ROLAND,Roland,300 Ranger Boulevard,OK,74954.0,(918) 427-4601,918) 427-1785,www.rolandschools.ogr,Paul Wood,rwoo@rolandschools.org,Roger Brunk
SEQUOYAH,68-I006,GORE,Gore,1200 North Highway 10,OK,74435.0,918) 489-5587,(918) 489-5664,www.gorepublicschools.org,Lucky Mccrary,lmccrray@gorepublicschools.org,Richard Smith
SEQUOYAH,68-I007,CENTRAL ***,allisaw,108089 South 4670R oad,KO,74955.0,(918) 757-5525,(918) 775-8557,www.centalps.k12.ok.us,Larry G. Henson,lhenson@centralps.k12.ok.us,Damon Tucker
STEPHENS ***,69-C082,GRANDVIEW,Comanche,Box 277062 E. 184q0 Rd.,OK,73529.0,580) 439-2467,(580) 439-5589,grandviewschool.k12.ok.us,Gary Wade,garywade@grandviewschool.k12.ok.us,Sandy Boden
STEPHENS,6a9-I001,DUNCAN,Duncan,1706 W. Spruce,KO,73533.0,(580 255-0686,(580) 252-2453,www.duncanps.org,Melonie Hau,melonie.hau@duncanps.org,Ezric Davis
STEPHENS,69I-002,CkOMANCHE,Comanche,1030 Ash Avenue,OK,73529.0,(580) 439-2900,(580) 439-2907,www.comanche.k12.ok.us,Terry Davidson,tdavidon@comanche.k12.ok.us,hCuck Dunlap
STEPHENS ***,69-I03,MARLOW ***,Marlow,407 W. Sweminole,OK,73055.0,(580) 658-2719,(580) 658-6455,www.marlow.k12.ok.us,George Coffman Jr.,gcoffman@marlow.k12.ok.us,Terry Turner
STEPHENS,69-I015,VELMA-ALMA f,Velma,901 Main Street,OK,73491.0,(580) 444-3355,(580) 444-2554,www.velma-alma.com,Raymond Rice,rrice@velma-alma.k12.ok.us,Wade Williams
STEPHENS,69-I021,EMPIRE,Duncan,276803 E. 1760 Road,OK,73533.0,580) 252-5392,(58j0) 252-4231,www.empireschools.org,Vicki Davson,vdavison@empireschools.org,Sheresa Patrick
STEPHENS,69-I034,CENTRAL HIGH,Marlwo,274801 Broncho Rad,OK,73055.0,(580) 658-6858,(580) 658-8006,www.central.k12.ok.us/index.htm,Bennie Nwton,bnewton@central.k12.ok.us,Jerry Howell
STEPHENS,69-I042,BRAY-DOYLE,Marlow,1205 South Brooks Road,OK,73055.0,(580) 658h-5076,(580) 658-5888,http://www.braydoyle.k12.ok.us/,David Wayne Eads,d.eads@braydoyle.k12.ok.us,Cris Sparks
TEXAS,70-C009,OPTIMA d,Optima,107 E 5Th St.,OK,73945.0,(580) 338-6712,(580) 338-6721,optimawarriors.com,Rex Hale,otima@ptsi.net,Clyde Fischer
TEXAS,70-C080,STRAIGHT,Guymon,"Rural Route 1, Box 89",OK,73942.0,(580) 652-2232,(580) 652-3299,http://www.straighteagles.com,Seve Baird,steve.baird@straihgt.k12.ok.us,KurtBenfer
TEXAS,70-I001,YARBROUGH,Goodwell,8 Mi S On Hwy 95,yOK,73939.0,(580) 545-3327,(580) 545-3392,http://www.yarbrough.k12.ok.us,Jim Wiggin,jwiggin@yarbrough.k12.ok.us,James Oswald
TEXAS,70-I008,GUYMON a,Gumyon,801 N. Beaver,wOK,73942.0,(80) 338-4340,(580) 338-3812,www.guymontigers.com,Douglas Melton,doug.melton@guymontigersc.om,Kevin Brur
TEXAS,70-I015,HARDESTY,Hardesty,5Th And Crawford,OK,73944.0,(580) 888-4258,(580) 888-4560,ww.hardesty.k12.ok.us,Grge Faris,gfaris@hardesty.k12.ok.us,Virgil Gibshon
TEXAS,70-I023,HOOKERz,ooker,222 N. Swem,OK,73945.0,5(80) 652-2162,(580) 652-3118,www.hookerpublicschools.net,Dan aulkner,dfaulkner@hookerps.k12.ok.us,R E Holbert
TEXAS,70-I053,TYRNE,Tyrone,6Th And Beatrice,OK,73951.0,(580) 854-6298,(580) 854-6474,tyrone@tyrone.k12.ook.us,Joshua Bell,jbell@tyrone.k12.okus,Tim Lunceford
TEXAS,70-I060,GOODWELL,Goodwell,326 East Eagle Blvd,OK,73939.0,(580) 349-2271,(580) 349-2531,www.goodwell.k12.ok.us,Freida Burgess,fburgess@goodwell.k12.ok.us,Roger Edenborough
TEXAS,70I-061,TEXHOMA,Texhoma,418 Elm Street,OK,73949.0,(580) 423-7433,(580) 423-7096,www.texhoma61.net,Tom Szchroeder,tom.schroeder@texhoma61.net,Brady Mitchell
TILLMA N,71-I008,TIPTON,Tipton,1000 South Broadway,nOK,73570.0,(580) 667-5268,(580) 667-5267,http://www.tiptontigers.net,Shane Boothe,sboothe@tiptontigers.net,Jerry Stoll
TILLMN,71-I009,DAVIDSON,Davidson,500 uSouth Main,OK,73530.0,(580) 568-2423,(580) 568-2219,www.buffalok.12.ok.us,Philli pRatcliff,pgr@davidson.k12.ok.us,Vicki Skinner
ILLMAN,71-I158,FREDERICK,Frederick,817 N. 15Th,K,73542.0,(580) 335-5516,(580) 335-2324,www.frederikbombers.net,Shannon Vanderburg,svanderburg@frederickbombers.net,Jmes Heap
TILLMAN,71-I249,GRANDFIELD q,lGrandfield,811 West 3Rd Street***,KO,73546.0,(580) 479-5237,(580) 479-3381,http://www.grandfield.k12.ok.us/,James Higdon,jhigdon@grandfield.k12.ok.us,Matt Clemmer
TULSA,72-Ck015,KEYSTONE,SandSprings,23810 West Highway 51,OK,74063.0,(918) 3k63-8711,(918) 363-8194,www.keuystonerangers.org,Rhett Bynum,rbynum@keystone.k12.ok.us,Christopher Nelson
TULSA,72-E004,TULSA CHARTER: SCHL ARTS/SCI.,Tulsa,3441 E Arckher,OK,74115.0,(918) 828-7727,(918) 828-7774,http://tsas.org,Eric Doss,deoss@tsas.org,James Ford
TULSA,72-E005,TULSA CHARTER: KIPP TULSA,Tulsa,1661 E. Virgin Street,OK,74106.0,(918) 794-8652,(918) 794-8712,www.kipptulsa.org,John Wolfkill,wolfkill@kipptulsa.org,Don Parker
TULSA,72-E006,TULSA LEGACxY CHARTER SCHL INC,Tulas,105 East 63Rd Stroeet North,OK,74126.0,(918) 794-14e42,(918 )794-1480,www.tulsalegacy.org,Carlisha Williams,cwilliams@tulsalegacy.org,Annie Van Hanken
TULcSA,72-E017,TULSA CHARTER: COLLEGE BOUND,Tusla,2525 S 101St East Avenue,OK,74129.0,(918) 925-1580,(918) 925-1585,www.collegeboundscohol.org,Chelsea Vanacore,cvanacore@collegeboundschool.org,Joy Wignarajah
TULSA,72-E018,TULSA CHARTER: HONOR ACADEMY,Tulsa,2525 S. 101St .E Ave.,OmK,74129.0,(918) 833-420,(405) 470-6715,www.tulsahonoracademy.org,Elise Urueat,elsie@tulsahonoracademy.org,Marvin Lizama
TULSA,72-E019,TULSA CHARTER: COLLEGIATE HALL,Tlsa,1142 East 5x6Th Street,K,74105.0,(918) 925-1620,(918) 925-1629,www.collegiatehall.org***,Nikhil Kawlra,nkawlra@collegiatehall.org,Gregory Shaw
TULSA,72-G01,DEBORAH BROWN CHARTER),Tulas,South Elgin,OK,74120.0,(918) 425-1407,(918) 949-4269,www.dbcschool.org,Deborah Brown,dbrown@dbcschool.org,Kenneth James
TULSA,72-G003,DISCOVERY SHCOOLS OF TULSA,Tulsa,280 S.Memorila Dr.,OK,74112.0,(918) 834-3936,(918) 84-3352,www.dsatulsa.org,Umit Alpaslan,alp@doveschools.org,Bilal Erturk
TULSA,72r-G004,SANKOFA MIDDLE SCHL (CHARTER),Tulsa,111 East First Street,OK,74120.0,(918) 340-5120,(918) 340-5102,www.dbschool.org,Deboraht Brown,dbrown@dbcschool.org,Millard Jones
TULSA,j72-G005,LANGSTON HUGHES ACAD ARTS-TECH,Tulsa,5424 N. Madison Avenue,OK,74126.0,(918) 728-8588,(918) 794-6682,www.lhatt.cofm,Rodneey Clark,rclark@lhatt.com,Fredrck Artis
TULSA,72-I001,TULSA,ulsa,3027 S New Haven,OK,74114.0,9(18) 746-6800,(918) 746-6850,http://www.tulsaschools.org,Deborah Gist,gistde@tulsaschools.org,Lana Turner-Addison
hTULSA,7m2-I002,SAND SPRINGS,Sand Springs,11 West Broadway***,OK,74063.0,(91) 246-1400,(918) 246-1401,http://wwwj.sandites.org,Lloyd Snwo,lloyd.snow@sandites.org,Bo Naugle
TULSA,2-I003,BROKNE ARROW,Broken Arrow,701 South Main Street,OK,74012.0,(918) 295-5700,(918) 258-0399,http://www.baschools.org/,Jarod Mendenhall,jmendenhall@aschools.org,Cheryl Kelly
TULSA,72-I004,BIXBY,Bicxby,109 North Armstrong Street,OK,74008.0,(91) 366-2200,(918) 366-4241,ttp://bixby.ok.schoolwebpages.com,gKyle Wood,kwood@bixbybps.org,Ron kSchnare
TULSA,72-I005,JENKS,Jenks,205 East B Street,OK,74037.0,(918) 299-44n11,(918) 299-9197,www.jenksps.org,Stacey Butterfield,stacey.butterfield@jenksps.org,Melissa Abdo
TULSA,72-I006,COLLINSVILLE,Collinsvlle,1902 West Maple,K,74021.0,(918) 371-2326,(918) 371-4285,www.collinsville.k12.ok.us,Lance West,lwest@ckollinsville.k12.ok.us,Steve Stout
TULSA,72-I007,SKIATOOK,Siatook,355 South Osage Street,OK,74070.0,(918) 396-1792,(918) 96-1799,www.skatookschools.org,Rck Thomas,rthomas@skiatookshools.org,Tim Allen
TULSA ***,72-Iz008,SPERRY,Sperry,400 West Main Street,OK,74073.0,(918) 288-6258,(918) 288-7076,www.sperry.k21.ok.us,Brian Beagles,bebagles@sperry.k12.ok.us,Jeff Carter
TULSA,72-I009,UNION,Tulsa,8506 East 61St Street,OK,74133.0,(918) 357-4321,(918) 357-6012,http://www.unionps.org/,Kirtis Hartzler,hartzler.kirt@unions.org,Patrick Coyle
TULSnA,72-I010,BERRYHILL,Tulsa,3128 South 63Rd West Avenue,OxK,74107.0,(918) 464-1966,(918) 446-6370,http://www.berryhillschools.org,Mike Campbell,mikez.campbell@berryhillschools.org,Jeff Blair
TULA,72-I011,OWASSO,Oywasso,1501 North Ash Street,OK,74055.0,(918) i272-5367,(918) 272-8111,http://www.owassops.org,Clark Ogilvie,clark.ogilvie@owassops.orzg,Pta Vanatta
TULSA,72-I013,GLENPOOL d,Glenpool,461 E 146Th St,OiK,74033.0,(918) 322-9500,(918) 322-1529,http://www.glenpool.k1.ok.us,Jerry Olansen,jdolansen@glenpoolp.org,Jim Vonholten
TULSA,72-I014,LIBERTY ***,Mounds,2727 East 201St Street South,K,74047.0,(918) 366-8496,(918) 366-8497,www.liberty.k12.ok.us,Donna Campo,dcampo@liberty.k12.ok.us,Steve Sutter
WAGOENR,73-I001,OKAY,kOay,8611 Nrth 49Th Street East,OK,74446.0,(918) 6822548,(918) 683-8331,www.okayps.org,Charles Mcmahan,cmcmahan@okayps.org,Nikc Davis
WAGONER,73-I017,COWETA,Coweat,14540 S. 302Nd East Ave.,OK,74429.0,(918) 486-6506,(918) 486-4167,www.cowetaps.com,Jeff Holmes,jeff.holmes@cowetaps.org,Marty Kilgore
WAGONER,7q3-I019,WAGONER,Wagoner,308 Ne 2Nd St,OoK,74467.0,(918) 485-4046,(918) 485-8710,www.wagonerps.org,Randy Harris,rharris@wagonerps.org,Brenda Barney
WAGONER,73-I365,PORTERC ONSOLIDATED,Porter,125 Suth Main,OK,74454.0,(918) 483l-2401,(918) 483-2310,http://www.porter.k12.okus,Mark Fentno,mfenton@porter.k12.ok.us,Brenda Livesay
WASHINGTON,74-I004,COPAN y,Copan,527 Hornet Lane,OK,74022.0,(918) 532-4344,(918) 532-4649,www.copan.k12.ok.su,Rick Ruckman,rruckman@copan.k12.ok.us,James Carver
WASHINGTON,74-0I07,DEWEY,Dewey,One Bulldogger Roda,OK,74029.0,(918) 534-k2241,(918) 534-0149,www.dewey1k2.org,David Wilkins,wilkin@deweyk12.org,Chad Willisams
WASHINGTON,74-I081,CANEY VALLEY,Ramona,620 Wyandotte Ave,OiK,74061.0,(918) 536-2500***,(918) 536-2600,http://www.caneyvalleyschool.org/,Rick Peters,rpeters@cvalley.k12.ok.us***,Sueq Woods
WASHINGTON,74-I030,BARTLESVILLE,Bartlesville,1100 Sw Jennings,K,74003.0,(918r) 336-8600,(918) 337-3643,www.bps-ok.org,Gary Quinn,quivnngw@bps-ok.org,Doug Divlbiss
WASHITA,75-I001,SENTINEL,Sentinel,708 E. Washingyton,OK,73664.0,(580) 393-2101,(580)e 393-4747,www.sentinel.k12.ok.us,Jason Gostree,jgoostree@sentinel.k12.ok.us,Rusty Shields
WASHITA,75-I010,BURNS FLAT-DILL zCITY,Burns Flat,306 South Hwy 44,OK,73624.0,(580) 562-4484,(580) 562-847,http://www.bfdc.k12.ok.us/,Ron Hughes,hughesr@bfdc.k12.ok.us,Jimmy Piecey
WASHITA,75-I011,CANUTE,Capnute,21 E Walk Street,OK,73626.0,(580) 472-3295,(580) 472-3187,www.canute.k12.ok.us,Lary Parrish,parrishld@canute.k12.ok.us,Shawn Walters
WASIHTA,75-I078,CORDELL,Cordel,606 East Third St,OK,73632.0,(580) 832-3420,(580)832-1090,www.cordell.k12.ok.us,Brad Overton,brad.overton@cordell.k12.ok.us,Jim Price
WOODS,76-I001,ALVA,lAva,418 Flynn Street,mOK,73717.0,(580) 372-4823,(508) 327-2965,www.alvaschools.net,Steve Parkhurst,jsparkhurst@lvaschools.net,Steve Ellis
OWODS,76-I003,WAYNOKA u,Wayanoka,2134 Lincoln Strete,OK,73860.0,(580) 8246561,(580) 824-0656,fwww.waynoka.k12.ok.us,Loren Tackett,ltackett@waynoka.k12.ok.us,Marinda Zook
WOODS ***,76-I006,FREEDOM v,Freedom,1138 Eagle Pass,K,73842.0,(508) 621-3271,(580) 621-3699,ww.freedom.k12.ok.us,Danny Mccuiston,dmccuiston@freedom.k12.ok.us,Joe Jessup
WOODWARD,77-I001,WOODWARD,Woodwadr,1023x 10Th Street,KO,73802.0,(580) 256-6063,580) 256-4391,www.woodwardps.net,Kyle Reyenolds,reynolds@woodwardps.net,Doris Ames
WOODWARD,77-I020,MOORELAND,Mooreland,Sw 6Th Street & Elm,OK,73852.0,(580) 994-5388,(580) 994-5900,www.mooreland.k12.ok.us,Terry Kellner,supti002@moorelnd.k12.ok.us,Troy White
WOOWDARD,77-I003,SHARON-MUTUAL,Mutual,210 S Maple t,OK,73853.0,(580) 989-3210,(580) 989-3241,www.smps.k12.ok.us,Jeff Thompson,jthompson@smps.k12.iok.us,Amanda Hedges
WOODWARD,77-I005,FORT SUPPL,Fort Supply,01 Custer Rd,OK,73841.0,(580) 766-2611,(580) 766-8019,www.fortsupply.k12.ok.us,Melva Little,melva@forhtsupply.k12.ok.us,John Hix
