OBJECTID,County,FDID,MACSID,Name,Address,City,Zip,FireChief,Phone,Notes,LastUpdated,Website,CALFIREUnit,SHAPE_Length,SHAPE_Area
1,ALAMEDA,01005,ALA,ALAMEDA FD,1300 PARK ST,ALAMEDA,94501,NICHOLAS LUBY,(510) 337‐2100,,2018/06/21 00:00:00+00,https://www.alamedaca.gov/Departments/Fire-Department,SCU,53100.838603036,60642252.1677999
2,ALAMEDA,01008,ACF,ALAMEDA COUNTY FD,6363 CLARK AVE,DUBLIN,94568,WILLIAM L. MCDONALD,(925) 833‐3473,,2018/06/21 00:00:00+00,https://fire.acgov.org/index.page,SCU,530457.107901072,1323031179.57008
3,ALAMEDA,01010,ALB,CITY OF ALBANY FD,1000 SAN PABLO AVE,ALBANY,94706,JAMES BOITO,(510) 528‐5770,,2018/06/21 00:00:00+00,https://www.albanyca.org/departments/fire-department,SCU,20088.6856282348,13701181.408015
4,ALAMEDA,01015,BER,BERKELEY FD,"2100 MLK JR WAY, 2ND FLOOR",BERKELEY,94704,DAVID SPRAGUE,(510) 981‐3473,,2018/06/21 00:00:00+00,https://www.cityofberkeley.info/fire/,SCU,40101.1436238804,45767807.3248573
5,ALAMEDA,01040,FRE,FREMONT FD,3300 CAPITOL AVE,FREMONT,94538,CURTIS JACOBSON,(510) 494‐4200,,2018/06/21 00:00:00+00,https://www.fremont.gov/FireDepartment,SCU,112154.310535018,237159446.805433
6,ALAMEDA,01045,HAY,HAYWARD FD,777 B ST,HAYWARD,94541,GARRETT CONTRERAS,(510) 583‐4930,,2018/06/21 00:00:00+00,https://www.hayward-ca.gov/fire-department,SCU,118245.111292332,167745531.299171
7,ALAMEDA,01065,LAP,LIVERMORE‐ PLEASANTON FD,3560 NEVADA STREET,PLEASANTON,94566,JOE TESTA,(925) 454‐2361,,2018/06/21 00:00:00+00,https://www.lpfire.org/,SCU,147049.076904066,126550316.004253
8,ALAMEDA,01075,OKL,OAKLAND FD,150 FRANK H. OGAWA PLAZA,OAKLAND,94612,DR. REGINALD D. FREEMAN,(510) 238‐3856,,2018/06/21 00:00:00+00,https://www.oaklandca.gov/departments/fire,SCU,118196.279096523,161352195.229943
9,ALAMEDA,01090,PIE,PIEDMONT FD,120 VISTA AVE,PIEDMONT,94611,DAVID BRANNIGAN,(510) 420‐3030,,2018/06/21 00:00:00+00,https://www.piedmont.ca.gov/services___departments/fire,SCU,8993.29743604833,4441754.45853434
10,ALPINE,02008,BRV,BEAR VALLEY FIRE,PO BOX 5430,BEAR VALLEY,95223,RICK STEPHENS,(209) 753‐2232,,2018/06/21 00:00:00+00,,AEU,144754.878367284,748564061.533889
11,ALPINE,02010,KRK,KIRKWOOD VFD,PO BOX 247,KIRKWOOD,95646,RICK ANSEL,(209) 258‐4444,,2018/06/21 00:00:00+00,https://www.kmpud.com/departments/fire-department/,AEU,13815.3550502113,4217679.68716202
12,AMADOR,03006,AMC,AMADOR FPD,810 COURT ST,JACKSON,95642,WALTER WHITE,(209) 223‐6391,,2018/06/21 00:00:00+00,https://amadorfire.org/,AEU,405636.014389257,1299059033.89779
13,AMADOR,03010,ION,IONE FD,PO BOX 398,IONE,95640,KEN MACKEY,(209) 274‐4548,,2018/06/21 00:00:00+00,https://www.ione-ca.com/services/type/fire-department,AEU,18474.0153536419,11765469.0569942
14,AMADOR,03015,JCK,JACKSON VALLEY FPD,2701 QUIVER DR,IONE,95640,RANDY MAKEMSON,(209) 763‐5848,,2018/06/21 00:00:00+00,http://www.jacksonvalleyfire.org/,AEU,70853.2674026784,178445551.226398
15,AMADOR,03020,JKS,JACKSON FD,33 BROADWAY,JACKSON,95642,DALE FISHBACK,(209) 256‐4431,,2018/06/21 00:00:00+00,https://www.ci.jackson.ca.us/fire_department.php,AEU,26752.3207441938,9125952.09771599
16,AMADOR,03022,LFP,LOCKWOOD FPD,PO BOX 221,VOLCANO,95689,ROBERT WITHROW,(209) 296‐5122,,2018/06/21 00:00:00+00,https://www.lockwoodfire.org/,AEU,59011.2264556852,57004925.617222
17,BUTTE,04005,BIG,BIGGS FD,P O BOX 1119,BIGGS,95917,GARRETT SJOLUND,(530) 538‐7111,,2018/06/21 00:00:00+00,,BTU,10092.8614428257,1629352.16373166
18,BUTTE,04010,CHI,CITY OF CHICO FD,PO BOX 3420,CHICO,95927,STEVEN STANDRIDGE,(530) 897‐3400,,2018/06/21 00:00:00+00,https://chico.ca.us/fire-department,BTU,120283.213717168,86060788.1407651
19,BUTTE,04015,GRD,GRIDLEY FD,47 EAST GRIDLEY RD,GRIDLEY,95948,GARRETT SJOLUND,(530) 538‐7111,,2018/06/21 00:00:00+00,http://gridley.ca.us/government-and-departments/departments/fire-department,BTU,21096.5588995537,5833137.29807943
20,BUTTE,04020,ORO,OROVILLE FD,2055 LINCOLN STREET,OROVILLE,95966,GARRETT SJOLUND,(530) 538‐2480,,2018/06/21 00:00:00+00,https://www.cityoforoville.org/services/fire-department,BTU,78490.9790480259,33630890.0644952
21,BUTTE,04025,EMD,EL MEDIO FPD,3515 MEYERS ST,OROVILLE,95966,GARY NYSTUEN,(530) 533‐4484,,2018/06/21 00:00:00+00,https://elmediofire.specialdistrict.org/,BTU,13492.7421236961,6035987.72569954
22,BUTTE,04030,PRA,PARADISE FIRE & RESCUE,5555 SKYWAY,PARADISE,95969,GARRETT SJOLUND,(530) 872‐6264,,2018/06/21 00:00:00+00,https://www.townofparadise.com/fire,BTU,31662.6311009728,46758074.5411339
23,BUTTE,04035,BUT,BUTTE CFD,176 NELSON AVE,OROVILLE,95965,GARRETT SJOLUND,(530) 538‐7111,,2018/06/21 00:00:00+00,,BTU,1845995.98007493,3534155633.56696
39,CONTRA COSTA,07015,EDI,EAST CONTRA COSTA FPD,150 CITY PARK WAY,BRENTWOOD,94513,BRIAN HELMICK,(925) 634‐3400,,2018/06/21 00:00:00+00,https://www.eccfpd.org/,SCU,164412.96673682,616444140.184164
40,CONTRA COSTA,07030,CRK,CROCKETT CARQUINEZ FPD,746 LORING AVE,CROCKETT,94525,DEAN COLOMBO,(510) 787‐2717,,2018/06/21 00:00:00+00,,SCU,28008.5772737503,26133400.7651914
41,CONTRA COSTA,07035,SRM,SAN RAMON VALLEY FPD,1500 BOLLINGER CANYON RD,SAN RAMON,94583,PAIGE MEYER,(925) 838‐6600,,2018/06/21 00:00:00+00,https://www.firedepartment.org/,SCU,96930.9869986509,302083022.947061
42,CONTRA COSTA,07040,ECR,EL CERRITO FD,10900 SAN PABLO AVE,EL CERRITO,94530,MICHAEL PIGONI,(510) 215‐4450,,2018/06/21 00:00:00+00,https://www.el-cerrito.org/133/Fire-Department,SCU,16133.6904082838,9547841.09813964
43,CONTRA COSTA,07060,MOR,MORAGA ORINDA FPD,1280 MORAGA WAY,MORAGA,94556,DAVID WINNACKER,(925) 258‐4599,,2018/06/21 00:00:00+00,https://www.mofd.org/,SCU,69044.6047936899,120841441.444847
44,CONTRA COSTA,07075,POE,PINOLE FD,880 TENNENT AVE,PINOLE,94564,CHRIS WYNKOOP,(510) 724‐8970,,2018/06/21 00:00:00+00,https://www.ci.pinole.ca.us/city_government/fire,SCU,43355.2850609968,30069955.5014877
45,CONTRA COSTA,07095,RMD,RICHMOND FD,440 CIVIC CENTER PLAZA,RICHMOND,94804,ANGEL MONTOYA,(510) 307‐8031,,2018/06/21 00:00:00+00,https://www.ci.richmond.ca.us/79/Fire-Department,SCU,134572.927747971,136389389.490896
46,CONTRA COSTA,07100,RDO,RODEO HERCULES FD,1680 REFUGIO VALLEY RD,HERCULES,94547,BRYAN CRAIG,(510) 799‐4561,,2018/06/21 00:00:00+00,https://www.rhfd.org/,SCU,49547.7394671367,82132797.8944428
47,CONTRA COSTA,07090,CON,CONTRA COSTA CO FPD,2010 GEARY RD,PLEASANT HILL,94523,LEWIS T. BROSCHARD III,(925) 941‐3300,,2018/06/21 00:00:00+00,https://www.cccfpd.org/,SCU,268146.610753546,664723356.813655
48,DEL NORTE,08010,CRT,CRESCENT FPD,255 W WASHINGTON BLVD,CRESCENT CITY,95531,KEVIN CAREY,(707) 464‐2421,,2018/06/21 00:00:00+00,https://cfpd.crescentcity.org/,HUU,52148.7153461366,56213963.0753356
49,DEL NORTE,08015,FDK,FORT DICK FPD,PO BOX 369,FORT DICK,95538,RANDY CRAWFORD,(707) 487‐8185,,2018/06/21 00:00:00+00,,HUU,39272.2858517699,77017918.1684397
50,DEL NORTE,08020,GAS,GASQUET FPD,PO BOX 85,GASQUET,95543,DARRELL PARLASCA,(707) 457‐3332,,2018/06/21 00:00:00+00,,HUU,26350.4878290014,5472218.15774548
51,DEL NORTE,08050,SMT,SMITH RIVER FPD,245 NORTH  HAIGHT AVE,SMITH RIVER,95567,RON SIMPSON,(707) 487‐5621,,2018/06/21 00:00:00+00,https://www.srvfd.org/,HUU,87220.4513377865,71995295.4326388
64,FRESNO,10065,OCF,ORANGE COVE FPD,550 CENTER ST,ORANGE COVE,93646,TOM GREENWOOD,(559) 626‐7758,,2018/06/21 00:00:00+00,https://cityoforangecove.com/fire-protection/,FKU,56680.6734448749,111370535.587935
65,FRESNO,10120,SHL,SHAVER LAKE VFD,PO BOX 35,SHAVER LAKE,93664,JAMES PARR,(559) 841‐8136,,2018/06/21 00:00:00+00,"https://shaverlakefire.org/#:~:text=The%20Shaver%20Lake%20Volunteer%20Fire,in%20the%20Shaver%20Lake%20community.&text=The%20SLVFD%20now%20responds%20to,in%20and%20around%20Shaver%20Lake.",FKU,44998.1990779095,34467211.5679417
66,FRESNO,10135,AUB,AUBERRY VFD,PO BOX 191,AUBERRY,93602,RICK SCHACHER,(559) 855‐2777,,2018/06/21 00:00:00+00,,FKU,73775.4649745548,127364014.389317
67,HUMBOLDT,12010,BGF,BRICELAND VFD,PO BOX 1249,REDWAY,95560,AURORA STUDEBAKER,(707) 923‐7204,,2018/06/21 00:00:00+00,http://bricelandfire.org/,HUU,64857.1389750763,114082979.907269
68,HUMBOLDT,12025,BLU,BLUE LAKE VFD,PO BOX 245,BLUE LAKE,95525,RAY STONEBARGER,(707) 668‐5765,,2018/06/21 00:00:00+00,,HUU,28853.1483688349,35107020.3996496
69,HUMBOLDT,12065,GAR,GARBERVILLE FPD,PO BOX 288,GARBERVILLE,95542,TIM TIETZ,(707) 923‐3196,,2018/06/21 00:00:00+00,,HUU,78231.2440529819,146987509.748918
70,HUMBOLDT,12067,KFD,KNEELAND FPD,6201 GREENWOOD HGHTS. DR,KNEELAND,95549,WESLEY ROW,(707) 442‐3252,,2018/06/21 00:00:00+00,http://www.kneelandfire.org/,HUU,56972.2945395233,101066497.007475
71,HUMBOLDT,12095,RDW,REDWAY FPD,PO BOX 695,REDWAY,95560,BRIAN ANDERSON,(707) 923‐2448,,2018/06/21 00:00:00+00,,HUU,33324.7133912139,28385008.3858714
72,HUMBOLDT,12110,SAM,SAMOA PENINSULA VFD5,PO BOX 234,SAMOA,95564,DALE UNEA,(707) 443‐9042,,2018/06/21 00:00:00+00,https://www.samoafire.org/,HUU,18030.8031679554,7129377.09817251
73,HUMBOLDT,12155,FLV,FRUITLAND VFC,PO BOX 87,MYERS FLAT,95554,MICHAEL LAKE,(707) 943‐3402,,2018/06/21 00:00:00+00,,HUU,39907.6706238505,51313605.3632266
74,HUMBOLDT,12184,TEL,TELEGRAPH RIDGE FPD,PO BOX 1803,REDWAY,,PETER LASKY,(707) 986‐0066,,2018/06/21 00:00:00+00,https://www.telegraphridgefire.com/,HUU,84304.2076349805,101685084.551994
75,HUMBOLDT,12195,BRD,BRIDGEVILLE VFD,PO BOX 4,BRIDGEVILLE,95526,RANDALL KATZDORN,(707) 777‐3244,,2018/06/21 00:00:00+00,,HUU,130619.73239937,508858788.352652
76,HUMBOLDT,12991,,PALO VERDE VFD,P.O. BOX 1381,REDWAY,95560,CHRISTOPH FISHER,(707) 845‐3282,,2018/06/21 00:00:00+00,,HUU,44186.3056469648,113936492.97643
77,IMPERIAL,13005,BRW,BRAWLEY FD,1505 JONES ST,BRAWLEY,92227,MICHAEL YORK,(760) 351‐9110,,2018/06/21 00:00:00+00,http://www.brawley-ca.gov/section/Fire-Department,SDU,175172.184510977,976049400.362141
78,IMPERIAL,13010,CLX,CALEXICO FD,415 FOURTH STREET,CALEXICO,92231,DIEGO FAVILA,(760) 768‐2150,,2018/06/21 00:00:00+00,https://www.calexico.ca.gov/index.asp?SEC=AD50BA87-05CF-4B57-9A0E-9688E3616E13&Type=B_BASIC,SDU,25093.0224429638,17774240.7981099
79,IMPERIAL,13015,CPT,CALIPATRIA FD,125 N PARK,CALIPATRIA,92233,JESSE R. LLANAS,(760) 348‐4144,,2018/06/21 00:00:00+00,,SDU,103584.106168788,451315940.967888
80,IMPERIAL,13020,ECN,EL CENTRO FD,1910 N WATERMAN AVE,EL CENTRO,92243,JOSEPH BERNAL,(760) 337‐4530,,2018/06/21 00:00:00+00,http://www.cityofelcentro.org/fire/,SDU,29027.9266264097,26423917.7721505
81,IMPERIAL,13025,IMP,IMPERIAL COUNTY FD,1078 DOGWOOD ROAD,IMPERIAL,92249,ALFREDO ESTRADA JR,(442) 265‐6000,,2018/06/21 00:00:00+00,https://firedept.imperialcounty.org/,SDU,272937.103483833,807182806.552993
82,IMPERIAL,13030,HLT,HOLTVILLE FD,549 FERN AVE,HOLTVILLE,92250,ALEX SILVA,(760) 356‐2673,,2018/06/21 00:00:00+00,http://www.holtville.ca.gov/section.php?id=48,SDU,118357.257045026,742007670.83028
83,IMPERIAL,13060,WML,WESTMORLAND FD,PO BOX 697,WESTMORLAND,92281,SERGIO CRUZ,(760) 344‐3411,,2018/06/21 00:00:00+00,http://www.westmorelandfire.com/,SDU,95459.8363280352,379696281.810069
88,KERN,15005,BKF,BAKERSFIELD FD,"900 TRUXTUN AVENUE, STE 210",BAKERSFIELD,93301,JOHN FRANDO,(661) 326‐3698,,2018/06/21 00:00:00+00,https://www.bakersfieldcity.us/233/Fire,KRN,149021.855356075,246133697.214588
89,KERN,15010,KRN,KERN CO FD,5642 VICTOR ST,BAKERSFIELD,93308,AARON DUNCAN,(661) 391‐7000,,2018/06/21 00:00:00+00,https://kerncountyfire.org/,KRN,998841.649563003,19210829852.4511
90,KERN,15065,CAC,CALIFORNIA CITY FD,20890 HACIENDA BLVD,CALIFORNIA CITY,93505,JEREMY KOSICK,(760) 373‐4841,,2018/06/21 00:00:00+00,https://www.calcityfire.us/,KRN,178379.118979987,525896593.494284
91,KINGS,16015,KCF,KINGS COUNTY FD,280 CAMPUS DR,HANFORD,93230,WILLIAM LYNCH,(559) 852‐2881,,2018/06/21 00:00:00+00,https://www.countyofkings.com/departments/fire-department,FKU,505894.121830413,3400845997.57225
92,LAKE,17020,KLS,KELSEYVILLE FPD,PO BOX 306,KELSEYVILLE,95451,JOEY HUGGINS,(707) 279‐4268,,2018/06/21 00:00:00+00,https://kelseyvillefire.com/,LNU,90200.7522764295,253817467.692942
93,LAKE,17055,NSD,NORTHSHORE FPD,PO BOX 1199,LUCERNE,95458,MIKE CIANCIO,(707) 274‐3100,,2018/06/21 00:00:00+00,https://www.northshorefpd.com/,LNU,254997.63768823,923922846.50926
94,LAKE,17555,LNU,CDF‐LAKE COUNTY,1199 BIG TREE RD,ST HELENA,94574,MIKE MARCUCCI,(707) 963‐3601,,2018/06/21 00:00:00+00,https://www.lakecountyfire.com/,LNU,134628.30479746,352417793.992586
95,LASSEN,18010,BGV,BIG VALLEY FPD,PO BOX 81,BIEBER,96009,ROBERT GERIG,(530) 294‐5720,,2021/11/21 00:00:00+00,,LMU,72051.975239462,256475146.734433
96,LASSEN,18015,DOY,DOYLE FPD,PO BOX 189,DOYLE,96109,JAMES DAY,(530) 827‐2681,,2021/11/21 00:00:00+00,,LMU,82729.4441644165,145246429.169329
97,LASSEN,18017,HRL,HERLONG VFD,PO BOX 115,HERLONG,96113,GROVER WHITE,(530) 827‐3150,,2021/11/21 00:00:00+00,,LMU,21643.312511821,14642798.6033855
98,LASSEN,18020,JNV,JANESVILLE FPD,PO BOX 40,JANESVILLE,96114,JOEL EHRLICH,(530) 253‐3737,,2021/11/21 00:00:00+00,https://www.janesvillefireca.org/,LMU,71466.0050014449,137397528.537035
99,LASSEN,18021,LVV,LITTLE VALLEY CSD,653‐305 SEYMOUR LN,LITTLE VALLEY,96056,BOB GORDON,(530) 336‐6266,,2021/11/21 00:00:00+00,,LMU,4104.44529525025,1006320.35500071
100,LASSEN,18025,MAD,MADELINE FPD,PO BOX 99,MADELINE,96119,PHIL RIDGWAY,(530) 234‐1011,,2021/11/21 00:00:00+00,,LMU,129210.606197132,924544959.154641
101,LASSEN,18030,STL,STANDISH LITCHFIELD FPD,PO BOX 120,STANDISH,96128,SHAUN J. WHITE,(530) 254‐6601,,2021/11/21 00:00:00+00,,LMU,82310.1524311815,197341041.843465
102,LASSEN,18035,SUS,SUSANVILLE FD,1505 MAIN ST,SUSANVILLE,96130,JAMES M. MOORE,(530) 257‐5152,,2021/11/21 00:00:00+00,,LMU,31406.2530397327,16982282.4318046
103,LASSEN,18040,SSN,SUSAN RIVER FPD,472 355 RICHMOND RD NORTH,SUSANVILLE,96130,GLENN HODGSON,(530) 257‐7477,,2021/11/21 00:00:00+00,,LMU,119206.536326871,139632502.527514
104,LASSEN,18045,CLC,CLEAR CREEK VFD,P.O. BOX 833,WESTWOOD,96137,JOHN GARRITY,(530) 256‐2240,,2021/11/21 00:00:00+00,https://clearcreekcsd.specialdistrict.org/fire-protection,LMU,5283.33782351899,1350133.50018898
105,LASSEN,18050,WWO,WESTWOOD FD,PO BOX 936,WESTWOOD,96137,ROBERT SATTERFIELD,(530) 256‐3589,,2021/11/21 00:00:00+00,,LMU,6312.84260088605,1430452.68701484
106,LASSEN,18065,EGL,SPALDING VFD,502‐907 MAHOGANY WY,SUSANVILLE,96130,CLIFF SPEDIACCI,(530) 825‐3258,,2018/06/21 00:00:00+00,,LMU,11394.4709934127,3857388.82867873
107,LASSEN,18068,SBG,STONES BENGARD CSD,509 695 STONE RD,SUSANVILLE,96130,CLIFF SPEDIACCI,(530) 825‐3350,,2018/06/21 00:00:00+00,https://www.stonesbengardcsd.org/,LMU,15628.7640891278,4049870.48333001
108,LASSEN,18070,LFV,LAKE FOREST FPD,P.O. BOX 2148,SUSANVILLE,96130,JOHN LOILER,(530) 251‐2523,,2021/11/21 00:00:00+00,,LMU,3904.65532435265,609137.163294485
109,LASSEN,18075,,MILFORD FIRE DISTRICT,P. O. BOX 265,MILFORD,96121,RYAN ERWIN,(530) 575‐4388,,2021/11/21 00:00:00+00,,LMU,60505.5491970899,96162817.8416678
110,LASSEN,18410,CCO,CALIFORNIA CORRECTIONAL CENTER,PO BOX 790,SUSANVILLE,96127,CHRIS HALLMARK,(530) 257‐2181,,2021/11/21 00:00:00+00,,LMU,9679.96892920049,4380356.67123779
111,LOS ANGELES,19005,ALH,ALHAMBRA FD,301 N FIRST ST,ALHAMBRA,91801,THOMAS M. PHELPS,(626) 570‐5194,,2018/06/21 00:00:00+00,https://www.cityofalhambra.org/182/Fire-Department,LAC,21042.0219383671,19764228.8546303
112,LOS ANGELES,19010,ARC,ARCADIA FD,710 S SANTA ANITA AVE,ARCADIA,91006,BARRY R. SPRIGGS,(626) 574‐5100,,2018/06/21 00:00:00+00,https://www.arcadiaca.gov/protect/fire_department/index.php,LAC,40407.8275705986,28773505.3358147
113,LOS ANGELES,19025,BHL,BEVERLY HILLS FD,445 NORTH REXFORD DR,BEVERLY HILLS,92677,GREGORY BARTON,(310) 281‐2700,,2018/06/21 00:00:00+00,http://www.beverlyhills.org/departments/firedepartment/web.jsp,LAC,26481.8353552795,14794658.0178183
114,LOS ANGELES,19030,BRK,BURBANK FD,311 E ORANGE GROVE AVE,BURBANK,91502,ERIC GARCIA,(818) 238‐3473,,2018/06/21 00:00:00+00,https://www.burbankfire.us/,LAC,31166.749324808,44851014.7548754
115,LOS ANGELES,19040,CMP,COMPTON FD,201 S ACACIA,COMPTON,90220,RONERICK D. SIMPSON,(310) 605‐5670,,2018/06/21 00:00:00+00,https://www.google.com/search?q=COMPTON+FD&rlz=1C1GCEA_enUS986US986&sxsrf=APq-WBugfnXs9LMBtdIAL513DTRn7BRsUg%3A1644270442769&ei=apMBYpGeLpm-kPIP3r0x&ved=0ahUKEwiR-57dyO71AhUZH0QIHd5eDAAQ4dUDCA4&oq=COMPTON+FD&gs_lcp=Cgdnd3Mtd2l6EAwyBAgAEAoyCgguEMcBEK8BEAoy,LAC,54271.0820876321,26155236.5931357
116,LOS ANGELES,19050,CUL,CULVER CITY FD,9770 CULVER BLVD,CULVER CITY,90232,KENNETH POWELL,(310) 253‐5900,,2018/06/21 00:00:00+00,https://www.culvercityfd.org/Home,LAC,35614.8170725043,13298743.6012671
117,LOS ANGELES,19055,DNY,DOWNEY FD,PO BOX 7016,DOWNEY,90241,DAN HURLOCK,(562) 904‐7344,,2018/06/21 00:00:00+00,https://www.downeyca.org/our-city/departments/fire,LAC,27453.6101351485,32557305.2417306
118,LOS ANGELES,19065,ELS,EL SEGUNDO FD,314 MAIN ST,EL SEGUNDO,90245,DEENA LEE,(310) 524‐2219,,2018/06/21 00:00:00+00,https://www.elsegundofd.org/,LAC,17547.7485703634,14151830.7299243
119,LOS ANGELES,19075,GLN,GLENDALE FD,421 OAK ST,GLENDALE,91204,SILVIO LANZAS,(818) 548‐4814,,2018/06/21 00:00:00+00,https://www.glendaleca.gov/government/departments/fire-department,LAC,58032.4782455201,79354247.6638027
121,LOS ANGELES,19095,LVN,LA VERNE FD,2061 THIRD ST,LA VERNE,91750,CHRIS NIGG,(909) 596‐5991,,2018/06/21 00:00:00+00,https://www.lavernefire.org/,LAC,35135.7476329672,22063608.0637496
122,LOS ANGELES,19100,LOB,CITY OF LONG BEACH FD,3205 LAKEWOOD BLVD,LONG BEACH,90808,XAVIER ESPINO,(562) 570‐2500,,2018/06/21 00:00:00+00,https://www.longbeach.gov/fire/,LAC,176691.402181129,133914256.779699
123,LOS ANGELES,19105,LFD,LOS ANGELES CITY FD,"200 N MAIN ST, RM 1800",LOS ANGELES,90012,KRISTIN M CROWLEY,(213) 978‐3800,,2018/06/21 00:00:00+00,https://www.lafd.org/,LAC,539368.000934856,1226521099.35351
124,LOS ANGELES,19110,LAC,LOS ANGELES CO FD,1320 N EASTERN AVE,LOS ANGELES,90063,ANTHONY C. MARRONE,(323) 267‐7205,,2018/06/21 00:00:00+00,https://fire.lacounty.gov/,LAC,1500021.34845341,8547865155.27545
125,LOS ANGELES,19120,MHB,MANHATTAN BEACH FD,400 15TH ST,MANHATTAN BEACH,90266,MIKE LANG,(310) 802‐5203,,2018/06/21 00:00:00+00,https://www.manhattanbeach.gov/departments/fire-department,LAC,14618.085845473,10219384.3974173
126,LOS ANGELES,19125,MRV,MONROVIA FRE & RESCUE,141 E LEMON,MONROVIA,91016,JEREMY SANCHEZ,(626) 256‐8181,,2018/06/21 00:00:00+00,https://www.cityofmonrovia.org/your-government/fire-department,LAC,43985.418359518,35617092.8604924
127,LOS ANGELES,19130,MTB,MONTEBELLO FD,1600 W BEVERLY BLVD,MONTEBELLO,90640,FERNANDO PELAEZ,(323) 680‐1042,,2018/06/21 00:00:00+00,https://www.cityofmontebello.com/fire-administration.html,LAC,30259.1496109197,21673235.346919
128,LOS ANGELES,19135,MPK,MONTEREY PARK FD,320 W NEWMARK AVE,MONTEREY PARK,91754,MATTHEW HALLOCK,(626) 307‐1262,,2018/06/21 00:00:00+00,http://www.montereypark.ca.gov/130/Fire-Department,LAC,24296.1008523946,20039939.080977
129,LOS ANGELES,19145,PAS,PASADENA FD,"215 NORTH MORENGO AVE, STE 195",PASADENA,91101,CHAD AUGUSTIN,(626) 744‐4675,,2018/06/21 00:00:00+00,https://www.cityofpasadena.net/fire/,LAC,85994.2904942319,59860858.2438885
130,LOS ANGELES,19155,RDB,REDONDO BEACH FD,401 S BROADWAY,REDONDO BEACH,90277,ROBERT METZGER,(310) 318‐0663,,2018/06/21 00:00:00+00,https://www.redondo.org/depts/fire/default.asp,LAC,33304.6387086657,16212292.0519011
131,LOS ANGELES,19165,SGB,SAN GABRIEL FD,1303 S. DEL MAR,SAN GABRIEL,91776,STEVE WALLACE,(626) 308‐2880,,2018/06/21 00:00:00+00,https://sangabrielcity.com/94/Fire,LAC,29428.0007626038,10704870.9473109
132,LOS ANGELES,19175,SFS,SANTA FE SPRINGS FD,11300 GREENSTONE AVE,SANTA FE SPRINGS,90670,BRENT HAYWARD,(562) 944‐9713,,2018/06/21 00:00:00+00,https://www.santafesprings.org/cityhall/fire_rescue/default.asp,LAC,47909.8324982566,22982313.6473814
133,LOS ANGELES,19180,SMA,SANTA MONICA FD,333 OLYMPIC DRIVE,SANTA MONICA,90401,DANNY ALVAREZ,(310) 458‐8501,,2018/06/21 00:00:00+00,https://www.santamonica.gov/departments/fire,LAC,19985.8448888328,21607041.4375372
134,LOS ANGELES,19185,SMD,SIERRA MADRE FD,242 W SIERRA MADRE BLVD,SIERRA MADRE,91024,BRENT BARTLETT,(626) 355‐3611,,2018/06/21 00:00:00+00,https://www.cityofsierramadre.com/cityhall/departments/fire_department,LAC,12233.0816386837,7662958.40984879
135,LOS ANGELES,19195,SPS,SOUTH PASADENA FD,817 MOUND AVE,SOUTH PASADENA,91030,PAUL RIDDLE,(626) 403‐7300,,2018/06/21 00:00:00+00,https://www.southpasadenaca.gov/government/departments/fire,LAC,13156.6608497259,8845761.73531291
136,LOS ANGELES,19200,TOR,TORRANCE FD,1701 CRENSHAW BLVD,TORRANCE,90501,MARTIN SERNA,(310) 781‐7000,,2018/06/21 00:00:00+00,https://www.torranceca.gov/our-city/fire,LAC,40679.2009609552,53242935.1558075
137,LOS ANGELES,19205,VER,VERNON FD,4305 SANTA FE AVE,VERNON,90058,JIM ENRIQUEZ,(323) 583‐8811,,2018/06/21 00:00:00+00,,LAC,25881.9620065485,13353296.0148332
138,MADERA,20005,CHW,CHOWCHILLA VFD,240 N FIRST STREET,CHOWCHILLA,93610,FRED GAUMNITZ,(559) 665‐8626,,2018/06/21 00:00:00+00,https://www.cityofchowchilla.org/168/Fire-Department,MMU,35711.2270470961,21087280.7349705
139,MADERA,20010,MDA,MADERA FD,5366 HWY 49 NORTH,MARIPOSA,95338,MIKE VAN LOBEN SELS,(209) 966‐3622,,2018/06/21 00:00:00+00,https://www.madera.gov/home/departments/fire/,MMU,51550.8410708563,40898015.4944784
140,MADERA,20015,MDC,MADERA CO FD,5366 HWY 49 NORTH,MARIPOSA,95338,MIKE VAN LOBEN SELS,(209) 966‐3622,,2018/06/21 00:00:00+00,https://www.maderacounty.com/government/fire-department,MMU,567707.053519596,5512863047.73234
141,MARIN,21010,BOL,BOLINAS FPD,PO BOX 163,BOLINAS,94924,GEORGE KRAKAUER,(415) 868‐1566,,2018/06/21 00:00:00+00,https://www.bolinasfire.org/,MRN,26123.4811863079,24293536.822166
142,MARIN,21025,INV,INVERNESS VFD,PO BOX 469,INVERNESS,94937,JIM FOX,(415) 669‐7151,,2018/06/21 00:00:00+00,,MRN,11765.0674274726,5708092.91899203
143,MARIN,21030,KNT,KENTFIELD FPD,1004 SIR FRANCIS DRAKE BLVD,KENTFIELD,94904,MARK POMI,(415) 453‐7464,,2018/06/21 00:00:00+00,https://www.kentfieldfire.org/,MRN,20860.6692098622,7045244.4751946
144,MARIN,21040,MLV,MILL VALLEY FD,1 HAMILTON DRIVE,MILL VALLEY,94941,CHRISTIAN D. TUBBS,(415) 389‐4130,,2018/06/21 00:00:00+00,,MRN,25689.3343045009,12606927.2334724
146,MARIN,21055,NOV,NOVATO FPD,95 ROWLAND WAY,NOVATO,94945,BILL TYLER,(415) 892‐1513,,2018/06/21 00:00:00+00,https://www.novatofire.org/,MRN,69157.1927921332,185619696.067222
148,MARIN,21065,ANS,ROSS VALLEY FD,777 SAN ANSELMO AVE,SAN ANSELMO,94960,JASON WEBER,(415) 258‐4686,,2018/06/21 00:00:00+00,https://www.rossvalleyfire.org/,MRN,38344.0519039786,16724672.7227111
149,MARIN,21075,SNR,SAN RAFAEL FD,1375 5TH AVE,SAN RAFAEL,94901,DARIN WHITE,(415) 485‐3304,,2018/06/21 00:00:00+00,https://www.cityofsanrafael.org/departments/fire/,MRN,76896.0006058493,58580198.3408353
150,MARIN,21080,MRW,MARINWOOD FD,777 MILLER CREEK RD,SAN RAFAEL,94903,ROBERT SINNOTT,(415) 479‐0122,,2018/06/21 00:00:00+00,https://www.marinwood.org/mission,MRN,16950.8350551483,8029173.14926381
152,MARIN,21095,SNB,STINSON BEACH FPD,PO BOX 127,STINSON BEACH,94970,JESSE PERI,(415) 868‐0622,,2018/06/21 00:00:00+00,https://stinsonbeachfire.org/,MRN,23732.2836748157,15194908.2712018
153,MARIN,21100,TIB,TIBURON FPD,1679 TIBURON BLVD,TIBURON,94920,RICHARD PEARCE,(415) 435‐7200,,2018/06/21 00:00:00+00,https://www.tiburonfire.org/,MRN,20276.5967399058,10419555.3461716
154,MARIN,21105,MRN,MARIN COUNTY FD,33 CASTLEROCK AVE / PO BOX 518,WOODACRE,94973,JASON WEBER,(415) 473‐6717,,2018/06/21 00:00:00+00,https://www.marincounty.org/depts/fr,MRN,622571.844150265,1135448699.68894
157,MENDOCINO,23005,ALR,ALBION LITTLE RIVER FPD,P.O. BOX 634,ALBION,95410,MICHAEL REES,(707) 937‐0042,,2018/06/21 00:00:00+00,https://www.alrfpd.com/,MEU,58309.0926794372,96513388.601989
158,MENDOCINO,23010,AVY,ANDERSON VALLEY FD,PO BOX 398,BOONVILLE,95415,ANDRES AVILA,(707) 895‐2020,,2018/06/21 00:00:00+00,https://www.andersonvalleyfire.org/,MEU,189556.188986243,412297929.933706
159,MENDOCINO,23011,BCS,BROOKTRAILS TOWNSHIP CSD FD,24860 BIRCH ST,WILLITS,95490,JON NOYER,(707) 459‐4441,,2018/06/21 00:00:00+00,https://www.btcsd.org/brooktrails-fire-department,MEU,43658.7625558469,33711313.9435096
160,MENDOCINO,23015,CMT,COMPTCHE VFD,PO BOX 164,COMPTCHE,95427,DAVID BEAK,(707) 937‐2408,,2018/06/21 00:00:00+00,http://www.comptchefire.org/,MEU,67379.2592661205,221609736.238052
161,MENDOCINO,23020,CVL,COVELO FPD,PO BOX 36,COVELO,95428,KENNETH WEBER,(707) 983‐6719,,2018/06/21 00:00:00+00,,MEU,39809.1120482159,66508055.6811452
162,MENDOCINO,23025,EKV,ELK VFD,PO BOX 151,ELK,95432,ROBERT MATSON,(707) 877‐3350,,2018/06/21 00:00:00+00,https://www.elkcsd.org/elk-volunteer-fire-department,MEU,87083.8277897494,147801287.38206
163,MENDOCINO,23030,BRG,FORT BRAGG FD,141 N MAIN ST,FORT BRAGG,95437,STEVE ORSI,(707) 961‐2831,,2018/06/21 00:00:00+00,https://fortbraggfire.specialdistrict.org/,MEU,29361.043875036,7165737.05503859
164,MENDOCINO,23040,SCF,SOUTH COAST FPD,PO BOX 334,GUALALA,95445,JASON WARNER,(707) 884‐4700,,2018/06/21 00:00:00+00,https://www.southcoastfpd.org/,MEU,53086.3535284331,51754103.6498543
165,MENDOCINO,23045,LVF,LONG VALLEY FPD,PO BOX 89,LAYTONVILLE,95454,MATT MATHESON,(707) 984‐6055,,2018/06/21 00:00:00+00,https://www.longvalleyfire.com/~lvf/wp/,MEU,124934.039198366,617265950.273333
166,MENDOCINO,23055,NRC,PIERCY FPD,PO BOX 206,PIERCY,95587,ROBERT KIRK,(707) 247‐3449,,2018/06/21 00:00:00+00,,MEU,40413.7455136378,17546599.0277984
167,MENDOCINO,23060,PTA,REDWOOD COAST FPD,PO BOX 245,POINT ARENA,95468,MICHAEL SUDDITH,(707) 882‐3226,,2018/06/21 00:00:00+00,https://redwood-coast-fire-protection-dist.hub.biz/,MEU,97555.4704474275,350955349.442724
168,MENDOCINO,23065,POT,POTTER VALLEY CSD,PO BOX 464,POTTER VALLEY,95469,BILL PAULI,(707) 743‐1173,,2018/06/21 00:00:00+00,,MEU,119541.616789927,346155284.148324
169,MENDOCINO,23070,RVF,REDWOOD VALLEY CALPELLA FPD,PO BOX 499,REDWOOD VALLEY,95470,KERRY ROBINSON,(707) 485‐8121,,2018/06/21 00:00:00+00,https://www.redwoodvalleycalpellafire.org/,MEU,81761.8989619507,156800892.034282
170,MENDOCINO,23080,UKV,UKIAH VALLEY FIRE AUTHORITY,1500 S STATE ST,UKIAH,95482,DOUGLAS HUTCHISON,(707) 462‐7921,,2018/06/21 00:00:00+00,http://www.cityofukiah.com/uvfd/,MEU,96900.883339229,170359849.99876
171,MENDOCINO,23090,LTL,LITTLE LAKE FPD,1575 BAECLITEL RD,WILLITS,95490,CHRISTOPHER B. WILKES,(707) 459‐7777,,2018/06/21 00:00:00+00,https://www.littlelakefire.org/,MEU,161030.596521317,620060842.119341
172,MENDOCINO,23115,LEG,LEGGETT VALLEY VOL FD,PO BOX 191,LEGGETT,95585,ELY REIGHTER,(707) 925‐6334,,2018/06/21 00:00:00+00,,MEU,67265.9150526428,75050138.3161663
173,MENDOCINO,23910,,WESTPORT VFD,PO BOX 67,WESTPORT,95488,DANIEL MAXEY,(707) 964‐4646,,2018/06/21 00:00:00+00,https://westportvfd.org/,MEU,69499.2380325182,28363713.5209171
174,MERCED,24005,ATW,ATWATER FD,699 BROADWAY,ATWATER,95301,MIKE VAN LOBEN SELS,(209) 357‐6352,,2018/06/21 00:00:00+00,https://www.atwater.org/departments/fire/,MMU,29977.1903410032,15672362.3629655
175,MERCED,24030,MER,CITY OF MERCED FD,99 E 16TH ST,MERCED,95340,DEREK PARKER,(209) 385‐6891,,2018/06/21 00:00:00+00,https://www.cityofmerced.org/departments/fire,MMU,105644.72661213,60507983.143436
176,MERCED,24035,MRD,MERCED CO FD,5366 HWY 49 NORTH,MARIPOSA,95338,MIKE VAN LOBEN SELS,(209) 966‐3622,,2018/06/21 00:00:00+00,https://www.co.merced.ca.us/70/Fire-Department,MMU,480707.22289648,5041276346.75958
177,MODOC,25005,ADI,ADIN FPD,PO BOX 16,ADIN,96006,KEN RICHARDSON,(530) 299‐3455,,2021/11/21 00:00:00+00,,LMU,115456.521046685,436731530.554165
178,MODOC,25010,ALV,ALTURAS CITY FD,103 SO HOWARD ST,ALTURAS,96101,ROGER DORRIS,(530) 233‐4500,,2021/11/21 00:00:00+00,http://www.cityofalturas.us/departments/fire/index.php,LMU,18004.7508598682,7466418.80227244
179,MODOC,25015,ALF,ALTURAS RURAL FD,310 N RINE ST,ALTURAS,96101,ERICK J. KINNEY,(530) 233‐3018,,2021/11/21 00:00:00+00,,LMU,174261.277314806,920667558.214217
180,MODOC,25020,CAN,CANBY FPD,PO BOX 334,CANBY,96015,RON SHERER,(530) 233‐4804,,2021/11/21 00:00:00+00,,LMU,102623.236539739,264858818.877386
181,MODOC,25025,CDV,CEDARVILLE FPD,PO BOX 39,CEDARVILLE,96104,DANIEL ROSS,(530) 279‐2311,,2021/11/21 00:00:00+00,,LMU,88184.0720949863,467557258.37961
182,MODOC,25030,DAV,DAVIS CREEK VFD,PO BOX 37,DAVIS CREEK,96108,JOHN LESLIE,(530) 233‐5521,,2021/11/21 00:00:00+00,,LMU,170114.076545912,911147616.268086
183,MODOC,25035,EAG,EAGLEVILLE FPD,MAIN ST,EAGLEVILLE,96110,ROBERT STATON,(530) 279‐2203,,2021/11/21 00:00:00+00,,LMU,97544.7993458011,439381582.826815
184,MODOC,25040,FTB,FORT BIDWELL VFD,PO BOX 296,FORT BIDWELL,96112,MARK ROYER,(530) 640‐1199,,2021/11/21 00:00:00+00,,LMU,86738.1448736577,451261259.993643
185,MODOC,25045,LKC,LAKE CITY FPD,PO BOX 502,LAKE CITY,96115,JOHN ERQUIAGA,(530) 279‐2531,,2021/11/21 00:00:00+00,,LMU,85143.503173544,431844654.942479
186,MODOC,25050,LIK,LIKELY FPD,PO BOX 14,LIKELY,96116,DEWAYNE MATTHEWS,(530) 233‐2010,,2021/11/21 00:00:00+00,,LMU,132503.660390809,844717578.798706
187,MODOC,25055,LOO,LOOKOUT FPD,PO BOX 174,LOOKOUT,96054,ALLEN MOORE,(530) 640‐2673,,2021/11/21 00:00:00+00,,LMU,96912.3144871587,424450704.845832
188,MONTEREY,27035,GNZ,GONZALES VFD,PO BOX 647,GONZALES,93926,RICK RUBBO,(831) 675‐3677,,2018/06/21 00:00:00+00,https://gonzalesca.gov/services/fire-department,BEU,69798.1947565348,151386216.209274
189,MONTEREY,27060,MNT,MONTEREY FD,610 PACIFIC STREET,MONTEREY,93940,GAUDENZ PANHOLZER,(831) 646‐3900,,2021/12/22 00:00:00+00,https://monterey.org/city_hall/departments/fire/index.php,BEU,71163.4426520869,35821558.8181743
190,MONTEREY,27095,MSR,MISSION SOLEDAD RURAL FPD,2221 GARDEN ROAD,MONTEREY,93940,GEORGE NUNEZ,(831) 333‐4600,,2018/06/21 00:00:00+00,https://www.cityofsoledad.com/departments/fire-department/,BEU,84628.4255332905,154478349.055298
191,NAPA,28010,NAP,CITY OF NAPA FD,PO BOX 660,NAPA,94559,ZACH CURREN,(707) 257‐9593,,2018/06/21 00:00:00+00,https://www.cityofnapa.org/352/Fire-Department,LNU,102150.731329258,46015446.1251991
192,NAPA,28015,STH,ST HELENA FD,1480 MAIN ST.,ST HELENA,94574,JOHN SORENSEN,(707) 967‐2880,,2018/06/21 00:00:00+00,https://www.cityofsthelena.org/fire,LNU,65033.2122541905,97173007.0936516
193,NAPA,28020,ACY,AMERICAN CANYON FPD,911 DONALDSON WAY E.,AMERICAN CANYON,94503,MICHAEL P. CAHILL,(707) 551‐0650,,2018/06/21 00:00:00+00,https://www.cityofamericancanyon.org/government/public-safety/fire-district,LNU,47324.5415631372,15302538.1998225
194,NAPA,28490,NSH,NAPA STATE HOSPITAL FD,2100 NAPA VALLEJO HWY,IMOLA,94558,MICHAEL CONLEY,(707) 253‐5235,,2018/06/21 00:00:00+00,,LNU,33846.0176615363,22917922.5280701
195,NAPA,28555,LNU,CDF‐NAPA COUNTY,1199 BIG TREE RD,ST HELENA,94574,MIKE MARCUCCI,(707) 967‐1465,,2018/06/21 00:00:00+00,https://www.countyofnapa.org/389/County-Fire-Department,LNU,473466.868154115,1867067775.69507
223,PLUMAS,32005,BEC,BECKWOURTH FD,180 MAIN STREET,BECKWOURTH,96122,BRET RUSSELL,(530) 832‐1008,,2021/11/21 00:00:00+00,https://www.beckwourthfire.com/,LMU,131524.655846983,46331246.2492229
224,PLUMAS,32008,CSD,C ROAD FD,PO BOX 344,BLAIRSDEN,96103,TOBE SMITH,(530) 836‐0288,,2018/06/21 00:00:00+00,,LMU,9762.77789108812,5006859.60723382
225,PLUMAS,32010,CHE,CHESTER FPD,PO BOX 177,CHESTER,96020,JOE WATERMAN,(530) 258‐3456,,2021/11/21 00:00:00+00, ,LMU,19338.7731230961,3285772.48686165
226,PLUMAS,32015,CRM,CRESCENT MILLS FPD,PO BOX 110,CRESCENT MILLS,95934,THOMAS RIEHL,(530) 375‐0787,,2021/11/21 00:00:00+00,,LMU,39733.6715543193,9108671.80750484
227,PLUMAS,32020,GRA,GRAEAGLE FPD,PO BOX 64,GRAEAGLE,96103,ED WARD,(530) 836‐1340,,2021/11/21 00:00:00+00,https://graeaglefire.org/,LMU,63845.014803944,21145476.9432527
228,PLUMAS,32022,GHC,GREENHORN CREEK VFD,2049 RED BLUFF CIRCLE,QUINCY,95971,TYSON RAEL,(530) 283‐4658,,2021/11/21 00:00:00+00,https://www.greenhorncsd.org/greenhorn-volunteer-fire-department,LMU,6699.39957253906,1073898.23616912
229,PLUMAS,32025,GVF,INDIAN VALLEY FIRE AND RESCUE,PO BOX 899,GREENVILLE,95947,TONY BALBIANI,(530) 284‐7224,,2021/11/21 00:00:00+00,http://www.indianvalleycsd.com/indian-valley-fire.htm,LMU,203756.966126917,48064349.9098835
230,PLUMAS,32030,LPR,LA PORTE FPD,PO BOX 335,CLIPPER MILLS,95930,STEVE BURROUGHS,(530) 675‐2557,,2018/06/21 00:00:00+00,https://www.plumasfirechiefs.org/la-porte-fpd.html,LMU,6806.90824978699,1054282.69675767
231,PLUMAS,32032,LVL,LONG VALLEY FD,PO BOX 30226,CROMBERG,96103,STEVEN PETERS,(530) 836‐2550,,2021/11/21 00:00:00+00,https://www.longvalleyfire.com/~lvf/wp/,LMU,27127.2074355764,6992974.00624086
232,PLUMAS,32035,MVF,MEADOW VALLEY FPD,PO BOX 130,MEADOW VALLEY,95956,BILL BRADFIELD,(530) 283‐2036,,2021/11/21 00:00:00+00,,LMU,37945.4337092517,90070536.6127219
233,PLUMAS,32042,WAC,WEST ALMANOR CSD,947 LONG IRON DR,CHESTER,96020,JOE FORDING,(530) 259‐5112,,2021/11/21 00:00:00+00,https://www.plumasfirechiefs.org/west-almanor-fpd--prattville.html,LMU,9093.90943036193,2487961.85842066
234,PLUMAS,32043,PEF,PLUMAS EUREKA FD,200 LUNDY LN,BLAIRSDEN,96103,STEVE MUNSEN,(530) 836‐0532,,2021/11/21 00:00:00+00,https://www.pecsd.org/fire-department,LMU,11886.8846908766,1406669.69509719
235,PLUMAS,32045,PRT,PRATTVILLE ALMANOR FD,2977 SCOTT DR,CANYON DAM,95923,CARL LUNSFORD,(530) 259‐3822,,2021/11/21 00:00:00+00,,LMU,7291.84145283401,1262972.6061887
236,PLUMAS,32050,QUI,QUINCY FPD,505 LAWRENCE ST,QUINCY,95971,ROBERT J. CASSOU,(530) 283‐0870,,2021/11/21 00:00:00+00,https://www.plumasfirechiefs.org/quincy-fpd.html,LMU,112159.893935033,30282119.9263344
237,PLUMAS,32060,SIE,SIERRA VALLEY FPD,PO BOX 211,CHILCOOT,96105,VIVKI ANDERSON,(530) 993‐1111,,2021/11/21 00:00:00+00,,LMU,136300.292331428,572085005.638229
238,PLUMAS,32065,HBF,HAMILTON BRANCH FPD,3791 BIG SPRINGS RD,LAKE ALMANOR,96137,ANDREW COURTRIGHT,(530) 596‐3458,,2021/11/21 00:00:00+00,https://www.hambranchfire.com/,LMU,28546.3474064802,11096628.943294
239,PLUMAS,32070,PNS,PENINSULA FPD,801 GOLF CLUB RD,LAKE ALMANOR,96137,ANDREW COURTRIGHT,(530) 259‐2306,,2021/11/21 00:00:00+00,https://www.peninsulafire.net/,LMU,28216.2134867237,16925966.5757248
240,PLUMAS,32075,EPR,EASTERN PLUMAS RURAL FPD,141 DELLEKER ROAD,PORTOLA,96122,ROBERT FRANK JR,(530) 832‐5626,,2021/11/21 00:00:00+00,https://eprfpd.specialdistrict.org/,LMU,62097.9767519164,22015548.5343931
252,SAN BERNARDINO,36006,,ADELANTO FD,10370 RANCHO RD,ADELANTO,92301,KELLY ANDERSON,(760) 256‐3331,,2018/06/21 00:00:00+00,https://sbcfire.org/,BDU,100722.790095327,137712966.330528
253,SAN BERNARDINO,36010,RCF,RANCHO CUCAMONGA FD,10500 CIVIC CENTER DR,RANCHO CUCAMONGA,91730,MIKE MCCLIMAN,(909) 477‐2770,,2018/06/21 00:00:00+00,https://www.cityofrc.us/public-safety/fire,BDU,50655.9846001461,128903116.491889
254,SAN BERNARDINO,36015,APP,APPLE VALLEY FPD,22400 HEADQUARTERS DR,APPLE VALLEY,92307,JAMES PERATT,(760) 220‐6619,,2023/03/20 00:00:00+00,https://avfpd.org/,BDU,100618.575982432,528296523.491278
255,SAN BERNARDINO,36025,ABL,ARROWBEAR LAKE CWD,PO BOX 4045,ARROWBEAR LAKE,92382,PAUL L. LINDLEY,(909) 867‐3479,,2023/03/20 00:00:00+00,http://ablfd.org/,BDU,11468.1684397393,4194603.21441923
256,SAN BERNARDINO,36035,BAR,BARSTOW FPD,861 BARSTOW RD,BARSTOW,92311,NICK DINAPOLI,(760) 256‐2254,,2018/06/21 00:00:00+00,https://www.barstowca.org/departments/fire-protection-district,BDU,78661.4847390321,118353593.761389
257,SAN BERNARDINO,36058,CHO,CHINO VALLEY FD,14011 CITY CENTER DR,CHINO HILLS,91709,DAVID ANTHONY WILLIAMS,(909) 902‐5260,,2023/03/20 00:00:00+00,https://chinovalleyfire.org/,BDU,70284.0357923136,199255857.678003
258,SAN BERNARDINO,36080,DAG,DAGGETT FD,PO BOX 308,DAGGETT,92327,WAYNE CLEMONS JR.,(760) 254‐5474,,2018/06/21 00:00:00+00,http://www.daggettfire.org/,BDU,62685.3336556211,52573380.5496502
259,SAN BERNARDINO,36094,,FONTANA FPD,17001 UPLAND AVE,FONTANA,92335,JEFF BIRCHFIELD,(909) 356‐2522,,2018/06/21 00:00:00+00,https://www.fontana.org/634/Fire-Protection-District,BDU,60214.0860238277,135516924.318207
260,SAN BERNARDINO,36107,HIG,HIGHLAND FD,3800 SIERRA WY,SAN BERNARDINO,92405,SHANE LITTLEFIELD,(909) 881‐6900,,2018/06/21 00:00:00+00,https://www.cityofhighland.org/Directory.aspx?did=19,BDU,67651.9826423426,48341372.2583078
261,SAN BERNARDINO,36125,LOM,LOMA LINDA FD,25541 BARTON RD,LOMA LINDA,92354,DAN HARKER,(909) 799‐2850,,2018/06/21 00:00:00+00,https://www.lomalinda-ca.gov/our_city/departments/fire,BDU,21619.1870342973,19454965.8471983
262,SAN BERNARDINO,36140,MTC,MONTCLAIR FD,8901 MONTE VISTA AVE,MONTCLAIR,91784,DAVID POHL,(909) 447‐3500,,2018/06/21 00:00:00+00,https://www.cityofmontclair.org/departments/fire-department/,BDU,17863.2693157627,16683325.589534
263,SAN BERNARDINO,36150,MGO,MORONGO VALLEY CSD,PO BOX 46,MORONGO VALLEY,92256,JAMES A BRAKEBILL,(760) 363‐6211,,2018/06/21 00:00:00+00,https://morongocsd.specialdistrict.org/,BDU,42948.8001315342,70811133.2766276
264,SAN BERNARDINO,36165,NBY,NEWBERRY SPRINGS VFD,PO BOX 206,NEWBERRY SPRINGS,92365,DAPHNE LANIER,(760) 257‐3613,,2018/06/21 00:00:00+00,https://www.newberrycsd.net/,BDU,110333.421962622,297341224.442644
265,SAN BERNARDINO,36170,OTO,ONTARIO FD,415 EAST B STREET,ONTARIO,91764,RAY GAYK,(909) 395‐2002,,2018/06/21 00:00:00+00,https://www.ontarioca.gov/Fire,BDU,54092.5719377177,129286918.08192
266,SAN BERNARDINO,36180,RED,REDLANDS FD,"35 CAJON ST, SUITE 12",REDLANDS,92373,RICH SESSLER,(909) 798‐7600,,2018/06/21 00:00:00+00,https://www.cityofredlands.org/fire-department,BDU,94257.1979149517,94426066.8701526
267,SAN BERNARDINO,36185,RIA,RIALTO FD,131 S WILLOW AVE,RIALTO,92376,SEAN GRAYSON,(909) 820‐2501,,2018/06/21 00:00:00+00,https://www.yourrialto.com/233/Fire-Department,BDU,71894.3589988081,57215282.3429289
268,SAN BERNARDINO,36190,RSP,RUNNING SPRINGS CWD,PO BOX 2206,RUNNING SPRINGS,92382,MICHAEL R. VASQUEZ,(909) 867‐2630,,2023/03/20 00:00:00+00,https://www.runningspringsfire.org/,BDU,26190.0611140503,11844158.1592578
269,SAN BERNARDINO,36194,YUC,YUCAIPA FD,11416 BRYANT ST,YUCAIPA,92399,SHANE LITTLEFIELD,(909) 797‐1000,,2018/06/21 00:00:00+00,https://yucaipa.org/fire-department/,BDU,53753.4666001162,71681267.034909
270,SAN BERNARDINO,36220,VCV,VICTORVILLE FD,14343 CIVIC DRIVE,VICTORVILLE,92392,BRIAN FALLON,(760) 955‐5233,,2018/06/21 00:00:00+00,https://www.victorvilleca.gov/government/city-departments/fire,BDU,123384.008766934,191737438.975669
271,SAN BERNARDINO,36230,YER,YERMO/CALICO FD,PO BOX 1210,YERMO,92398,JAMES A. BRAKEBILL,(760) 278‐3002,,2018/06/21 00:00:00+00,,BDU,93648.752511762,126086984.621111
272,SAN BERNARDINO,36193,BDC,SAN BERNARDINO COUNTY FIRE,157 WEST 5H ST,SAN BERNARDINO,92401,DANIEL R. MUNSEY,(909) 387‐5974,,2023/03/20 00:00:00+00,https://sbcfire.org/,BDU,2001713.56318443,49455205244.8941
273,SAN FRANCISCO,38005,SFR,SAN FRANCISCO FD,698 2ND ST,SAN FRANCISCO,94107,JEANINE R. NICHOLSON,(415) 558‐3400,,2018/06/21 00:00:00+00,https://sf-fire.org/,CZU,83181.7163610689,277458380.419488
291,SAN LUIS OBISPO,40027,FIV,FIVE CITIES FIRE AUTHORITY,140 TRAFFIC WAY,ARROYO GRANDE,93420,STEPHEN C. LIEBERMAN,(805) 473‐5490,"Consolidation of Arroyo Grande, Grover Beach, and Oceano on July 9, 2010.",2018/06/21 00:00:00+00,http://www.fivecitiesfireauthority.org/,SLU,33142.0485513171,25890614.6562318
292,SAN LUIS OBISPO,40010,ATA,ATASCADERO FD,6005 LEWIS AVE,ATASCADERO,93422,CASEY D. BRYSON,(805) 461‐5070,,2018/06/21 00:00:00+00,https://www.atascadero.org/index.php?option=com_content&view=article&id=624&Itemid=538,SLU,47215.8968651487,67905361.4253958
293,SAN LUIS OBISPO,40015,AVI,AVILA BEACH FPD,PO BOX 309,AVILA BEACH,93424,JOHN OWENS,(805) 543‐4244,,2018/06/21 00:00:00+00,https://www.avilabeachcsd.org/,SLU,5266.91952553443,669073.803537619
294,SAN LUIS OBISPO,40020,CMB,CAMBRIA CSD FD,2850 BURTON DR,CAMBRIA,93428,JUSTIN VINCENT,(805) 927‐6240,,2018/06/21 00:00:00+00,,SLU,27844.2550212635,11902481.1569741
297,SAN LUIS OBISPO,40040,MRB,MORRO BAY FD,715 HARBOR ST,MORRO BAY,93442,DANIEL MCCRAIN,(805) 772‐6242,,2018/06/21 00:00:00+00,https://www.morro-bay.ca.us/68/Fire,SLU,30252.508145143,15649924.0616897
298,SAN LUIS OBISPO,40050,PRF,PASO ROBLES DES,900 PARK ST,PASO ROBLES,93446,JONATHAN STORNETTA,(805) 227‐7560,,2018/06/21 00:00:00+00,https://www.prcity.com/198/Fire-and-Emergency-Services,SLU,63708.6801415127,51224173.7119537
299,SAN LUIS OBISPO,40055,PSM,PISMO BEACH FD,760 MATTIE RD,PISMO BEACH,93449,JOHN OWENS,(805) 543‐4244,,2018/06/21 00:00:00+00,https://www.pismobeach.org/67/Fire,SLU,31200.1284879773,9087184.24942281
300,SAN LUIS OBISPO,40060,SLO,SAN LUIS OBISPO CITY FD,2160 SANTA BARBARA AVE,SAN LUIS OBISPO,93401,KEITH AGGSON,(805) 781‐7380,,2018/06/21 00:00:00+00,https://www.slocity.org/government/department-directory/fire-department,SLU,55565.6679623201,33213903.630494
301,SAN LUIS OBISPO,40065,SMF,SAN MIGUEL CSD,PO BOX 180,SAN MIGUEL,93451,ROB ROBERSON,(805) 467‐3388,,2018/06/21 00:00:00+00,https://www.sanmiguelcsd.org/,SLU,16948.5381169703,7725822.96783781
302,SAN LUIS OBISPO,40070,SMV,SANTA MARGARITA VFD,PO BOX 67,SANTA MARGARITA,93453,ROBERT R. MURACH,(805) 438‐3185,,2018/06/21 00:00:00+00,https://santamargaritafiredept.org/,SLU,4916.5865067069,1232929.62370945
303,SAN LUIS OBISPO,40075,TEM,TEMPLETON FD,206 5TH ST,TEMPLETON,93465,TOM PETERSON,(805) 434‐4911,,2018/06/21 00:00:00+00,https://templetoncsd.org/255/Fire-Emergency-Services,SLU,29874.2570403998,13244668.9143707
304,SAN LUIS OBISPO,40080,SLC,SAN LUIS OBISPO CO FD,635 N SANTA ROSA ST,SAN LUIS OBISPO,93405,JOHN OWENS,(805) 543‐4244,,2018/06/21 00:00:00+00,https://calfireslo.org/,SLU,940256.942591227,8344077367.37183
305,SAN MATEO,41030,CLM,COLMA FPD,50 REINER ST,COLMA,94014,GEOFFREY BALTON,(650) 755‐5666,,2022/01/06 00:00:00+00,https://colmafire.org/,CZU,20283.9288163076,6354358.99259924
306,SAN MATEO,41045,CFR,COASTSIDE FIRE DISTRICT,P.O. DRAWER F‐2,FELTON,95018,NATE ARMSTRONG,(831) 335‐5355,,2022/01/06 00:00:00+00,https://www.coastsidefire.org/,CZU,97953.2120142494,94411941.8408053
307,SAN MATEO,41050,MNL,MENLO PARK FPD,170 MIDDLEFIELD RD,MENLO PARK,94025,MARK LORENZEN,(650) 688‐8400,,2022/01/06 00:00:00+00,https://www.menlofire.org/,CZU,46700.5352227702,50571155.1622486
308,SAN MATEO,41070,RWO,REDWOOD CITY FD,755 MARSHALL ST,REDWOOD CITY,94063,DAVE PUCCI,(650) 780‐7400,,2022/01/06 00:00:00+00,https://www.redwoodcity.org/departments/fire-department,CZU,72082.5514838406,57806612.520435
309,SAN MATEO,41080,SBR,SAN BRUNO FD,555 EL CAMINO REAL,SAN BRUNO,94066,ARI DELAY,(650) 616‐7096,,2022/01/06 00:00:00+00,https://www.sanbruno.ca.gov/294/Fire,CZU,23642.5741876193,14210050.5385898
310,SAN MATEO,41095,SSF,SOUTH SAN FRANCISCO FD,480 NORTH CANAL ST,SOUTH SAN FRANCISCO,94080,JESUS MAGALLANES,(650) 829‐3950,,2022/01/06 00:00:00+00,https://www.ssf.net/departments/fire,CZU,51864.6895417037,23674978.7924465
311,SAN MATEO,41100,BFS,SAN MATEO CONSOLIDATED FD,1040 EAST HILLSDALE BLVD,FOSTER CITY,94404,KENT THRASHER,(650) 522‐7900,,2022/01/06 00:00:00+00,https://www.smcfire.org/,CZU,55910.3317005667,55629679.2386767
312,SAN MATEO,41105,WOD,WOODSIDE FPD,"808 PORTOLA RD, APT C",WOODSIDE,94028,ROBERT A. LINDNER,(650) 851‐1594,,2022/01/06 00:00:00+00,https://www.woodsidefire.org/,CZU,66763.6335736776,76714734.9846615
313,SAN MATEO,41115,CFS,SAN MATEO CO FD,P.O. DRAWER F‐2,FELTON,95018,NATE ARMSTRONG,(831) 335‐5355,,2022/01/06 00:00:00+00,https://www.cfsfire.org/,CZU,376017.597056042,696369819.220135
314,SAN MATEO,41120,NFA,NORTH CO FIRE AUTHORITY,10 WEMBLEY DR,DALY CITY,94015,RON D. MYERS,(650) 991‐8138,,2022/01/06 00:00:00+00,https://northcountyfire.org/,CZU,88320.3119091088,60634196.6149658
315,SAN MATEO,41556,CEN,CENTRAL COUNTY FD,1399 ROLLINS ROAD,BURLINGAME,94010,BRUCE BARRON,(650) 558‐7600,,2022/01/06 00:00:00+00,https://ccfd.org/,CZU,51585.3802775342,36089207.568987
316,SANTA BARBARA,42005,CRP,CARPINTERIA SUMMERLAND FPD,"1140 EUGENE PLACE, SUITE A",CARPINTERIA,93013,GREG FISH,(805) 684‐4591,,2018/06/21 00:00:00+00,https://www.carpfire.com/,SBC,49534.138992233,101090111.177998
317,SANTA BARBARA,42030,MTO,MONTECITO FPD,595 SAN YSIDRO RD,SANTA BARBARA,93108,KEVIN TAYLOR,(805) 969‐7762,,2018/06/21 00:00:00+00,https://www.montecitofire.com/,SBC,39911.0746822685,36444625.9356473
318,SANTA BARBARA,42035,SBC,SANTA BARBARA CFD,4410 CATHEDRAL OAKS RD,SANTA BARBARA,93110,MARK A. HARTWIG,(805) 681‐5500,,2018/06/21 00:00:00+00,https://www.sbcfire.com/,SBC,778360.396806917,3666998351.82453
322,SHASTA,45555,SHU,CDF‐SHASTA COUNTY,875 CYPRESS AVE,REDDING,96001,SEAN O'HARA,(530) 225‐2418,,2018/06/21 00:00:00+00,https://www.co.shasta.ca.us/index/fire-department/shasta-county-fire-department,SHU,1038627.47710047,8236403845.49973
327,SISKIYOU,47075,TUL,TULELAKE MULTI CO FD,PO BOX 306,TULELAKE,96134,JERRY D KING,(541) 892‐1003,,2021/11/21 00:00:00+00,,SKU,95394.3558067849,272269161.599265
378,TEHAMA,52555,TGU,CDF‐TEHAMA COUNTY,604 ANTELOPE BLVD,RED BLUFF,96080,BOB FARIAS,(530) 529‐8548,,2018/06/21 00:00:00+00,https://www.tehamacountyfire.org/,TGU,2174212.81151481,5798778631.66662
381,TRINITY,53014,SLV,SALYER VFD,PO BOX 235,SALYER,95563,DAVID MURPHY,(530) 629‐2073,,2018/06/21 00:00:00+00,https://www.trinitycounty.org/node/3325,HUU,24041.5145948314,21001714.9116857
385,TUOLUMNE,55005,CLB,COLUMBIA FPD,11328 JACKSON STREET,COLUMBIA,95310,RYAN DELGADO,(209) 532‐3772,,2018/06/21 00:00:00+00,,TCU,7261.26832689736,2574247.94507777
386,TUOLUMNE,55010,JST,JAMESTOWN FPD,PO BOX 634,JAMESTOWN,95327,DAVE  WOOD,(209) 984‐5623,,2018/06/21 00:00:00+00,,TCU,5565.0542968126,702115.48128293
387,TUOLUMNE,55015,WUK,MI WUK SUGAR PINE FPD,PO BOX 530,MI WUK VILLAGE,95346,STEVE MCCLINTOCK,(209) 586‐5256,,2018/06/21 00:00:00+00,https://www.mwspfire.us/,TCU,9040.17315736922,2999767.59039573
388,TUOLUMNE,55020,SOF,SONORA FD,201 S SHEPHERD ST,SONORA,95370,AIMEE NEW,(209) 532‐7432,,2018/06/21 00:00:00+00,https://www.sonoraca.com/city-services/departments/fire-department/,TCU,16504.2009358435,8056058.56531409
389,TUOLUMNE,55025,STW,STRAWBERRY VFD,PO BOX 1185,PINECREST,95364,NEIL GAMEZ,(209) 965‐3513,,2018/06/21 00:00:00+00,,TCU,7228.68928226211,1612405.18694955
390,TUOLUMNE,55030,TUO,TUOLUMNE FPD,18690 MAIN ST.,TUOLUMNE,95379,NICK OHLER,(209) 928‐4505,,2018/06/21 00:00:00+00,https://www.tuolumnefire.com/,TCU,16848.952986211,5005693.17656117
391,TUOLUMNE,55035,TWA,TWAIN HARTE CSD,PO BOX 447,TWAIN HARTE,95383,NEIL GAMEZ,(209) 586‐4800,,2018/06/21 00:00:00+00,https://www.twainhartecsd.com/,TCU,13307.9251340916,4103561.71419146
392,TUOLUMNE,55045,GCS,GROVELAND FD,PO BOX 350,GROVELAND,95321,DAVE  WOOD,(209) 962‐7891,,2018/06/21 00:00:00+00,https://www.gcsd.org/fire-department,TCU,46942.5023879148,38241436.5748754
393,TUOLUMNE,55050,TLU,TUOLUMNE CO FD,18440 STRIKER COURT,SONORA,95370,DAVE  WOOD,(209) 533‐5100,,2018/06/21 00:00:00+00,https://www.tuolumnecounty.ca.gov/717/Fire-Department,TCU,509239.513676577,4108283272.51317
394,VENTURA,56005,FLM,FILLMORE FD,250 CENTRAL AVE,FILLMORE,93015,D. KEITH GURROLA,(805) 524‐1500,,2018/06/21 00:00:00+00,https://www.fillmorefire.com/,VNC,22227.5288192953,8544152.83990999
395,VENTURA,56010,OXD,OXNARD FD,360 WEST SECOND ST.,OXNARD,93030,ALEXANDER HAMILTON,(805) 385‐7722,,2018/06/21 00:00:00+00,https://www.oxnard.org/fire-department/,VNC,101124.164557806,69687041.8268099
396,VENTURA,56020,VNC,VENTURA COUNTY FPD,165 DURLEY AVE,CAMARILLO,93010,DUSTIN GARDNER,(805) 389‐9710,,2018/06/21 00:00:00+00,https://vcfd.org/,VNC,840086.616547571,4239352732.16567
408,YUBA,58003,DOF,DOBBINS OREGON HOUSE FPD,PO BOX 164,OREGON HOUSE,95962,JACK EASTER,(530) 692‐1586,,2018/06/21 00:00:00+00,http://www.dohfd.com/,NEU,70353.9983383441,180646034.499982
409,YUBA,58004,FTL,FOOTHILL VOLUNTEER FD,PO BOX 332,BROWNSVILLE,95919,WILLIAM SHAW,(530) 675‐0163,,2018/06/21 00:00:00+00,http://www.ffpd.net/,NEU,125558.842263508,275687221.043722
410,YUBA,58005,LNA,LINDA FPD,1286 SCALES AVE,MARYSVILLE,95901,KYLE HEGGSTROM,(530) 743‐1553,,2018/06/21 00:00:00+00,https://www.lindafire.org/,NEU,108397.772293428,113242486.289485
411,YUBA,58008,LRB,LOMA RICA BROWNS VALLEY CSD,PO BOX 8153,MARYSVILLE,95901,BRIAN ESTES,(530) 741‐0755,,2018/06/21 00:00:00+00,http://www.lrbvfire.org/,NEU,82227.3874128485,242102609.820362
412,YUBA,58020,SFP,SMARTSVILLE FD,PO BOX 354,SMARTSVILLE,95977,SEAN GRIFFIS,(530) 639‐0405,,2018/06/21 00:00:00+00,https://www.smartsvillefire.org/,NEU,88517.6869035199,184977521.00652
413,YUBA,58030,PBF,PLUMAS BROPHY FPD,313 MAIN STREET,WHEATLAND,95692,ARTHUR PAQUETTE,(530) 633‐0861,,2018/06/21 00:00:00+00,,NEU,93383.8653536653,198600160.826484
414,ALAMEDA,,,CAMP PARKS FIRE DEPT,,,,,,,2018/06/21 00:00:00+00,<Null>,SCU,15816.9512078742,10246732.6793443
415,ALAMEDA,,,FAIRVIEW FIRE PROTECTION DISTRICT,,,,,,,2018/06/21 00:00:00+00,https://www.fairviewfiredistrict.org/,SCU,23361.9792521999,10779106.7077614
416,CONTRA COSTA,,,KENSINGTON FIRE PROTECTION DISTRICT,,,,,,,2018/06/21 00:00:00+00,https://www.kensingtonfire.org/,SCU,8344.73433489491,2474922.73598686
419,MONTEREY,27045,GRN,GREENFIELD FD,380 OAK AVE,GREENFIELD,93927,JIM LANGBORG,(831) 674‐5484,,2018/06/21 00:00:00+00,https://ci.greenfield.ca.us/208/Fire-Service,BEU,53362.4147962595,118989234.340416
429,SAN BENITO,27005,ATC,AROMAS TRI COUNTY FPD,2221 GARDEN ROAD,MONTEREY,93940,DAVID FULCHER,(831) 333‐4600,,2018/06/21 00:00:00+00,https://atcfire.org/,BEU,25585.3498990836,36672200.8732301
431,SAN LUIS OBISPO,,,LOS OSOS CSD,,,,,,,2018/06/21 00:00:00+00,https://www.losososcsd.org/,SLU,19545.7780647758,13377605.4250433
443,NAPA,,,NAPA CITY AND COUNTY AUTO AID AGREEMENT,,,,,,,2018/06/21 00:00:00+00,,LNU,13360.4388984715,794311.602492662
444,LAKE,17025,LKP,LAKEPORT FPD,445 N MAIN ST,LAKEPORT,95453,DANIEL J. GREBIL,(707) 263‐4396,,2018/06/21 00:00:00+00,http://www.lakeportfire.com/,LNU,95414.2437236026,193269366.012715
445,LAKE,17040,MDT,SOUTH LAKE CFPD,P.O. BOX 1360,MIDDLETOWN,95461,MIKE MARCUCCI,(707) 987‐3089,,2018/06/21 00:00:00+00,,LNU,117855.333006009,504624679.805928
446,LAKE,17060,LAK,LAKE PILLSBURY FPD,29501 FULLER DRIVE UNIT B,POTTER VALLEY,95492,LARRY THOMPSON,(707) 743‐1625,,2018/06/21 00:00:00+00,http://www.lakepillsburyfire.com/,LNU,67785.0419545928,233533901.917603
451,VENTURA,,,CAMARILLO CITY FD,,,,,,,2018/06/21 00:00:00+00,,VNC,66986.6055996864,50969587.0739327
452,VENTURA,,,MOORPARK CITY FD,,,,,,,2018/06/21 00:00:00+00,,VNC,34756.3653592046,32303149.8053381
453,VENTURA,,,OJAI CITY FD,,,,,,,2018/06/21 00:00:00+00,,VNC,22508.76294844,11311153.1844829
454,VENTURA,,,SIMI VALLEY CITY FD,,,,,,,2018/06/21 00:00:00+00,,VNC,87107.15412935,109487080.38915
455,VENTURA,,,THOUSAND OAKS CITY FD,,,,,,,2018/06/21 00:00:00+00,https://www.toaks.org/departments/fire,VNC,105549.524610816,143415014.02908
456,VENTURA,,,PORT HUENEME CITY FD,,,,,,,2018/06/21 00:00:00+00,,VNC,16326.71645235,11687910.5998651
457,VENTURA,,,SANTA PAULA CITY FD,,,,,,,2018/06/21 00:00:00+00,,VNC,28216.7620024566,12151844.4387046
458,VENTURA,,,SAN BUENAVENTURA CITY FD,,,,,,,2018/06/21 00:00:00+00,,VNC,112155.009909199,56951709.1691856
459,DEL NORTE,,,KLAMATH FIRE PROTECTION DISTRICT,,,,,,,2018/06/21 00:00:00+00,,HUU,41122.1339290147,27902754.6468088
460,SUTTER,51055,STC,SUTTER COUNTY FD,1130 CIVIC CENTER BLVD STE E,YUBA CITY,95993,JOHN SHALOWITZ,(530) 822‐7724,,2018/06/21 00:00:00+00,https://www.suttercounty.org/government/county-departments/emergency-services/fire-services,NEU,251502.482126663,1012940315.88124
461,YUBA,,,HALLWOOD COMM SERVICE DISTRICT,,,,,,,2018/06/21 00:00:00+00,,NEU,86699.0697943444,147474734.684715
462,YUBA,58015,OLI,OLIVEHURST FD,1962 9TH AVE,OLIVEHURST,95961,RANDY YORK,(530) 743‐7117,,2018/06/21 00:00:00+00,https://www.opud.org/olivehurst-fire-department,NEU,24021.0870790253,12221244.5546753
463,MENDOCINO,,,FORT BRAGG RURAL FPD,,,,,,,2018/06/21 00:00:00+00,https://fortbraggfire.specialdistrict.org/,MEU,126380.971746814,193997811.091346
464,MENDOCINO,,,MENDOCINO FIRE PROTECTION DISTRICT,,,,,,,2018/06/21 00:00:00+00,https://mendocinofpd.org/,MEU,75813.0414263718,61642525.7232925
465,MENDOCINO,,,SANEL VALLEY FIRE PROTECTION DISTRICT,,,,,,,2018/06/21 00:00:00+00,,MEU,99074.8470896015,257672414.814676
466,MENDOCINO,,,CITY OF UKIAH,,,,,,,2018/06/21 00:00:00+00,,MEU,28305.5414275651,12531216.6939846
467,AMADOR,,,SUTTER CREEK FD,,,,,,,2018/06/21 00:00:00+00,https://suttercreekfire.org/,AEU,32662.2660187395,8138100.50520802
468,AMADOR,,,PLYMOUTH FD,,,,,,,2018/06/21 00:00:00+00,,AEU,17300.3142306788,3426350.02501991
473,MARIN,,,SOUTHERN MARIN FIRE PROTECTION DISTRICT,,,,,,,2018/06/21 00:00:00+00,,MRN,838.652308257664,32684.2039338589
474,MARIN,,,SLEEPY HOLLOW FIRE PROTECTION DISTRICT,,,,,,,2018/06/21 00:00:00+00,https://www.shfpd.org/,MRN,12879.3074368652,6515231.77154952
475,MARIN,,,BELVEDERE FIRE,,,,,,,2018/06/21 00:00:00+00,,MRN,10816.5573533219,5900394.12878033
476,MARIN,,,CORTE MADERA FIRE DEPARTMENT,,,,,,,2018/06/21 00:00:00+00,,MRN,19369.9659653479,11583886.5255077
477,MARIN,,,LARKSPUR FIRE DEPARTMENT,,,,,,,2018/06/21 00:00:00+00,https://www.ci.larkspur.ca.us/Directory.aspx?did=5,MRN,24408.6094893643,8285006.20759163
484,SAN BERNARDINO,36065,COL,COLTON FD,303 EAST E ST,COLTON,92324,TIM MCHARGUE,(909) 370‐5100,,2018/06/21 00:00:00+00,https://www.coltonfire.com/,BDU,70719.4090463043,41761203.0693492
485,SAN BERNARDINO,,,RUBIDOUX COMM. SERVICE DISTRICT,,,,,,Currently inside the newly formed city of Jarupa Valley and may be renamed Jarupa Valley FD,2018/06/21 00:00:00+00,,BDU,3584.98523721968,520047.476768829
486,LOS ANGELES,,,SAN MARINO-CITY FIRE DEPT,,,,,,,2018/06/21 00:00:00+00,https://www.cityofsanmarino.org/government/departments/fire/index.php,LAC,17312.7142367523,9756140.05039916
487,LOS ANGELES,,,HAWTHORNE-CITY FIRE DEPT,,,,,,,2018/06/21 00:00:00+00,https://www.hawthornefire.org/,LAC,33367.2894208804,15740379.9239415
488,LOS ANGELES,,,WEST COVINA-CITY FIRE DEPT,,,,,,,2018/06/21 00:00:00+00,https://www.westcovina.org/departments/fire,LAC,62351.811025646,41618836.1674181
489,LOS ANGELES,19225,LHH,LA HABRA HEIGHTS VFD,1245 N HACIENDA BLVD,LA HABRA HEIGHTS,90631,DOUG GRAFT,(562) 694‐8283,,2018/06/21 00:00:00+00,https://www.lhhcity.org/168/Fire-Department,LAC,21301.0980793032,15951641.4969138
491,LOS ANGELES,,,SAN FERNANDO-CITY FIRE DEPT,,,,,,,2018/06/21 00:00:00+00,,LAC,11155.9605680079,6144549.84149406
492,IMPERIAL,,,IMPERIAL,,,,,,,2018/06/21 00:00:00+00,http://www.imperialvfd.org/,SDU,21676.4850704522,8344104.14075128
493,IMPERIAL,,,OCOTILLO FD,,,,,,,2018/06/21 00:00:00+00,,SDU,90583.6029727484,472655148.381986
494,IMPERIAL,,,WINTERHAVEN FD,,,,,,,2018/06/21 00:00:00+00,,SDU,211311.537900585,1864755583.36134
495,IMPERIAL,,,SEELEY,,,,,,,2018/06/21 00:00:00+00,,SDU,60679.7140735753,200339219.808772
496,IMPERIAL,,,HEBER,,,,,,,2018/06/21 00:00:00+00,,SDU,9471.69750166713,3820720.46682127
497,IMPERIAL,,,SALTON CSD,,,,,,,2018/06/21 00:00:00+00,,SDU,140457.188822608,735657564.213425
498,IMPERIAL,,,NILAND FD,,,,,,,2018/06/21 00:00:00+00,,SDU,169436.968149055,716880825.200494
499,IMPERIAL,,,PALO VERDE,,,,,,,2018/06/21 00:00:00+00,https://www.pvestates.org/services/fire-and-paramedic-department,SDU,211829.957582026,1240632761.18931
500,IMPERIAL,,,SALTON SEA BEACH,,,,,,,2018/06/21 00:00:00+00,,SDU,27465.0369854579,22588774.5538996
501,ALPINE,,,EASTERN ALPINE CO. FD,,,,,,,2018/06/21 00:00:00+00,,AEU,126170.885752992,516730750.997099
502,MODOC,,,WILLOW RANCH,,,,,,,2021/11/21 00:00:00+00,,LMU,108836.074577236,439662587.674526
503,LASSEN,,,SIERRA ARMY DEPOT,,,,,,,2021/11/21 00:00:00+00,,LMU,145582.532562358,380832877.50602
504,LASSEN,,,SOUTH LASSEN,,,,,,,2021/11/21 00:00:00+00,,LMU,63871.4567421411,172908299.720944
506,PLUMAS,,,PORTOLA FD,,,,,,,2021/11/21 00:00:00+00,,LMU,30207.3911922663,14122926.5603752
507,PLUMAS,,,GOLD MOUNTAIN CSD,,,,,,,2018/06/21 00:00:00+00,https://www.gmcsd.org/,LMU,11818.610130748,5234838.19219845
508,MODOC,,,CALPINES CSD,,,,,,,2021/11/21 00:00:00+00,https://cpcsd.specialdistrict.org/,LMU,166002.755396569,142596887.102612
509,SAN MATEO,,,SAN CARLOS/REDWOOD CITY FIRE DEPARTMENT,"600 ELM STREET, SAN CARLOS CA 94070",,,,(650) 802-4300,,2022/01/06 00:00:00+00,https://www.cityofsancarlos.org/government/departments/fire,CZU,30192.1781873032,13962857.1018166
597,MONTEREY,27070,SLS,SALINAS FD,200 LINCOLN AVE,SALINAS,93901,SAMUEL KLEMEK,(831) 758‐7261,,2022/01/20 00:00:00+00,https://www.cityofsalinas.org/our-city-services/fire-department,BEU,48365.1336853729,60665363.393108
606,ORANGE,30005,ANA,ANAHEIM FD,201 S ANAHEIM BLVD 300,ANAHEIM,92805,RANDY R. BRUEGMAN,(714) 765‐4001,,2022/02/07 00:00:00+00,https://www.anaheim.net/613/Fire-Rescue,ORC,123488.363583757,131749574.080914
607,MONTEREY,27010,CHF,CARMEL HIGHLANDS FPD,2221 GARDEN ROAD,MONTEREY,93940,GEORGE NUNEZ,(831) 333‐4600,,2022/02/07 00:00:00+00,https://carmelhighlandsfire.org/,BEU,36500.0534206844,24123652.847256
608,MONTEREY,27905,CFC,CACHAGUA FPD,PO BOX 2090,CARMEL VALLEY,93924,GREGG I.CURRY,(831) 659‐3271,,2022/02/07 00:00:00+00,https://cachaguafire.com/,BEU,81741.3612013553,279838111.968073
609,MONTEREY,27900,BSF,BIG SUR FIRE,PO BOX 520,BIG SUR,93920,MATT HARRIS,(831) 667‐2113,,2022/02/07 00:00:00+00,https://www.bigsurfire.org/,BEU,232757.080164012,660859492.086827
610,MONTEREY,27005,ATC,AROMAS TRI COUNTY FPD,2221 GARDEN ROAD,MONTEREY,93940,DAVID FULCHER,(831) 333‐4600,,2022/02/07 00:00:00+00,https://atcfire.org/,BEU,44295.7866827413,44911927.939202
611,MONTEREY,27115,PEB,PEBBLE BEACH CSD,2221 GARDEN ROAD,MONTEREY,93940,GEORGE NUNEZ,(831) 333‐4600,,2022/02/07 00:00:00+00,https://pbcsd.org/,BEU,28793.0129506629,20950547.1512487
612,MONTEREY,27025,NCD,NORTH COUNTY FPD,11200 SPEEGLE ST,CASTROVILLE,95012,JOEL MENDOZA,(831) 633‐2578,,2022/02/07 00:00:00+00,https://www.ncfire.org/,BEU,111453.483084089,318480205.133773
613,MONTEREY,27024,CYP,CYPRESS FPD,2221 GARDEN RD,MONTEREY,93940,GEORGE NUNEZ,(831) 333‐4600,,2022/02/07 00:00:00+00,https://cypressfire.org/,BEU,49089.0019830907,29614845.7869906
614,MONTEREY,27155,SMY,SOUTH MONTEREY COUNTY FPD,2221 GARDEN RD,MONTEREY,93940,GEORGE NUNEZ,(831) 333‐4600,,2022/02/07 00:00:00+00,https://somocofpd.org/,BEU,389520.026688199,1640262881.63787
615,MONTEREY,27075,MCF,MONTEREY COUNTY REGIONAL FD,19900 PORTOLA DR,SALINAS,93908,DAVID SARGENTI,(831) 455‐1828,,2022/02/07 00:00:00+00,https://www.mcrfd.org/,BEU,312574.100078527,1034950441.59425
616,MONTEREY,27910,MCC,MID COAST FIRE BRIGADE,38000 PALO COLORADO ROAD,CARMEL,93923,CHERYL GOETZ,(831) 625‐8175,,2022/02/07 00:00:00+00,https://www.midcoastfirebrigade.org/,BEU,68676.0005734077,106194400.29171
619,ORANGE,30055,NPB,NEWPORT BEACH FD,100 CIVIC CENTER DR,NEWPORT BEACH,92660,JEFF BOYLES,(949) 644‐3104,,2022/02/08 00:00:00+00,https://www.newportbeachca.gov/government/departments/fire-department,ORC,66193.0358779837,67358532.0444273
620,ORANGE,30020,COS,COSTA MESA FD,PO BOX 1200,COSTA MESA,92628,DANIEL A. STEFANO,(714) 754‐5106,,2022/02/08 00:00:00+00,https://www.costamesaca.gov/city-hall/city-departments/fire-rescue,ORC,35537.4529287962,41041553.8945273
621,ORANGE,30040,HTB,HUNTINGTON BEACH FD,2000 MAIN ST,HUNTINGTON BEACH,92648,SCOTT M. HABERLE,(714) 536‐5411,,2022/02/08 00:00:00+00,https://www.huntingtonbeachca.gov/government/departments/fire/,ORC,63974.1729160214,68203903.9251759
623,MONTEREY,27055,MAR,MARINA FIRE DEPT,211 HILLCREST AVE,MARINA,93933,DOUG MCCOUN,(831) 884‐1213,,2022/02/08 00:00:00+00,https://cityofmarina.org/24/Fire-Department,BEU,30636.9577003271,23174630.3267747
624,MONTEREY,27080,SEA,SEASIDE FD,1635 BROADWAY AVE,SEASIDE,93955,BRIAN DEMPSEY,(831) 899‐6790,,2022/02/08 00:00:00+00,https://www.ci.seaside.ca.us/217/Fire-Department,BEU,22386.3302691861,23217222.6169548
625,MONTEREY,27050,KIN,KING CITY FD,422 BASSETT ST,KING CITY,93930,LONNIE SILVA,(831) 385‐3430,,2022/02/08 00:00:00+00,https://www.kingcity.com/city-departments/fire-department/,BEU,25314.9992595055,10138728.2287509
626,SAN BENITO,35555,BEU,CDF‐SAN BENITO COUNTY,2221 GARDEN RD,MONTEREY,93940,GEORGE NUNEZ,(831) 333‐2600,,2022/02/08 00:00:00+00,,BEU,443143.318137269,3544822350.90434
627,SAN BENITO,35015,SJB,SAN JUAN BAUTISTA/HOLLISTER FD,110 5TH ST,HOLLISTER,95023,BOB MARTIN DEL CAMPO,(831) 636‐4325,,2022/02/08 00:00:00+00,http://hollister.ca.gov/government/city-departments/fire/,BEU,78951.3826853066,23327341.7516823
628,ORANGE,30065,ORC,ORANGE COUNTY FIRE AUTHORITY,1 FIRE AUTHORITY ROAD,IRVINE,92602,BRIAN FENNESSY,(714) 573‐6000,,2022/02/09 00:00:00+00,https://ocfa.org/,ORC,523303.772316099,1519453613.40504
629,ORANGE,30010,BRE,BREA FD,1 CIVIC CENTER CIRCLE,BREA,92821,GEORGE AVERY,(714) 990‐7655,,2022/02/09 00:00:00+00,https://www.ci.brea.ca.us/291/Fire,ORC,48643.396763764,33382009.0939388
630,SAN BERNARDINO,36042,BFA,BIG BEAR FIRE AUTHORITY,PO BOX 10000,BIG BEAR LAKE,92315,JEFF WILLIS,(909) 866‐7566,,2022/02/09 00:00:00+00,https://bigbearfire.com/,BDU,92179.3544333788,94108879.6709764
631,RIVERSIDE,33016,CMS,CALIMESA FD,906 PARK AVENUE,CALIMESA,92320,TIM O'CONNELL,(909) 795‐9801,Riverside County Fire Department Dispatch Contract,2022/01/10 00:00:00+00,http://www.cityofcalimesa.net/,RRU,40586.9451376312,38546710.2455199
632,RIVERSIDE,33055,MUR,MURRIETA FIRE & RESCUE,41825 JUNIPER ST,MURRIETA,92562,BERNARD MALLOY,(951) 304‐3473,,2018/06/21 00:00:00+00,https://www.murrietaca.gov/154/Fire,RRU,57730.5874548595,87001754.493261
633,RIVERSIDE,33015,BLY,BLYTHE FD,201 N COMMERCIAL,BLYTHE,92225,CURTIS CRECELIUS,(760) 922‐6117,,2022/02/09 00:00:00+00, ,RRU,100919.706198473,70559053.0550121
634,RIVERSIDE,33018,CDR,CATHEDRAL CITY FD,32100 DESERT VISTA RD,CATHEDRAL CITY,92234,JOHN MUHR,(760) 770‐8200,,2022/02/09 00:00:00+00,https://www.cathedralcityfire.org/,RRU,60630.6973772464,59054102.9179272
635,RIVERSIDE,33025,COR,CORONA FD,735 PUBLIC SAFETY WAY,CORONA,92880,BRIAN YOUNG,(951) 736‐2220,,2022/02/09 00:00:00+00,https://www.coronaca.gov/government/departments-divisions/fire-department,RRU,110050.63476017,103370512.560644
636,RIVERSIDE,33040,HMT,HEMET FD,510 E. FLORIDA AVE,HEMET,92543,EDDIE SELL,(951) 765‐2450,,2022/02/09 00:00:00+00,https://www.hemetca.gov/90/Fire,RRU,72253.9695830973,75787495.7447161
637,RIVERSIDE,33045,IDL,IDYLLWILD FPD,PO BOX 656,IDYLLWILD,92549,MARK LAMONT,(951) 659‐2153,Riverside County Fire Department Dispatch Contract,2022/02/09 00:00:00+00,https://idyllwildfire.com/index.html,RRU,23103.0149415826,13242086.6986892
638,RIVERSIDE,33053,MRF,MORONGO RESERVATION FD,11581 POTRERO RD,BANNING,92220,JASON CARRIZOSA,(951) 755-5233,Riverside County Fire Department Dispatch Contract,2022/02/09 00:00:00+00,https://morongonation.org/fire-department/,RRU,22558.0435388179,9645348.20769504
639,RIVERSIDE,33065,PSP,PALM SPRINGS FD,300 N EL CIELO RD,PALM SPRINGS,92262,J. KEVIN NALDER,(760) 323‐8181,,2022/02/09 00:00:00+00,https://www.palmspringsca.gov/government/departments/fire-department,RRU,146291.599644726,244697890.120522
640,RIVERSIDE,33067,PFD,PECHANGA FD,48240 PECHANGA RD,TEMECULA,92592,JASON KEELING,(951) 770‐6001,Riverside County Fire Department Dispatch Contract,2022/02/09 00:00:00+00,https://www.pechanga-nsn.gov/index.php/tribal-government/services/pechanga-fire-department,RRU,26342.2050988911,18224151.6415774
641,RIVERSIDE,33075,RIV,CITY OF RIVERSIDE FD,3401 UNIVERSITY AVE,RIVERSIDE,92501,MICHAEL MOORE,(951) 826‐5321,,2022/02/09 00:00:00+00,https://www.riversideca.gov/fire/,RRU,104772.009942527,211180263.512161
642,RIVERSIDE,33017,CYN,CANYON LAKE FD,31516 RAILROAD CANYON ROAD,CANYON LAKE,92587,JEFF LATENDRESSE,(909) 261‐4010,Riverside County Fire Department Dispatch Contract,2022/02/09 00:00:00+00,https://www.canyonlakeca.gov,RRU,19515.1834339899,11972396.567456
643,RIVERSIDE,33088,SBA,SOBOBA FD,23121 SOBOBA RD,SAN JACINTO,92583,GLENN PATTERSON,(951) 654‐1092,Riverside County Fire Department Dispatch Contract,2022/02/09 00:00:00+00,https://www.soboba-nsn.gov,RRU,41584.0452468337,31409567.0715799
644,RIVERSIDE,33090,RVC,RIVERSIDE CO FD,210 W SAN JACINTO AVE,PERRIS,92570,BILL WEISER,(909) 940‐6900,Riverside County Fire Department Including All of It's Contract Fire Departments,2022/02/09 00:00:00+00,https://www.rvcfire.org/,RRU,1504584.44698597,17913137434.0445
645,RIVERSIDE,33830,MAB,MARCH AIR RESERVE BASE FD,,,,,,Military Base,2022/02/09 00:00:00+00,,RRU,17084.6216975575,8278773.66804998
646,TEHAMA,52005,CNG,CORNING VFD,814 5TH ST,CORNING,96021,TOM TOMLINSON,(916) 824‐7044,,2022/02/09 00:00:00+00,https://www.corning.org/departments/fire-department/,TGU,25875.0355198354,8589644.61041478
647,SANTA BARBARA,42010,GUA,GUADALUPE FD,918 OBISPO ST,GUADALUPE,93434,MICHAEL CASH,(805) 356‐3905,,2022/02/10 00:00:00+00,https://ci.guadalupe.ca.us/fire/,SBC,14598.4705833546,3446182.7686016
648,SHASTA,45020,BUF,BURNEY FPD,37072 MAIN ST,BURNEY,96013,MONTE B. KEADY,(530) 335‐2212,,2020/10/08 00:00:00+00,https://www.burneyfire.org/,SHU,52597.6485468097,71585799.3584893
649,SHASTA,45095,SHC,SHASTA COLLEGE FD,11555 OLD OREGON TRAIL,REDDING,96049,SEAN O'HARA,(530) 225‐4624,,2020/10/08 00:00:00+00,,SHU,4749.03700095033,1371193.15877804
650,SHASTA,45080,WMG,MOUNTAIN GATE VFD,14508 WONDERLAND BLVD,REDDING,96003,MIKE RICKETTS,(530) 275‐3003,,2020/10/08 00:00:00+00,https://www.mountaingatecsd.com/fire-department-530-275-3003,SHU,32202.1793041754,15935779.1660554
651,SHASTA,45030,SLF,SHASTA LAKE FPD,4126 ASHBY CT,SHASTA LAKE,96019,DENNIS J. BECK,(530) 275‐7474,,2020/10/08 00:00:00+00,https://www.shastalakefpd.us/,SHU,32519.737023574,30982163.0408503
652,SHASTA,45055,RDN,REDDING FD,PO BOX 496071,REDDING,96049,JERROD VANLANDINGHAM,(530) 225‐4141,,2020/10/08 00:00:00+00,https://www.cityofredding.org/departments/fire-department,SHU,143390.77976216,156333380.685767
653,SHASTA,45085,SHA,SHASTA FPD,10644 HIGH ST,SHASTA,96087,ERIC OHDE,(530) 241‐4615,,2020/10/08 00:00:00+00,,SHU,31316.045771543,24177188.7630145
654,SHASTA,,,BUCKEYE FPD,,,,,,,2020/10/08 00:00:00+00,,SHU,20474.6207076656,7219950.6773361
655,SHASTA,45015,HVF,HAPPY VALLEY FPD,17441 PALM AVE,ANDERSON,96007,JOE VASQUEZ,(530) 357‐2345,,2020/10/08 00:00:00+00,,SHU,56224.1476037129,81277619.082033
656,SHASTA,45935,MVL,MILLVILLE FPD,PO BOX 32,MILLVILLE,96062,THOMAS GRAHAM,(530) 547‐5521,,2020/10/08 00:00:00+00,https://www.millvillefire.org/,SHU,84221.5880832906,245213514.860112
659,SHASTA,45025,CPD,CASTELLA FD,PO BOX 130,CASTELLA,96017,DAN PADILLA,(530) 235‐4581,,2020/10/08 00:00:00+00,,SHU,120794.08633841,479230482.776559
660,SHASTA,45035,COT,COTTONWOOD FPD,P.O. BOX 618,COTTONWOOD,96022,BILL MORGAN,(530) 347‐4737,,2020/10/08 00:00:00+00,https://cottonwoodfd.com/,SHU,64556.2757527521,98145437.7289634
661,SHASTA,45010,AFD,ANDERSON FPD,1925 HOWARD ST,ANDERSON,96007,STEVE LOWE,(530) 378‐6699,,2020/10/08 00:00:00+00,https://andersonfire.org/,SHU,32352.5812993099,21003551.3638294
662,SANTA BARBARA,42040,SMR,SANTA MARIA FD,314 WEST COOK ST #8,SANTA MARIA,93458,TODD TUGGLE,(805) 925‐0951,,2022/02/14 00:00:00+00,https://www.cityofsantamaria.org/city-government/departments/fire-services,SBC,71542.884889595,60752624.7373429
663,FRESNO,10055,BLD,BALD MOUNTAIN VFD,41967 AUBERRY RD,AUBERRY,93602,CAM DONNAHOO,(559) 855‐8443,,2022/02/14 00:00:00+00,,FKU,28991.8336395368,36333792.4752477
664,FRESNO,10010,CLG,COALINGA FD,300 W ELM AVE,COALINGA,93210,GREG DUPUIS,(559) 935‐1652,,2022/02/14 00:00:00+00,https://www.coalinga.com/213/Fire,FKU,45967.8343843918,16760881.5406431
665,FRESNO,10020,FRB,FIREBAUGH CITY FD,1575 11TH ST,FIREBAUGH,93622,JOHN BORBOA,(559) 659‐2061,,2022/02/14 00:00:00+00,https://firebaugh.org/firebaugh-fire-department/,FKU,26244.9365419373,9460404.95106171
666,FRESNO,10090,SAN,SANGER FD,1700 7TH ST,SANGER,93657,GREG TARASCOU,(559) 875‐6568,,2022/02/14 00:00:00+00,https://www.ci.sanger.ca.us/171/Fire-Department,FKU,24593.0951981448,14764666.2087086
667,FRESNO,10095,SLM,SELMA FD,1711 TUCKER STREET,SELMA,93662,ROBERT PETERSEN,(559) 891‐2211,,2022/02/14 00:00:00+00,https://www.cityofselma.com/departments/fire/index.php,FKU,26704.0245718804,13288113.8560602
668,FRESNO,10040,NCN,NORTH CENTRAL FPD,15850 W. KEARNEY BLVD.,KERMAN,93630,TIMOTHY V. HENRY,(559) 878‐4530,,2022/02/14 00:00:00+00,https://www.northcentralfire.org/,FKU,188219.27894403,543785889.772629
670,FRESNO,10080,REE,REEDLEY FD,1060 D ST,REEDLEY,93654,JERRY ISAAK,(559) 637‐4230,,2022/02/14 00:00:00+00,https://reedley.ca.gov/fire-department/,FKU,33559.2607165412,13194445.8003677
671,FRESNO,10045,KNG,KINGSBURG FD,PO BOX 2,KINGSBURG,93631,DANIEL C. PERKINS,(559) 897‐5457,,2022/02/14 00:00:00+00,https://www.cityofkingsburg-ca.gov/162/Fire-Department,FKU,21034.9597688891,7333203.43519229
672,FRESNO,10050,LAT,LATON VFD,PO BOX 447,LATON,93242,SETH DEWEY,(559) 381‐1063,,2022/02/14 00:00:00+00,,FKU,6081.99504289611,1982557.13366413
673,FRESNO,10005,CLV,CLOVIS FD,1233 FIFTH STREET,CLOVIS,93612,JOHN BINASKI,(559) 324‐2200,,2022/02/14 00:00:00+00,https://cityofclovis.com/fire/,FKU,76820.0875537774,66654746.5562649
674,FRESNO,10555,FKU,CDF‐FRESNO COUNTY,210 S ACADEMY AVE,SANGER,93657,DUSTIN HAIL,(559) 485‐7500,,2022/02/14 00:00:00+00,https://www.fresnocountyfire.org/,FKU,1076199.07180014,6550600334.48567
675,ORANGE,30045,LAB,LAGUNA BEACH FD,505 FOREST AVE,LAGUNA BEACH,92651,NIKO KING,(949) 497‐0784,,2022/02/14 00:00:00+00,https://www.lagunabeachcity.net/government/departments/fire,ORC,42528.825096903,25874183.2045867
676,SANTA BARBARA,42025,STB,SANTA BARBARA CITY FD,925 CHAPALA ST,SANTA BARBARA,93101,CHRIS MAILES,(805) 965‐5254,,2022/02/14 00:00:00+00,https://www.santabarbaraca.gov/gov/depts/fire/default.asp,SBC,81431.3484237009,50565869.7698125
677,ORANGE,30070,PLA,PLACENTIA FLS,401 E CHAPMAN AVE,PLACENTIA,92870,JASON DOBINE,(714) 854‐9827,,2022/02/14 00:00:00+00,https://www.placentia.org/24/Fire,ORC,34359.2801668134,17456744.2496276
678,SANTA BARBARA,42015,LMP,LOMPOC FD,115 SOUTH G ST,LOMPOC,93436,BRIAN FALLON,(805) 736‐4513,,2022/02/14 00:00:00+00,https://www.cityoflompoc.com/government/departments/fire-services,SBC,38950.29118448,30259206.0640278
679,ORANGE,30060,ORG,ORANGE FD,176 S GRAND ST,ORANGE,92866,SEAN DEMETROPOLIS,(714) 288‐2501,,2022/02/15 00:00:00+00,https://www.cityoforange.org/our-city/departments/fire,ORC,102802.952896363,67575948.1028624
681,SISKIYOU,47045,BTE,BUTTE VALLEY FPD,P.O. BOX 103,MACDOEL,96058,DANNY VANDERBOEGH,(530) 398‐4332,,2022/02/22 00:00:00+00,https://buttevalleyfire.org/,SKU,76065.5205449768,155002428.294061
682,SISKIYOU,47054,COC,COPCO LAKE FPD,27805 COPCO RD,MONTAGUE,96064,HERMAN SPANNAUS,(530) 459‐3411,,2022/02/22 00:00:00+00,,SKU,54949.1358082759,21160993.807194
683,SISKIYOU,47010,DUN,DUNSMUIR FD,5915 DUNSMUIR AVE,DUNSMUIR,96025,DAN PADILLA,(530) 235‐2551,,2022/02/22 00:00:00+00,http://www.ci.dunsmuir.ca.us/fire-department,SKU,30497.1532417773,19570589.4882801
684,SISKIYOU,47030,GAZ,GAZELLE FD,PO BOX 2,GAZELLE,96034,JIM MCDONALD,(530) 435‐2331,,2022/02/22 00:00:00+00,,SKU,61513.4050046484,220832060.452028
685,SISKIYOU,47095,GND,GRENADA FPD,PO BOX 214,GRENADA,96038,BILL HAARS,(530) 436‐2381,,2022/02/22 00:00:00+00,,SKU,30611.5326777787,38839087.3623071
686,SISKIYOU,47035,HAP,HAPPY CAMP FPD,PO BOX 596,HAPPY CAMP,96039,ROBERT SEAMAN,(530) 493‐2643,,2022/02/22 00:00:00+00,,SKU,23149.6468977563,14697491.2309694
687,SISKIYOU,47040,HOR,HORNBROOK FPD,PO BOX 48,HORNBROOK,96044,FRANK BUTTAM,(530) 475‐3582,,2022/02/22 00:00:00+00,https://www.hornbrookfireprotectiondistrict.com/,SKU,19111.0978125763,15346732.0752138
688,SISKIYOU,47048,MTN,MAYTEN FIRE DISTRICT,7427 HWY A 12,MONTAGUE,96064,DICK SOLUS,(530) 459‐3296,,2022/02/22 00:00:00+00,,SKU,53244.0033310562,152386275.103004
689,SISKIYOU,47065,MSH,MT SHASTA FPD,600 MICHELLE DRIVE,MT SHASTA,96067,RICK JOYCE,(530) 926‐0702,,2022/02/22 00:00:00+00,http://www.mshfiredistrict.us/,SKU,65843.980510801,40757288.4810245
690,SISKIYOU,47120,SVF,SCOTT VALLEY FPD,PO BOX 130,GREENVIEW,96037,BEN AUSTIN,(530) 468‐2170,,2022/02/22 00:00:00+00,https://www.scottvalleyfire.com/,SKU,369050.438724177,546657653.528379
691,SISKIYOU,47115,SYR,SOUTH YREKA FPD,3420 EASY ST,YREKA,96097,BERNIE PAUL,(530) 842‐1477,,2022/02/22 00:00:00+00,,SKU,55300.3375624831,20117299.1759125
692,SISKIYOU,47005,DOR,DORRIS VFD,PO BOX 768,DORRIS,96023,WAYNE FROST,(530) 397‐2121,,2022/02/22 00:00:00+00,https://www.dorrisca.us/departments/fire-department/,SKU,7803.74717914567,1894574.7084545
693,SISKIYOU,47020,ETN,ETNA FD,PO BOX 360,ETNA,96027,LARRY HICKS,(530) 467‐5256,,2022/02/22 00:00:00+00,https://www.etnaca.com/fire,SKU,8462.65304148673,1947501.21745962
694,SISKIYOU,47025,FTJ,FORT JONES FD,PO BOX 597,FORT JONES,96032,JOSEPH HESS,(530) 468‐2261,,2022/02/22 00:00:00+00,https://www.fortjonesfire.org/,SKU,10482.9070160775,1605137.11936009
695,SISKIYOU,47055,MTF,MONTAGUE FPD,PO BOX 281,MONTAGUE,96064,ROGER MARTIN,(530) 459‐5343,,2022/02/22 00:00:00+00,https://cityofmontagueca.com/fire-department-2,SKU,94561.5236260371,218082840.916949
696,SISKIYOU,47060,MTS,MT SHASTA CITY FD,305 N MT SHASTA BLVD,MT SHASTA,96067,MATT MELO,(530) 926‐7546,,2022/02/22 00:00:00+00,https://mtshastaca.gov/fire/,SKU,26940.0144310591,9373273.76607661
697,SISKIYOU,47080,WED,WEED VFD,PO BOX 470,WEED,96094,STEVE DUNCAN,(530) 938‐5030,,2022/02/22 00:00:00+00,https://ci.weed.ca.us/fire,SKU,27127.8247254433,12471872.7130477
698,SISKIYOU,47085,YRE,YREKA VFD,P.O. BOX 1726,YREKA,96097,BJ LAUSTALOT,(530) 841‐2383,,2022/02/22 00:00:00+00,,SKU,48256.9611316665,26045059.2227584
699,SISKIYOU,,,SALMON RIVER,,,,,,,2022/02/22 00:00:00+00,,SKU,248028.637264388,423670979.140096
700,SISKIYOU,47043,,KLAMATH RIVER HC,30330 WALKER RD,KLAMATH RIVER,96050,JANET JONES,(530) 526‐2568,,2022/02/22 00:00:00+00,,SKU,151517.833617528,246646734.514797
701,SISKIYOU,,,HILT,,,,,,,2022/02/22 00:00:00+00,,SKU,41829.9786770086,62580762.885121
702,SISKIYOU,47070,SEI,SEIAD VALLEY FIRE CO,PO BOX 504,SEIAD VALLEY,96086,RICK JONES,(530) 496‐3512,,2022/02/22 00:00:00+00,,SKU,59187.2866872132,41157278.7228243
703,SISKIYOU,47100,PVF,PLEASANT VALLEY FC,2543 DURHAM RD,DORRIS,96023,MICHAEL DAY,(530) 397‐2244,,2022/02/22 00:00:00+00,,SKU,28315.7994861138,33559350.3235024
704,SISKIYOU,47038,HMM,HAMMOND RANCH FIRE,8800 N. OLD STAGE RD.,WEED,96094,MARK G. DIBELKA,(530) 938‐4200,,2022/02/22 00:00:00+00,,SKU,49606.4658425181,75474618.6385301
705,SISKIYOU,47067,MSV,MOUNT SHASTA VISTA FC,13502 ROLAND DR,MONTAGUE,96064,JOHN CARLETON,,,2022/02/22 00:00:00+00,,SKU,89541.4265049727,77933901.2815225
706,SISKIYOU,,,MCCLOUD FIRE ZONE,,,,,,,2022/02/22 00:00:00+00,,SKU,93884.3675117341,308706822.622849
707,SISKIYOU,47910,LST,LAKE SHASTINA FD,16309 EVERHART DR,WEED,96094,STEVEN PAPPAS,(530) 938‐3161,,2022/02/22 00:00:00+00,https://lakeshastinafire.com/,SKU,38827.6428141804,10041305.8201631
708,SISKIYOU,47050,MCU,MCCLOUD FD,P.O. BOX 640,MCCLOUD,96057,DARRELL MILLER,(530) 964‐2017,,2022/02/22 00:00:00+00,,SKU,16987.7513955265,6963940.74165561
709,GLENN,11555,TGU,CDF‐GLENN COUNTY,604 ANTELOPE BLVD,RED BLUFF,96080,BOB FARIAS,(530) 529‐8548,Mutual aid agreements with California Department of Foresry and Fire Protection (CAL FIRE). CAL FIRE handles wildland fires in the State Responsibility Area.,2022/02/28 00:00:00+00,,TGU,282864.330206786,189438346.520688
710,GLENN,,,CAPAY VFD,810 FIFTH STREET,ORLAND,95963,,,Mutual aid agreements with California Department of Foresry and Fire Protection (CAL FIRE). CAL FIRE handles wildland fires in the State Responsibility Area.,2022/02/28 00:00:00+00,,TGU,24345.0742507649,26242408.0799296
711,GLENN,11035,ORD,ORD BEND FPD,RT 1 BOX 259,GLENN,95943,RONALD KEYAWA,(530) 826‐3345,Mutual aid agreements with California Department of Foresry and Fire Protection (CAL FIRE). CAL FIRE handles wildland fires in the State Responsibility Area.,2022/02/28 00:00:00+00,,TGU,42699.0765154791,36991146.6057986
712,GLENN,,,HAMILTON-BAYLISS,,,,,,Mutual aid agreements with California Department of Foresry and Fire Protection (CAL FIRE). CAL FIRE handles wildland fires in the State Responsibility Area.,2022/02/28 00:00:00+00,,TGU,57512.3743976694,65605966.7649686
713,GLENN,11025,GCF,GLENN‐CODORA FPD,PO BOX 165,GLENN,95943,MATTHEW LIMA,(530) 330‐6176,Mutual aid agreements with California Department of Foresry and Fire Protection (CAL FIRE). CAL FIRE handles wildland fires in the State Responsibility Area.,2022/02/28 00:00:00+00,,TGU,58762.7550008172,98475986.2575903
714,GLENN,,,GLENN-COLUSA,,,,,,Mutual aid agreements with California Department of Foresry and Fire Protection (CAL FIRE). CAL FIRE handles wildland fires in the State Responsibility Area.,2022/02/28 00:00:00+00,,TGU,62195.1360144047,178040842.076539
715,GLENN,11065,WLO,WILLOWS RURAL FPD,445 S BUTTE ST,WILLOWS,95988,ALEX PARISIO,(530) 934‐3323,Mutual aid agreements with California Department of Foresry and Fire Protection (CAL FIRE). CAL FIRE handles wildland fires in the State Responsibility Area.,2022/02/28 00:00:00+00,https://www.willowsruralfire.org/,TGU,94863.1534707314,204974983.861524
716,GLENN,11020,ELK,ELK CREEK FPD,PO BOX 112,ELK CREEK,95939,CRAIG DADO,(530) 968‐5306,Mutual aid agreements with California Department of Foresry and Fire Protection (CAL FIRE). CAL FIRE handles wildland fires in the State Responsibility Area.,2022/02/28 00:00:00+00,,TGU,97389.9405452954,370237927.616535
717,GLENN,,,BEAR VALLEY-INDIAN VALLEY,,,,,,Mutual aid agreements with California Department of Foresry and Fire Protection (CAL FIRE). CAL FIRE handles wildland fires in the State Responsibility Area.,2022/02/28 00:00:00+00,,TGU,53018.8546321486,145275372.105388
718,GLENN,11060,HAM,HAMILTON CITY FD,PO BOX 928,HAMILTON CITY,95951,DAN JAMES,(530) 826‐3355,Mutual aid agreements with California Department of Foresry and Fire Protection (CAL FIRE). CAL FIRE handles wildland fires in the State Responsibility Area.,2022/02/28 00:00:00+00,,TGU,51926.5790927858,97556638.929377
719,GLENN,11040,ORL,ORLAND FPD,810 FIFTH ST,ORLAND,95963,JUSTIN CHANEY,(530) 865‐1625,Mutual aid agreements with California Department of Foresry and Fire Protection (CAL FIRE). CAL FIRE handles wildland fires in the State Responsibility Area.,2022/02/28 00:00:00+00,https://www.orlandfire.org/,TGU,100191.793974594,334600678.172476
720,GLENN,11005,ART,ARTOIS FPD,PO BOX 158,ARTOIS,95913,RODNEY POZZI,(530) 934‐5351,Mutual aid agreements with California Department of Foresry and Fire Protection (CAL FIRE). CAL FIRE handles wildland fires in the State Responsibility Area.,2022/02/28 00:00:00+00,,TGU,84267.1762082558,276154108.849208
721,GLENN,11055,KAN,KANAWHA FPD,1709 COUNTY ROAD D,WILLOWS,95988,ROGER STEINHOFF,(530) 934‐2672,Mutual aid agreements with California Department of Foresry and Fire Protection (CAL FIRE). CAL FIRE handles wildland fires in the State Responsibility Area.,2022/02/28 00:00:00+00,,TGU,125759.205729413,500085046.740713
722,TEHAMA,52020,RBU,RED BLUFF FD,555 WASHINGTON ST,RED BLUFF,96080,MICHAEL BACHMEYER,(530) 527‐1126,,2022/02/28 00:00:00+00,http://www.rbfd.org/,TGU,56081.8560984311,19899729.3482465
723,ORANGE,30030,FUL,FULLERTON FD,312 E COMMONWEALTH AVE,FULLERTON,92832,ADAM LOESER,(714) 738‐6500,,2022/03/09 00:00:00+00,https://www.cityoffullerton.com/government/departments/fire?locale=en,ORC,50426.670115393,58136355.8113335
724,ORANGE,30025,FVY,FOUNTAIN VALLEY FD,10200 SLATER AVE,FOUNTAIN VALLEY,92708,RON COOKSTON,(714) 593‐4436,,2022/03/09 00:00:00+00,https://www.fountainvalley.org/240/Fire-Department,ORC,21865.8128552573,23478685.1212041
726,HUMBOLDT,12120,TRN,TRINIDAD VFD,PO BOX 390,TRINIDAD,95570,TOM MARQUETTE,(707) 677‐0224,,2022/03/14 00:00:00+00,https://trinidad.ca.gov/volunteer-fire-department-0,HUU,8177.45827656757,1672647.42891805
727,HUMBOLDT,12045,HUM,HUMBOLDT BAY FIRE JPA,533 C STREET,EUREKA,95501,SEAN ROBERTSON,(707) 441‐4000,,2022/03/14 00:00:00+00,https://www.hbfire.org/,HUU,72024.0956341828,130760938.598993
728,HUMBOLDT,12090,PET,PETROLIA VFD,PO BOX 169,PETROLIA,95558,TRAVIS HOWE,(707) 629‐3558,,2022/03/14 00:00:00+00,https://www.petroliafire.org/,HUU,50224.9682454075,29492406.186794
729,HUMBOLDT,12100,RIO,RIO DELL FPD,50 W CENTER ST,RIO DELL,95562,SHANE WILSON,(707) 764‐3329,,2022/03/14 00:00:00+00,https://cityofriodell.ca.gov/rio-dell-volunteer-fire-department,HUU,120420.705953472,60423058.9398235
730,HUMBOLDT,12060,FRT,FORTUNA FPD,320 S FORTUNA BLVD,FORTUNA,95540,RUS BROWN,(707) 725‐5021,,2022/03/14 00:00:00+00,https://fortunafire.com/,HUU,60095.8020007888,75761849.5919551
731,HUMBOLDT,12075,LOL,LOLETA FPD,PO BOX 766,LOLETA,95551,JEFF ROBISON,(707) 733‐5407,,2022/03/14 00:00:00+00,,HUU,58422.0964196915,124256838.103336
732,HUMBOLDT,12055,FEN,FERNDALE FPD,PO BOX 485,FERNDALE,95536,DANIEL DEL BIAGGIO,(707) 786‐9909,,2022/03/14 00:00:00+00,https://www.ferndalefire.org/,HUU,53436.9444867496,117610851.791666
733,HUMBOLDT,12035,CAR,CARLOTTA CSD,PO BOX 33,CARLOTTA,95528,JOHN CHURCH,(707) 768‐1714,,2022/03/14 00:00:00+00,,HUU,35355.8162816243,8478626.53748559
734,HUMBOLDT,,,RUTH LAKE CSD,,,,,,,2022/03/14 00:00:00+00,https://www.ruthlakecsd.org/,HUU,39393.5421260046,70893112.6525787
735,HUMBOLDT,12135,WCR,WILLOW CREEK VPD,PO BOX 51,WILLOW CREEK,95573,SAMANTHA SMITH,(530) 629‐2229,,2022/03/14 00:00:00+00,,HUU,35327.1488518306,16901070.6571118
736,HUMBOLDT,12085,ORK,ORICK VFD,101 SWAN RD,ORICK,95555,JAMES SIMMONS,(707) 834‐6162,,2022/03/14 00:00:00+00,,HUU,14968.3516170859,7324571.98880428
737,HUMBOLDT,12190,,HUMBOLDT CSA #4,923 PATRICKS POINT DRIVE,TRINIDAD,95570,KURT MCCRAY,(707) 726‐1209,,2022/03/14 00:00:00+00,,HUU,101555.772674649,73728283.6079401
738,HUMBOLDT,12140,ARF,ARCATA FPD,2149 CENTRAL AVE,MCKINLEYVILLE,95519,JUSTIN MCDONALD,(707) 825‐2000,,2022/03/14 00:00:00+00,https://www.arcatafire.org/,HUU,82290.8149119391,159031706.576017
739,HUMBOLDT,12020,FBR,FIELDBROOK FD,4584 FIELDBROOK RD,FIELDBROOK,95519,CHRIS APPLETON,(707) 839‐0937,,2022/03/14 00:00:00+00,https://fieldbrookglendalecsd.specialdistrict.org/fieldbrook-volunteer-fire-department,HUU,32206.832701279,37587695.834316
740,HUMBOLDT,12145,MIR,MIRANDA VFD,PO BOX 160,MIRANDA,95553,ROBERT RICHARDSON,(707) 223‐3246,,2022/03/14 00:00:00+00,,HUU,4978.14993823995,1269501.15926326
741,HUMBOLDT,12080,MYR,MYERS FLAT FPD,PO BOX 131,MYERS FLAT,95554,TOM MULDER,(707) 350‐3813,,2022/03/14 00:00:00+00,,HUU,6176.08157428328,1822350.59918394
742,HUMBOLDT,12130,WHT,WHITETHORN VFD,PO BOX 485,WHITETHORN,95589,ROBERT PUNO,(707) 986‐7561,,2022/03/14 00:00:00+00,,HUU,33219.0191197663,12091801.1415891
743,HUMBOLDT,12165,SHE,SHELTER COVE FD,9126 SHELTER COVE RD,WHITETHORN,95589,SAL GURRERI,(707) 986‐7507,,2022/03/14 00:00:00+00,http://sheltercove-ca.gov/fire/fire.htm,HUU,20323.192893852,11012619.8996521
744,SUTTER,51025,SBF,SUTTER BASIN FPD,PO BOX 134,ROBBINS,95676,MARTY CREEL,(530) 307‐0576,,2022/07/12 00:00:00+00,https://www.sutterbasinfireprotectiondistrict.com/,NEU,109981.544240371,328406225.88176
745,SUTTER,51015,MDN,MERIDIAN FD,PO BOX 298,MERIDIAN,95957,JASON COOPER,(530) 696‐2306,,2022/07/12 00:00:00+00,,NEU,92194.6586768926,236253964.47933
746,MONTEREY,27080,SEA,SEASIDE FD,1635 BROADWAY AVE,SEASIDE,93955,BRIAN DEMPSEY,(831) 899‐6790,,2022/06/16 00:00:00+00,https://www.delreyoaks.org/fire,BEU,12384.9293687891,2801629.92310345
747,YOLO,57090,YOL,YOLO FPD,PO BOX 466,YOLO,95697,DANIEL F TAFOYA JR.,(530) 662‐0566,,2019/12/12 00:00:00+00,https://www.yolofpd.org/,LNU,70533.3053211733,135604845.630645
748,YOLO,57095,ZAM,ZAMORA FPD,PO BOX 143,ZAMORA,95698,CHASE COVINGTON,(530) 662‐8892,,2019/12/12 00:00:00+00,https://zamorafire.specialdistrict.org/,LNU,60671.7886657897,136528513.66758
749,YOLO,57020,CBF,CLARKSBURG FD,PO BOX 513,CLARKSBURG,95612,JOHN AZEVEDO,(916) 744‐1700,,2019/12/12 00:00:00+00,https://clarksburgfire.specialdistrict.org/,LNU,56616.6546405706,140288736.325214
750,YOLO,57010,PAY,CAPAY VALLEY FPD,PO BOX 6,BROOKS,95606,DANNY GARRISON,(530) 796‐3300,,2019/12/12 00:00:00+00,https://cvfpd.specialdistrict.org/,LNU,111767.133392583,446620305.075279
751,YOLO,57040,DNN,DUNNIGAN FPD,PO BOX 213,DUNNIGAN,95937,DAVID M GARRISON,(530) 724‐3515,,2019/12/12 00:00:00+00,https://dunniganfire.com/,LNU,105724.015763932,284747438.736328
752,YOLO,57085,WOF,WILLOW OAK FPD,18111 COUNTY ROAD 94B,WOODLAND,95695,MARCUS KLINKHAMMER,(530) 662‐0781,,2019/12/12 00:00:00+00,http://www.willowoakfire.com/,LNU,46357.2312434528,87147128.4112762
753,YOLO,57055,MDS,MADISON FPD,PO BOX 12,MADISON,95653,PAUL GREEN,(530) 662‐5745,,2019/12/12 00:00:00+00,https://www.madison-fire.com/,LNU,85945.1599780636,171303261.100189
754,YOLO,57050,KNI,KNIGHTS LANDING VFD,PO BOX 578,KNIGHTS LANDING,95645,JEFF GILBERT,(530) 735‐6409,,2019/12/12 00:00:00+00,https://knightslandingfire.specialdistrict.org/,LNU,84864.6035137051,95853387.8168296
755,YOLO,57060,EHF,ELKHORN VFD,19396 COUNTY RD 124,WEST SACRAMENTO,95691,RICHARD YEUNG,(530) 371‐4541,,2019/12/12 00:00:00+00,,LNU,74790.4406457031,124289467.176515
756,YOLO,,,NO MANS LAND FPD,,,,,,"From Yolo LAFCo: Fire prevention and emergency medical services. Contracted through
 the City of Davis. ",2019/12/12 00:00:00+00,,LNU,56864.966652877,144232895.722735
757,YOLO,57025,DVS,CITY OF DAVIS FIRE DEPARTMENT,530 FIFTH ST,DAVIS,95616,DARYL C. ARBUTHNOTT,(530) 757‐5684,,2019/12/12 00:00:00+00,https://www.cityofdavis.org/city-hall/fire-department,LNU,33976.4691951842,26065085.9738263
758,YOLO,,,EAST DAVIS FPD,,,,,,From Yolo LAFCo: City of Davis provides service through contract,2019/12/12 00:00:00+00,https://eastdaviscfpd.wordpress.com/,LNU,63639.8140748584,117946546.208496
759,YOLO,57035,WPL,WEST PLAINFIELD FPD,24901 COUNTY RD 95,DAVIS,95616,CHERIE RITA,(530) 756‐0212,,2019/12/12 00:00:00+00,https://www.wpfd.net/,LNU,40854.4325693152,85884881.8497201
760,YOLO,57045,ESP,ESPARTO FPD,PO BOX 366,ESPARTO,95627,CURTIS LAWRENCE,(530) 787‐3300,,2019/12/12 00:00:00+00,https://www.espartofire.org/,LNU,80205.2554786286,194928185.259209
761,YOLO,57075,WDL,WOODLAND FD,1000 LINCOLN AVE,WOODLAND,95695,ERIC ZANE,(530) 661‐5860,,2019/12/12 00:00:00+00,https://www.cityofwoodland.org/192/Woodland-Fire-Department,LNU,47981.2282387332,41008119.2501434
762,YOLO,,,WINTERS FPD,,,,,,,2019/12/12 00:00:00+00,,LNU,81212.4878345833,204499511.312836
763,YOLO,57070,WFD,WINTERS FD,700 MAIN ST,WINTERS,95694,MATTHEW SCHECHLA,(530) 795‐4131,,2019/12/12 00:00:00+00,http://www.wintersfire.org/,LNU,19113.9148472597,6585119.38416317
764,YOLO,,,CSA #9 FPD,,,,,,"From Yolo LAFCo: CSA 9 exists as a “paper” district for tax purposes only. All services are contracted out
to various providers in the area.",2019/12/12 00:00:00+00,,LNU,13276.243073784,9960089.49742223
765,YOLO,57065,EYO,WEST SACRAMENTO FD,2040 LAKE WASHINGTON BLVD,WEST SACRAMENTO,95691,STEVE BINNS,(916) 617‐4600,,2019/12/12 00:00:00+00,https://www.cityofwestsacramento.org/government/departments/fire,LNU,36294.892607852,59585446.0407979
766,YOLO,,,SPRINGLAKE FPD,,,,,,From Springlake FPD Website: The Springlake Fire Protection District has agreements with City of Woodland Fire Department and the City of Davis Fire Department to provide fire protection services throughout the District.,2019/12/12 00:00:00+00,https://www.springlakefpd.org/,LNU,121231.244412987,132057736.190736
767,TRINITY,53568,,COFFEE CREEK VOLUNTEER FD,RT 2 BOX 3951,TRINITY CENTER,96091,RAY VASCONCELLOS,(530) 266‐3955,,2022/08/03 00:00:00+00,https://northtrinitylake.com/services/CCFPD.shtml,SHU,269190.319530456,320585026.670884
768,TRINITY,53001,DOU,DOUGLAS CITY VFD,PO BOX 10,DOUGLAS CITY,96024,JOHN HOLLAND,(530) 623‐3710,,2022/08/03 00:00:00+00,,SHU,75954.2041847609,57088137.1450043
769,TRINITY,53005,HYF,HAYFORK FD,PO BOX 613,HAYFORK,96041,DAVID LOEFFLER,(530) 628‐5126,,2022/08/03 00:00:00+00,http://www.hayforkfire.org/,SHU,103720.723127358,119940233.165958
770,TRINITY,53008,HYM,HYAMPOM FD,PO BOX 39,HYAMPOM,96046,MIKE BENTHIEN,(530) 628‐5755,,2022/08/03 00:00:00+00,,SHU,123037.840838015,551259797.184032
771,TRINITY,,,JUNCTION CITY FIRE PROTECTION DISTRICT,,,,,,,2022/08/03 00:00:00+00,https://www.trinitycounty.org/node/2424,SHU,110728.528845661,367596176.56963
772,TRINITY,53010,LEW,LEWISTON FD,PO BOX 164,LEWISTON,96052,MEL DEARDORFF,(530) 778‐3711,,2022/08/03 00:00:00+00,,SHU,81002.3416117363,38990449.8245092
773,TRINITY,53015,TCC,TRINITY CENTER FD,PO BOX 191,TRINITY CENTER,96091,SEAN O'HARA,(530) 266‐3378,,2022/08/03 00:00:00+00,http://northtrinitylake.com/fire/TCVFD.shtml,SHU,80763.128123437,75788967.7314317
774,TRINITY,53020,WEA,WEAVERVILLE FIRE DISTRICT,PO BOX 447,WEAVERVILLE,96093,TODD CORBETT,(530) 623‐6156,,2022/08/03 00:00:00+00,https://www.wfdca.org/,SHU,22429.9954164899,16494793.0703391
775,TRINITY,53012,PMT,POST MOUNTAIN VFD,PO BOX 1026,HAYFORK,96041,TIM SPIERSCH,(530) 628‐5198,,2022/08/03 00:00:00+00,,SHU,78360.085276379,310955843.210258
776,LOS ANGELES,19015,AVA,CITY OF AVALON FD,PO BOX 707,AVALON,90704,STEVEN HOEFS,(310) 510‐0203,,2018/06/21 00:00:00+00,http://www.cityofavalon.com/content/3182/3207/default.aspx,LAC,17571.4326464723,7638051.41511732
777,PLACER,,,UNKNOWN,,,,,,,2023/01/27 00:00:00+00,,NEU,5213.78729992462,338587.0703079
778,PLACER,,,ALPINE SPRINGS COUNTY WATER DISTRICT,270 ALPINE MEADOWS ROAD,ALPINE MEADOWS,96146,,(530) 583-6913,The Alpine Springs County Water District has contracted with the North Tahoe Fire Protection District to provide fire suppression and emergency medical services within the Alpine Meadows community.,2023/01/27 00:00:00+00,https://alpinesprings.org/home,NEU,19996.86442122,15122066.9263363
779,PLACER,31005,AFP,ALTA FPD,PO BOX 847,ALTA,95701,BRIAN ESTES,(530) 389‐8244,,2023/01/27 00:00:00+00,https://altavolunteerfirefighters.org/,NEU,15943.7170219412,10647482.761642
780,PLACER,31010,ABR,AUBURN VFD,1225 LINCOLN WY,AUBURN,95603,DAVE SPENCER,(530) 823‐4211,,2023/01/27 00:00:00+00,,NEU,40683.9616796119,17292386.4370186
781,PLACER,,,BICKFORD RANCH FIRE (CFD 2021-2),,,,,,,2023/01/27 00:00:00+00,,NEU,27784.8581346597,7802325.88802959
782,PLACER,,,CAL FIRE/USFS,,,,,,,2023/01/27 00:00:00+00,https://www.fire.ca.gov/,NEU,314513.066908567,1556428411.82842
783,PLACER,31030,CFX,COLFAX FD,PO BOX 702,COLFAX,95713,BRIAN ESTES,(530) 346‐6776,,2023/01/27 00:00:00+00,https://www.placer.ca.gov/7873/City-of-Colfax-Station-36,NEU,20426.6976820034,3644277.65177084
784,PLACER,31555,NEU,DRY CREEK FIRE (CSA 28 ZONE 165),13760 LINCOLN WY,AUBURN,95603,BRIAN ESTES,(530) 823‐4904,CAL FIRE/Placer County Fire Department Cooperative Fire Protection Agreement,2023/01/27 00:00:00+00,https://www.placer.ca.gov/7865/Dry-Creek-Station-100,NEU,52086.4971565544,69102598.286818
785,PLACER,31555,NEU,DUTCH FLAT FIRE (CSA 28 ZONE 150),13760 LINCOLN WY,AUBURN,95603,BRIAN ESTES,(530) 823‐4904,CAL FIRE/Placer County Fire Department Cooperative Fire Protection Agreement,2023/01/27 00:00:00+00,https://www.placer.ca.gov/7874/Dutch-Flat-Station-32,NEU,114743.851788224,206208229.622599
786,PLACER,31040,FHF,FORESTHILL FPD,PO BOX 1099,FORESTHILL,95631,JARED MATCHAM,(530) 367‐2465,,2023/01/27 00:00:00+00,https://www.foresthillfire.org/,NEU,90641.3459031585,217411341.931507
787,PLACER,31050,LNC,LINCOLN FD,126 JOINER PARKWAY,LINCOLN,95648,DOUGLAS R. LEE,(916) 645‐4040,,2023/01/27 00:00:00+00,http://www.lincolnca.gov/city-hall/departments-divisions/fire-department,NEU,50853.3177579105,61488892.9705995
788,PLACER,31065,NEW,NEWCASTLE FPD,PO BOX 262,NEWCASTLE,95658,IAN GOW,(916) 663‐3323,,2023/01/27 00:00:00+00,https://newcastlefire.org/,NEU,43895.9522554215,36912836.9714569
789,PLACER,,,NORTH AUBURN/OPHIR FIRE (CSA 28 ZONE 193),13760 LINCOLN WY,AUBURN,95603,BRIAN ESTES,(530) 823‐4904,CAL FIRE/Placer County Fire Department Cooperative Fire Protection Agreement,2023/01/27 00:00:00+00,https://www.placer.ca.gov/7864/Ophir-Station-182,NEU,75015.7000257913,126323048.677035
790,PLACER,31044,NTF,NORTH TAHOE FPD,PO BOX 5879,TAHOE CITY,96145,STEVE LEIGHTON,(530) 583‐6911,,2023/01/27 00:00:00+00,,NEU,106125.706477193,55535770.3161209
791,PLACER,31115,NRS,NORTHSTAR FD,910 NORTHSTAR DRIVE,TRUCKEE,96161,JASON GEBEAUT,(530) 562‐1212,,2023/01/27 00:00:00+00,https://www.northstarcsd.org/FireDept.WelcomePage,NEU,24879.3576449579,7868481.25564726
792,PLACER,31070,OLV,OLYMPIC VALLEY FD,PO BOX 2522,OLYMPIC VALLEY,96146,ALLEN RILEY,(530) 583‐6111,,2023/01/27 00:00:00+00,https://www.ovpsd.org/ovfd/home,NEU,42289.5113699596,25594397.6009
793,PLACER,31075,RYN,PENRYN FPD,PO BOX 219,PENRYN,95663,IAN GOW,(916) 663‐3389,,2023/01/27 00:00:00+00,http://penrynfire.ca.gov/,NEU,31418.461014667,21003569.1404249
794,PLACER,31555,NEU,PLACER COUNTY FIRE (CSA 28 ZONE 137),13760 LINCOLN WY,AUBURN,95603,BRIAN ESTES,(530) 823‐4904,CAL FIRE/Placer County Fire Department Cooperative Fire Protection Agreement,2023/01/27 00:00:00+00,https://www.placer.ca.gov/7625/Fire-Department,NEU,265297.664307482,313039603.049668
795,PLACER,31060,PHF,PLACER HILLS FPD,PO BOX 350,MEADOW VISTA,95722,IAN GOW,(530) 878‐0405,,2023/01/27 00:00:00+00,https://placerhillsfire.org/,NEU,58217.5096668927,87468191.8993131
796,PLACER,31080,ROK,ROCKLIN FD,4060 ROCKLIN RD,ROCKLIN,95677,REGINALD WILLIAMS,(916) 625‐5300,,2023/01/27 00:00:00+00,https://www.rocklin.ca.us/fire,NEU,40765.9211702022,51109424.0600768
797,PLACER,31085,RSV,ROSEVILLE FD,316 VERNON ST STE 480,ROSEVILLE,95678,RICK BARTEE,(916) 774‐5800,,2023/01/27 00:00:00+00,https://www.roseville.ca.us/government/departments/fire_department,NEU,80496.2420879716,114443080.36898
798,PLACER,,,SACRAMENTO METROPOLITAN FIRE DISTRICT,,,,,,,2023/01/27 00:00:00+00,,NEU,7925.93448770248,3434378.9145686
799,PLACER,31555,NEU,SHERIDAN FIRE (CSA 28 ZONE 6B),13760 LINCOLN WY,AUBURN,95603,BRIAN ESTES,(530) 823‐4904,CAL FIRE/Placer County Fire Department Cooperative Fire Protection Agreement,2023/01/27 00:00:00+00,https://www.placer.ca.gov/7866/Sheridan-Station-78,NEU,32395.3600252503,55798054.7248497
800,PLACER,31150,SPL,SOUTH PLACER FPD,6900 EUREKA RD,GRANITE BAY,95746,MARK DUERR,(916) 791‐7059,,2023/01/27 00:00:00+00,https://www.southplacerfire.org/,NEU,93289.5216664133,108898509.770362
801,PLACER,,,SUBURBAN PINES CSD,,,,,,,2023/01/27 00:00:00+00,,NEU,2117.22049611059,167334.453859516
802,PLACER,31555,NEU,SUNSET INDUSTRIAL AREA FIRE (CSA 28 ZONE 97),13760 LINCOLN WY,AUBURN,95603,BRIAN ESTES,(530) 823‐4904,CAL FIRE/Placer County Fire Department Cooperative Fire Protection Agreement,2023/01/27 00:00:00+00,https://www.placer.ca.gov/7861/Sunset-Station-77,NEU,26233.1146555944,17060928.7059173
803,PLACER,,,SUNSET/WESTERN PLACER OVERLAP,,,,,,,2023/01/27 00:00:00+00,,NEU,4872.93367991531,1318357.93408393
805,PLACER,31555,NEU,WESTERN PLACER FIRE (CSA 28 ZONE 76),13760 LINCOLN WY,AUBURN,95603,BRIAN ESTES,(530) 823‐4904,CAL FIRE/Placer County Fire Department Cooperative Fire Protection Agreement,2023/01/27 00:00:00+00,,NEU,158904.397067497,361399349.832703
806,CALAVERAS,05005,ALT,ALTAVILLE‐MELONES FPD,PO BOX 431,ALTAVILLE,95221,JOHN ROHRABAUGH,(209) 736‐9116,,2022/02/25 00:00:00+00,https://altavillemelonesfireprotectiondistrict.wordpress.com/tag/altaville-melones-fire-district/,TCU,105358.817519168,200864726.29931
807,CALAVERAS,05010,AGL,CITY OF ANGELS FD,PO BOX 667,ANGELS CAMP,95222,JOHN ROHRABAUGH,(209) 736‐4081,,2022/02/25 00:00:00+00,https://angelscamp.gov/fire/,TCU,24306.700011243,9236068.8111812
808,CALAVERAS,05066,CCN,CALAVERAS CONSOLIDATED FPD,6501 JENNY LIND RD,VALLEY SPRINGS,95252,RICHARD DICKINSON,(209) 786‐2227,,2022/02/25 00:00:00+00,https://www.calcofire.org/,TCU,108374.159062465,421052450.439206
809,CALAVERAS,05060,CCF,CENTRAL CALAVERAS FIRE/RESCUE,PO BOX 2,MOUNTAIN RANCH,95246,PHIL SORIA,(209) 754‐4330,,2022/02/25 00:00:00+00,https://www.centralcalaverasfire.org/,TCU,92765.2660699301,299172254.943781
810,CALAVERAS,05020,COP,COPPEROPOLIS FPD,PO BOX 131,COPPEROPOLIS,95228,SCOTT O. HERTZOG,(209) 785‐2393,,2022/02/25 00:00:00+00,,TCU,116060.761514155,485490661.783008
811,CALAVERAS,05015,EBB,EBBETTS PASS FPD,PO BOX 66,ARNOLD,95223,MICHAEL R JOHNSON,(209) 795‐1646,,2022/02/25 00:00:00+00,https://epfd.org/,TCU,152521.479058168,505865793.550531
812,CALAVERAS,05025,MOK,MOKELUMNE HILL FPD,8160 CHURCH STREET,MOKELUMNE HILL,95245,MICHAEL R DELL'ORTO,(209) 286‐1389,,2022/02/25 00:00:00+00,https://www.mokehillfire.org/,TCU,55997.508775057,85048583.2847709
813,CALAVERAS,05030,MRP,MURPHYS FPD,PO BOX 1260,MURPHYS,95247,BILL FULLERTON,(209) 728‐3864,,2022/02/25 00:00:00+00,https://mfpd.specialdistrict.org/,TCU,67451.6122263856,120528741.471789
814,CALAVERAS,,,PROTECTED BY CENTRAL CALAVERAS FIRE/RESCUE,,,,,,,2022/02/25 00:00:00+00,,TCU,78424.4423713596,100106430.142539
815,CALAVERAS,05035,AND,SAN ANDREAS FPD,PO BOX 88,SAN ANDREAS,95249,DON YOUNG,(209) 754‐4693,,2022/02/25 00:00:00+00,,TCU,77893.396858782,176583436.817007
816,CALAVERAS,05050,WPT,WEST POINT FPD,PO BOX 315,WEST POINT,95255,TERRY MILLER,(209) 293‐7000,,2022/02/25 00:00:00+00,https://westpointfire.org/,TCU,97464.750310934,278523079.874231
817,EL DORADO,09050,CAM,CAMERON PARK FD,3200 COUNTRY CLUB DR,CAMERON PARK,95682,MIKE BLANKENHEIM,(530) 677‐6190,,2023/02/09 00:00:00+00,https://www.cameronpark.org/,AEU,28232.3460631695,16911197.3021723
818,EL DORADO,09060,SLT,S LAKE TAHOE FIRE RESCUE,2101 LAKE TAHOE BLVD,SOUTH LAKE TAHOE,96150,JIM DRENNAN,(530) 542‐6160,,2023/02/09 00:00:00+00,https://www.cityofslt.us/384/Fire,AEU,46975.1942266682,44525736.167733
819,EL DORADO,09005,DSP,DIAMOND SPRINGS ‐ EL DORADO FPD,501 PLEASANT VALLEY ROAD,DIAMOND SPRINGS,95619,MATTHEW GALLAGHER,(530) 626‐3190,,2023/02/09 00:00:00+00,https://www.diamondfire.org/,AEU,123279.102906908,169788786.847624
820,EL DORADO,09015,EDH,EL DORADO HILLS FD,1050 WILSON BLVD,EL DORADO HILLS,95762,MAURICE JOHNSON,(916) 933‐6623,,2023/02/09 00:00:00+00,https://www.edhfire.com/,AEU,134449.932539389,204801182.417883
821,EL DORADO,09012,ECF,EL DORADO CO FPD,PO BOX 807,CAMINO,95709,TIM CORDERO,(530) 644‐9630,,2023/02/09 00:00:00+00,https://www.eldoradocountyfire.com/,AEU,435725.279576378,735660395.182804
822,EL DORADO,09017,FLL,FALLEN LEAF FD,PO BOX 9415,SOUTH LAKE TAHOE,96158,GARY GERREN,(530) 542‐1343,,2023/02/09 00:00:00+00,https://fllcsd.org/fire-department/,AEU,21452.6404000908,13670344.976466
823,EL DORADO,09100,GRV,GARDEN VALLEY FPD,P.O. BOX 408,GARDEN VALLEY,95633,WES NORMAN,(530) 333‐1240,,2023/02/09 00:00:00+00,https://www.gardenvalley.org/,AEU,73654.4085180449,152234281.273967
824,EL DORADO,09020,322,GEORGETOWN FPD,PO BOX 420,GEORGETOWN,95634,GLENN W. BROWN,(530) 333‐4111,,2023/02/09 00:00:00+00,https://www.geofire.org/,AEU,151526.489567498,177611902.669981
825,EL DORADO,,,KIRKWOOD MEADOWS P.U.D.,,,,,,,2023/02/09 00:00:00+00,,AEU,2930.56706293112,293928.771967564
826,EL DORADO,09065,LAV,LAKE VALLEY FPD,2211 KEETAK ST,SOUTH LAKE TAHOE,96150,CHAD STEPHEN,(530) 577‐3737,,2023/02/09 00:00:00+00,https://lakevalleyfire.org/,AEU,138404.286439654,190131693.211131
827,EL DORADO,,,MEEKS BAY FPD,,,,,,,2023/02/09 00:00:00+00,https://www.meeksbayfire.com/,AEU,34931.1843842702,15706285.1262144
828,EL DORADO,09026,MQT,MOSQUITO FPD,8801 ROCK CREEK RD,PLACERVILLE,95667,EDWARD M. DWYER,(530) 626‐9017,,2023/02/09 00:00:00+00,https://mfpd.us/,AEU,31639.5793046921,28289617.2920109
829,EL DORADO,09090,PIO,PIONEER FPD,P.O. BOX 128,SOMERSET,95684,DAVID WHITT,(530) 620‐4444,,2023/02/09 00:00:00+00,https://pioneerfire.org/,AEU,228750.952401595,744962556.97618
830,EL DORADO,09110,RES,RESCUE FPD,PO BOX 201,RESCUE,95672,BRYAN RANSDELL,(530) 677‐1868,,2023/02/09 00:00:00+00,https://www.rescuefiredepartment.org/,AEU,62401.4512343332,86554796.9523873
831,COLUSA,06035,PRN,PRINCETON FPD,PO BOX 176,PRINCETON,95970,ANDY FERRENDELLI,(530) 439‐2389,,2022/11/22 00:00:00+00,,LNU,35322.5518786325,61252967.6686772
832,COLUSA,,,GLENN - COLUSA,,,,,,,2022/11/22 00:00:00+00,,LNU,41564.2080144866,73291899.1451854
833,COLUSA,06030,MAX,MAXWELL FPD,231 WEST OAK & CAIFORNIA,MAXWELL,95955,DAVE WELLS,(530) 438‐2320,,2022/11/22 00:00:00+00,https://www.maxwellfiredepartment.net/,LNU,88069.6279394693,340905754.433642
834,COLUSA,,,USFS,,,,,,,2022/11/22 00:00:00+00,https://www.fs.usda.gov/,LNU,82410.4778398857,295899418.793383
835,COLUSA,06040,BIV,BEAR VLY INDIAN VLY FPD,PO BOX 111,STONEYFORD,95979,BARNEY COOK,(530) 517‐1428,,2022/11/22 00:00:00+00,https://www.bearvalleyindianvalleyfireprotectiondistrict.com/,LNU,64522.8934590939,146765456.500139
836,COLUSA,06555,LNU,CDF‐COLUSA COUNTY,1199 BIG TREE RD,ST HELENA,94574,MIKE MARCUCCI,(707) 967‐3601,,2022/11/22 00:00:00+00,https://www.fire.ca.gov/,LNU,199002.008638296,836319164.191277
837,COLUSA,06020,SRV,SACRAMENTO RIVER FPD,235 MARKET ST,COLUSA,95932,JEFF WINTERS,(530) 458‐0239,,2022/11/22 00:00:00+00,https://www.sacramentoriverfiredistrict.org/,LNU,176722.977684534,528136954.158024
838,COLUSA,06045,WIL,WILLIAMS FPA,P.O. BOX 755,WILLIAMS,95987,JEFFERY GILBERT,(530) 473‐2269,,2022/11/22 00:00:00+00,https://www.williamsfireprotectionauthority.org/,LNU,96259.5389130866,356339186.190654
839,COLUSA,06005,ARB,ARBUCKLE COLLEGE CITY FPD,PO BOX 727,ARBUCKLE,95912,CASEY COX,(530) 476‐2231,,2022/11/22 00:00:00+00,,LNU,90973.0776402649,355661144.162866
840,MONO,26015,ANT,ANTELOPE VALLEY FPD,1166 LARSON LANE,COLEVILLE,96107,RICHARD C NALDER,(530) 495‐2900,,2019/03/09 00:00:00+00,,BDU,69188.6856151282,91190307.2681478
841,MONO,26010,BRI,BRIDGEPORT FPD,PO BOX 375,BRIDGEPORT,93517,MICHAEL BOOHER,(760) 933‐2252,,2019/03/09 00:00:00+00,,BDU,84395.8956310645,37256914.9430211
842,MONO,26012,CVV,CHALFANT FD,215 VALLEY RD,CHALFANT,93514,ROB DEFORREST,(760) 873‐5402,,2019/03/09 00:00:00+00,,BDU,51467.7115193434,135981166.404213
843,MONO,26020,JUN,JUNE LAKE FPD,PO BOX 144,JUNE LAKE,93529,RICHARD ROBERTS,(760) 648‐7390,,2019/03/09 00:00:00+00,https://junelakefiredept.com/,BDU,30138.3234945153,16986882.7258966
844,MONO,26025,LEE,LEE VINING VFD,PO BOX 207,LEE VINING,93541,TOM STRAZDINS,(760) 647‐6329,,2019/03/09 00:00:00+00,,BDU,35032.115599899,10222014.5666489
845,MONO,26035,LNG,LONG VALLEY FPD,3605 CROWLEY LAKE DR,CROWLEY LAKE,93546,VINCENT MANIACI,(760) 935‐4545,,2019/03/09 00:00:00+00,https://www.longvalleyfire.com/~lvf/wp/,BDU,78242.5152987767,294546381.477843
846,MONO,26030,MAM,MAMMOTH LAKES FPD,PO BOX 5,MAMMOTH LAKES,93546,ALES TOMAIER,(760) 934‐2300,,2019/03/09 00:00:00+00,https://mlfd.ca.gov/,BDU,40377.0073440211,85011127.6902983
847,MONO,26040,MON,MONO CITY FPD,PO BOX 373,LEE VINING,93541,MICHAEL CLAYTON,(760) 647‐6601,,2019/03/09 00:00:00+00,,BDU,10293.8619296878,1608734.93216391
848,MONO,26042,PRD,PARADISE FPD,5300 LOWER ROCK CREEK RD,BISHOP,93514,DALE SCHMIDT,(760) 387‐2255,,2019/03/09 00:00:00+00,https://www.paradisefire.net/,BDU,3279.97000960523,588670.391782827
849,MONO,26045,SWF,WHEELER CREST FPD,129 WILLOW RD,SWALL MEADOWS,93514,DALE SCHMIDT,(760) 789‐1330,,2019/03/09 00:00:00+00,https://www.wheelercrestfire.org/,BDU,12902.5823774928,10313398.545127
850,MONO,26005,WMT,WHITE MOUNTAIN FPD,25470 HIGHWAY 6,BENTON,93512,DAVE DOONAN,(760) 933‐2252,,2019/03/09 00:00:00+00,https://whitemountainfire.com/,BDU,188726.397839535,320530494.747518
851,NEVADA,29015,NCC,NEVADA COUNTY CONS FD,640 COYOTE STREET,NEVADA CITY,95959,JASON ROBITAILLE,(530) 265‐4431,,2022/08/13 00:00:00+00,https://www.nccfire.com/,NEU,203855.859056788,360989630.150423
852,NEVADA,29042,HGF,HIGGINS FPD,10106 COMBIE RD,AUBURN,95602,JERRY M. GOOD,(530) 269‐2488,,2022/08/13 00:00:00+00,https://www.higginsfire.org/,NEU,98821.851193567,202782282.763124
853,NEVADA,29055,RAR,ROUGH AND READY FPD,14506 ROUGH AND READY HWY,ROUGH & READY,95975,ROBB ROTHENBERGER,(530) 432‐1140,,2022/08/13 00:00:00+00,http://rrvfd.com/,NEU,27645.2266005944,23031234.2717186
854,NEVADA,29065,PNV,PENN VALLEY FPD,PO BOX 180,PENN VALLEY,95946,DON WAGNER,(530) 432‐2630,,2022/08/13 00:00:00+00,https://pennvalleyfire.com/,NEU,100684.021824446,235821846.522977
855,NEVADA,29005,GRS,GRASS VALLEY FD,125 E MAIN ST,GRASS VALLEY,95945,MARK BUTRON,(530) 274‐4370,Consolidated with Nevada City Fire Department in 2018.,2022/08/13 00:00:00+00,https://www.cityofgrassvalley.com/fire-department,NEU,65605.8931962845,22219597.8026278
856,NEVADA,29060,TRK,TRUCKEE FPD,PO BOX 2768,TRUCKEE,96160,KEVIN MCKECHNIE,(530) 582‐7850,,2022/08/13 00:00:00+00,https://www.truckeefire.org/,NEU,153467.307059102,330523900.671169
857,NEVADA,29050,NSJ,NORTH SAN JUAN FPD,PO BOX 299,NORTH SAN JUAN,95960,JASON FLORES,(530) 292‐9159,,2022/08/13 00:00:00+00,https://nsjfire.org/,NEU,96976.3230547664,224550771.582432
858,NEVADA,29030,PCP,PEARDALE ‐ CHICAGO PARK FPD,PO BOX 697,CHICAGO PARK,95712,JIM BIERWAGEN,(530) 273‐2503,,2022/08/13 00:00:00+00,https://www.pcpfire.org/,NEU,31526.1010179895,47991183.422407
859,NEVADA,29025,OPH,OPHIR HILL FPD,PO BOX 940,CEDAR RIDGE,95924,JEFF WAGNER,(530) 273‐8351,,2022/08/13 00:00:00+00,http://www.ophirhillfire.org/,NEU,33116.5081235155,21424409.3106471
860,SACRAMENTO,,,PACIFIC FRUITRIDGE FPD,,,,,,,2022/08/31 00:00:00+00,https://pacificfruitridgefire.specialdistrict.org/,AEU,30681.1830782716,12484700.8868304
861,SACRAMENTO,34135,RID,RIVER DELTA FIRE DISTRICT,16969 JACKSON SLOUGH RD,ISLETON,95641,PAUL CUTINO,(916) 777‐8700,,2022/08/31 00:00:00+00,https://riverdeltafire.com/,AEU,61850.2081698233,75154560.6045216
862,SACRAMENTO,34055,ISL,ISLETON FD,PO BOX 716,ISLETON,95641,SCOTT BARONI,(916) 777‐7776,,2022/08/31 00:00:00+00,https://cityofisleton.com/fire-department/,AEU,8063.57392811849,1183056.42773493
863,SACRAMENTO,34080,SCR,SACRAMENTO FD,5770 FREEPORT BLVD #200,SACRAMENTO,95822,CHRIS COSTAMAGNA,(916) 808‐1300,,2022/08/31 00:00:00+00,https://www.cityofsacramento.org/fire,AEU,154561.753827513,260673272.372621
864,SACRAMENTO,,,NATOMAS,,,,,,,2022/08/31 00:00:00+00,https://saclafco.saccounty.net/ServiceProviders/Documents/atozlistings/NatomasFPD.pdf,AEU,85090.1489924274,89315457.3143611
865,SACRAMENTO,34140,MAF,SACRAMENTO COUNTY AIRPORT FIRE,7203 EARHART DRIVE,SACRAMENTO,95835,KENNY PRETE,(916) 874‐0648,,2022/08/31 00:00:00+00,https://sacramento.aero/scas/about/general_information,AEU,15596.7956591725,11713046.4812823
866,SACRAMENTO,34050,HER,HERALD FPD,PO BOX 52,HERALD,95638,JAMES HENDRICKS,(209) 748‐2322,,2022/08/31 00:00:00+00,https://www.heraldfire.com/,AEU,73875.3504066425,239217630.17371
867,SACRAMENTO,34125,WLT,WILTON FPD,9800 DILLARD RD,WILTON,95693,KENNETH S. DIEDE,(916) 687‐6920,,2022/08/31 00:00:00+00,http://www.wilton-fire.org/index.html,AEU,71944.092649992,153492209.74615
868,SACRAMENTO,34015,CLF,COURTLAND FPD,PO BOX 163,COURTLAND,95615,DAVID WELCH,(916) 775‐1210,,2022/08/31 00:00:00+00,https://courtlandfire.com/,AEU,67503.4415031914,86881930.6199855
869,SACRAMENTO,34120,WAL,WALNUT GROVE FD,PO BOX 41,WALNUT GROVE,95690,JOE SANCHES JR,(916) 776‐1090,,2022/08/31 00:00:00+00,https://saclafco.saccounty.net/ServiceProviders/Documents/atozlistings/sac_006788.pdf,AEU,68583.2190522059,104629472.901504
870,SACRAMENTO,34130,DLT,DELTA FPD,P.O. BOX,RIO VISTA,94571,JEFF ARMSTRONG,(707) 374‐2233,,2022/08/31 00:00:00+00,https://saclafco.saccounty.net/ServiceProviders/Documents/atozlistings/DeltaFireDistrict.pdf,AEU,57552.9086842284,98229117.2882208
871,SACRAMENTO,34035,FOL,CITY OF FOLSOM FD,535 GLENN DRIVE,FOLSOM,95630,KEN CUSANO,(916) 461‐6300,,2022/08/31 00:00:00+00,https://www.folsom.ca.us/government/fire,AEU,45733.9748054102,77608887.9875372
872,SACRAMENTO,34020,CSM,COSUMNES CSD FD,10573 E STOCKTON BLVD,ELK GROVE,95624,FELIPE RODRIGUEZ,(916) 405‐7100,,2022/08/31 00:00:00+00,https://www.yourcsd.com/968/Fire,AEU,129516.02883665,409637162.000824
873,SACRAMENTO,34090,SAC,SACRAMENTO METROPOLITAN FD,"10545 ARMSTRONG AVE, STE 200",MATHER,95655,TODD HARMS,(916) 859‐4300,,2022/08/31 00:00:00+00,https://metrofire.ca.gov/,AEU,199374.114917881,928540484.398191
874,SAN JOAQUIN,39070,,BOGGS TRACT FPD,619 S LOS ANGELES,STOCKTON,95203,AL RUDA,,,2023/01/17 00:00:00+00,,TCU,4418.06714648327,390103.299422487
875,SAN JOAQUIN,39020,CLE,CLEMENTS RURAL FPD,PO BOX  523,CLEMENTS,95227,DAVID INGRUM,(209) 759‐3371,,2023/01/17 00:00:00+00,https://www.clementsfire.org/,TCU,76701.6796733167,281447597.186844
876,SAN JOAQUIN,39075,CGV,COLLEGEVILLE FD,13225 E. MARIPOSA RD,STOCKTON,95215,DENNIS  E. FAIST,(209) 462‐3883,,2023/01/17 00:00:00+00,https://www.collegevillefire.com/,TCU,52753.9632214161,72960109.2455423
877,SAN JOAQUIN,,,COUNTRY CLUB,,,,,,,2023/01/17 00:00:00+00,,TCU,18329.6046005011,5364829.65102311
878,SAN JOAQUIN,,,EASTSIDE,,,,,,,2023/01/17 00:00:00+00,,TCU,43559.7176812961,30040992.0943435
879,SAN JOAQUIN,39025,ESL,ESCALON CONSOLIDATED FPD,1749 COLEY AVE,ESCALON,95320,RICK MELLO,(209) 838‐7500,,2023/01/17 00:00:00+00,https://www.escalonfire.com/,TCU,59800.2747380492,155049051.163455
880,SAN JOAQUIN,39030,FAR,FARMINGTON RURAL FPD,PO BOX 25,FARMINGTON,95230,CONNI BAILEY,(209) 886‐5321,,2023/01/17 00:00:00+00,https://farmingtonfire.net/,TCU,73318.7891788414,230530763.237617
881,SAN JOAQUIN,39085,FRC,FRENCH CAMP MCKINLEY RURAL FPD,PO BOX 790,FRENCH CAMP,95231,MARIO MCARN,(209) 982‐0592,,2023/01/17 00:00:00+00,https://frenchcampfire.com/,TCU,39525.5295260474,34088869.6964993
882,SAN JOAQUIN,39055,LMD,LATHROP‐MANTECA FPD,800 EAST J ST,LATHROP,95330,JOSHUA CAPPER,(209) 941‐5100,,2023/01/17 00:00:00+00,https://www.lmfire.org/,TCU,175426.835470959,212839756.763147
883,SAN JOAQUIN,39010,LIB,LIBERTY RURAL FPD,24124 N BRUELLA RD,ACAMPO,95220,STANLEY D. SEIFERT,(209) 339‐1329,,2023/01/17 00:00:00+00,https://www.libertyfiredistrict.com/,TCU,47941.7271275792,93028042.3570315
884,SAN JOAQUIN,,,LINCOLN,,,,,,,2023/01/17 00:00:00+00,,TCU,71184.1291720293,31785272.4137306
885,SAN JOAQUIN,39040,LPE,LINDEN PETERS RURAL FPD,17725 E HWY 26,LINDEN,95236,KIRK NOFFSINGER,(209) 887‐3710,,2023/01/17 00:00:00+00,https://lindenfire.org/,TCU,77132.2415399563,309610863.543841
886,SAN JOAQUIN,39045,LOD,LODI FD,210 W. ELM STREET,LODI,95240,KEN JOHNSON,(209) 333‐6735,,2023/01/17 00:00:00+00,https://www.lodi.gov/281/Fire,TCU,35684.9042918984,32021580.202386
887,SAN JOAQUIN,39050,MAN,MANTECA FD,1154 S. UNION ROAD,MANTECA,95337,DAVID MARQUES,(209) 239‐8435,,2023/01/17 00:00:00+00,https://www.manteca.gov/departments/fire-department,TCU,68855.1707370237,55497868.6549546
888,SAN JOAQUIN,39125,MKE,MOKELUMNE RURAL FD,13157 E BRANDT RD,LOCKEFORD,95237,FRANK RAMIREZ,(209) 727‐0564,,2023/01/17 00:00:00+00,https://www.mokelumnefire.org/,TCU,54402.04720546,86680742.0584254
889,SAN JOAQUIN,39095,ZUM,MONTEZUMA FPD,2405 S B ST,STOCKTON,95206,EDWARD MARTEL,(209) 464‐5234,,2023/01/17 00:00:00+00,https://montezumafiredistrict.com/,TCU,46218.0625963497,22766203.167894
890,SAN JOAQUIN,39150,,MOUNTAIN HOUSE CSD FD,911 TRADITION WAY,MOUNTAIN HOUSE,95391,PAUL TUALLA,(209) 831‐2300,,2023/01/17 00:00:00+00,https://www.mountainhousecsd.org/,SCU,28359.0519999111,16638579.3408814
891,SAN JOAQUIN,39559,,CDF‐SAN JOAQUIN UNPROTECT AREA,P. O. BOX 944246,SACRAMENTO,94244,GEORGE HUANG,(209) 754‐3831,,2023/01/17 00:00:00+00,,SCU,227684.781271503,718723836.89659
892,SAN JOAQUIN,39060,RIP,RIPON FPD,142 S STOCKTON AVE,RIPON,95366,DENNIS BITTERS,(209) 599‐4209,,2023/01/17 00:00:00+00,http://www.riponfire.com/,TCU,81922.234594568,112273309.380124
893,SAN JOAQUIN,39065,STO,STOCKTON FD,"400 E. MAIN ST., FOURTH FLOOR",STOCKTON,95202,RICHARD EDWARDS,(209) 937‐8801,,2023/01/17 00:00:00+00,http://www.stocktonca.gov/government/departments/fire/default.html,TCU,216533.886068014,168788087.147564
894,SAN JOAQUIN,39115,THO,THORNTON FPD,PO BOX 78,THORNTON,95686,EVEREN O. WATKINS,(209) 794‐2460,,2023/01/17 00:00:00+00,https://www.thorntonfiredistrict.org/,TCU,50662.6578066768,109320328.74937
895,SAN JOAQUIN,39120,SJC,SOUTH SAN JOAQUIN CFA,835 CENTRAL AVE,TRACY,95376,RANDY BRADLEY,(209) 831‐6702,,2023/01/17 00:00:00+00,https://www.sjcfire.org/,SCU,128048.070266068,412911390.250735
896,SAN JOAQUIN,39105,WMR,WATERLOO MORADA RURAL FPD,6925 E FOPPIANO LN,STOCKTON,95212,ERIC G. WALDER,(209) 931‐3107,,2023/01/17 00:00:00+00,https://www.wmfire.org/,TCU,56699.1478882607,98966001.2361391
897,SAN JOAQUIN,39130,WOO,WOODBRIDGE FPD,400 E AUGUSTA STREET,WOODBRIDGE,95258,DARIN DOWNEY,(209) 369‐1945,,2023/01/17 00:00:00+00,https://www.woodbridgefire.org/,TCU,182719.750499531,402201401.787692
898,SANTA CRUZ,27005,ATC,AROMAS TRI COUNTY FPD,2221 GARDEN ROAD,MONTEREY,93940,GEORGE NUNEZ,(831) 333‐4600,,2022/06/30 00:00:00+00,https://www.atcfire.org/,CZU,27220.0855122881,17610990.1614217
899,SANTA CRUZ,44015,BEN,BEN LOMOND FPD,9530 HIGHWAY 9,BEN LOMOND,95005,STACIE BROWNLEE,(831) 336‐5495,,2022/06/30 00:00:00+00,https://benlomondfd.com/,CZU,27463.8198067631,13390397.655828
900,SANTA CRUZ,44020,BOU,BOULDER CREEK FPD,13230 CENTRAL AVE,BOULDER CREEK,95006,MARK BINGHAM,(831) 338‐7222,,2022/06/30 00:00:00+00,https://www.bcfd.com/,CZU,61062.0325768721,43579076.4755023
901,SANTA CRUZ,44060,BRN,BRANCIFORTE FPD,2711 BRANCIFORTE DR,SANTA CRUZ,95065,RON WHITTLE,(831) 423‐8856,,2022/06/30 00:00:00+00,https://branciforte-fire.com/,CZU,36306.7223202245,20232386.2916711
902,SANTA CRUZ,44065,CTL,CENTRAL FPD,930 17TH AVE,SANTA CRUZ,95062,JASON NEE,(831) 479‐6842,,2022/06/30 00:00:00+00,https://www.centralfiresc.org/,CZU,88938.6665841707,102788210.520041
903,SANTA CRUZ,44055,SCZ,SANTA CRUZ FD,230 WALNUT AVE,SANTA CRUZ,95060,ROBERT OATEY,(831) 420‐5280,,2022/06/30 00:00:00+00,https://www.cityofsantacruz.com/government/city-departments/fire-department,CZU,44049.7811849461,32446030.0647621
904,SANTA CRUZ,44080,WTS,WATSONVILLE FD,115 SECOND ST,WATSONVILLE,95076,RUDY LOPEZ,(831) 768‐3231,,2022/06/30 00:00:00+00,https://www.cityofwatsonville.org/2323/Fire,CZU,28261.633053455,16993922.1766292
905,SANTA CRUZ,44090,,PAJARO DUNES CSA 4,P.O. DRAWER F‐2,FELTON,95018,NATE ARMSTRONG,(831) 335‐5355,,2022/06/30 00:00:00+00,,CZU,6197.23432745282,612900.643374657
906,SANTA CRUZ,44095,CRZ,SANTA CRUZ COUNTY CSA 48,P.O. DRAWER F‐2,FELTON,95018,NATE ARMSTRONG,(831) 335‐5355,,2022/06/30 00:00:00+00,,CZU,376116.698979117,683153884.317958
907,SANTA CRUZ,44035,FEL,FELTON FPD,131 KIRBY ST,FELTON,95018,ROBERT GRAY,(831) 335‐4422,,2022/06/30 00:00:00+00,https://feltonfire.com/,CZU,18941.641529423,14960948.1561132
908,SANTA CRUZ,44045,PAJ,PAJARO VALLEY FPD,P.O. DRAWER F‐2,FELTON,95018,NATE ARMSTRONG,(831) 335‐5355,,2022/06/30 00:00:00+00,https://www.pajarovalleyfire.com/,CZU,80850.4591056582,114643329.374778
909,SANTA CRUZ,44070,SCO,SCOTTS VALLEY FPD,7 ERBA LANE,SCOTTS VALLEY,95066,RON WHITTLE,(831) 438‐0211,,2022/06/30 00:00:00+00,https://www.scottsvalleyfire.com/,CZU,53360.4753968449,58479450.5255958
910,SANTA CRUZ,44040,ZAY,ZAYANTE FPD,7700 E ZAYANTE RD,FELTON,95018,KENNETH BOYNTON,(831) 335‐5100,,2022/06/30 00:00:00+00,https://zayantefire.com/,CZU,35884.5867032575,36746629.3919062
911,SONOMA,49035,CAZ,CAZADERO CSD,PO BOX 95,CAZADERO,95421,STEVE KRAUSMAN,(707) 632‐5390,,2022/07/21 00:00:00+00,https://www.cazadero-csd.org/,LNU,63098.0257936096,46679136.6743471
912,SONOMA,49040,CLD,CLOVERDALE FD,451 S. CLOVERDALE BLVD.,CLOVERDALE,95425,MIKE MARCUCCI,(707) 894‐3545,,2022/07/21 00:00:00+00,https://www.cloverdalefiredistrict.com/,LNU,76918.7780579597,175650769.071289
913,SONOMA,49046,DCB,DRY CREEK RANCHERIA FD,PO BOX 607,GEYSERVILLE,95441,MATT EPSTEIN,(707) 522‐4290,,2022/07/21 00:00:00+00,http://dcrfire.com/,LNU,3187.3011319738,373887.733952217
914,SONOMA,49062,GFD,GOLD RIDGE FPD,4500 HESSEL RD,SEBASTOPOL,95472,SHEPLEY SCHROTH‐CARY,(707) 823‐1084,,2022/07/21 00:00:00+00,https://goldridgefire.org/,LNU,79557.4671452491,124781116.734193
915,SONOMA,49065,GTN,GRATON FPD,PO BOX A,GRATON,95444,WILLIAM BULLARD,(707) 823‐8400,,2022/07/21 00:00:00+00,https://www.gratonfire.com/,LNU,49736.4612808035,48282050.1303939
916,SONOMA,49080,HEA,HEALDSBURG FD,601 HEALDSBURG AVE,HEALDSBURG,95448,JASON BOAZ,(707) 431‐3360,,2022/07/21 00:00:00+00,https://www.ci.healdsburg.ca.us/248/Fire-Department,LNU,32209.6313570516,11401686.765586
917,SONOMA,49090,KWD,KENWOOD FPD,PO BOX 249,KENWOOD,95452,DAREN BELLACH,(707) 833‐2042,,2022/07/21 00:00:00+00,https://kenwoodfire.org/,LNU,50393.8809030808,58226268.5138396
918,SONOMA,49100,MRO,MONTE RIO FPD,9870 MAIN ST,MONTE RIO,95462,STEPHEN BAXMAN,(707) 865‐2067,,2022/07/21 00:00:00+00,https://monteriofire.org/,LNU,81456.7999672528,110376104.522883
919,SONOMA,49106,NBF,NORTH BAY FIRE,4500 HESSEL ROAD,SEBASTOPOL,95472,SHEPLEY SCHROTH‐CARY,(707) 823‐1084,,2022/07/21 00:00:00+00,https://www.nbfire.org/,LNU,419588.498456125,606014081.612338
920,SONOMA,49104,NSC,NORTH SONOMA COAST FPD,PO BOX 386,THE SEA RANCH,95497,BONNIE PLAKOS,(707) 785‐2648,,2022/07/21 00:00:00+00,http://northsonomacoastfpd.org/,LNU,162115.365010737,456235509.713341
921,SONOMA,49055,SCN,NORTHERN SONOMA COUNTY FPD,PO BOX 217,GEYSERVILLE,95441,MARSHALL TURBEVILLE,(707) 857‐4373,,2022/07/21 00:00:00+00,https://www.northernsonomacountyfire.org/,LNU,254711.645577942,747168635.332407
922,SONOMA,49105,OCD,OCCIDENTAL CSD,PO BOX 157,OCCIDENTAL,95465,RON LUNARDI,(707) 874‐3800,,2022/07/21 00:00:00+00,https://occidentalcsd.org/,LNU,66916.7611959909,69534989.8752746
923,SONOMA,49115,PTL,PETALUMA FD,198 D ST,PETALUMA,94952,LEONARD C. THOMPSON,(707) 778‐4390,,2022/07/21 00:00:00+00,https://cityofpetaluma.org/departments/fire/,LNU,50141.2093994894,37750453.1119254
924,SONOMA,49110,RAD,RANCHO ADOBE FPD,PO BOX 1029,PENNGROVE,94951,LEONARD C. THOMPSON,(707) 795‐6011,,2022/07/21 00:00:00+00,https://www.rafd.org/,LNU,118038.521322072,169100330.136148
925,SONOMA,49140,ROH,ROHNERT PARK DPS,500 CITY CENTER DR,ROHNERT PARK,94928,TIM MATTOS,(707) 584‐2600,,2022/07/21 00:00:00+00,https://www.rpcity.org/city_hall/departments/public_safety/fire_services,LNU,32319.5113067203,18892411.3018097
926,SONOMA,49145,SRS,SANTA ROSA FD,2373 CIRCADIAN WAY,SANTA ROSA,95407,SCOTT WESTROPE,(707) 543‐3500,,2022/07/21 00:00:00+00,https://www.srcity.org/393/Fire,LNU,183571.705278492,110539135.558813
927,SONOMA,49205,SCH,SCHELL VISTA FPD,23000 BROADWAY,SONOMA,95476,RAY MULAS,(707) 938‐2633,,2022/07/21 00:00:00+00,http://schellvistafire.org/,LNU,115547.405288525,203519698.984242
928,SONOMA,49180,SEB,SEBASTOPOL FD,7425 BODEGA AVE,SEBASTOPOL,95472,BILL BRAGA,(707) 823‐8061,,2022/07/21 00:00:00+00,https://www.ci.sebastopol.ca.us/City-Government/Departments-Services/Fire,LNU,19196.4239715757,4861168.87169038
929,SONOMA,49203,SCY,SONOMA COUNTY FIRE DISTRICT,8200 OLD REDWOOD HIGHWAY,WINDSOR,95492,MARK HEINE,(707) 838‐1170,,2022/07/21 00:00:00+00,https://www.sonomacountyfd.org/,LNU,467721.758707565,715352226.886473
930,SONOMA,49200,SON,SONOMA VALLEY FIRE DISTRICT,630 2ND STREET WEST,SONOMA,95476,STEPHEN AKRE,(707) 933‐2300,,2022/07/21 00:00:00+00,https://www.sonomavalleyfire.org/,LNU,90645.5334832109,147993927.567864
931,SONOMA,,,SOTOYOME VFC,,,,,,,2022/07/21 00:00:00+00,,LNU,91286.6283771126,166994998.007094
932,SONOMA,49225,TIM,TIMBER COVE VFC,30800 SEAVIEW RD,CAZADERO,95421,ERICH LYNN,(707) 847‐3299,,2022/07/21 00:00:00+00,https://www.timbercovefire.net/,LNU,85633.5697885875,81613327.2940714
933,SONOMA,,,USCG TRAINING CENTER PETALUMA FD,,,,,,,2022/07/21 00:00:00+00,https://www.forcecom.uscg.mil/Our-Organization/FORCECOM-UNITS/TraCen-Petaluma/,LNU,7855.34941766389,2833867.66963324
934,TULARE,54555,TUU,CDF‐TULARE COUNTY,1968 S LOVERS LN,VISALIA,93292,ANDY TURNER,(559) 732‐5954,,2023/02/13 00:00:00+00,https://tularecounty.ca.gov/fire/,TUU,875826.217827459,5953847169.03551
935,TULARE,54010,DIN,DINUBA FD,496 E TULARE ST,DINUBA,93618,JORDAN WEBSTER,(559) 591‐5931,,2023/02/13 00:00:00+00,https://www.dinuba.org/departments/fire-department,TUU,25705.3851086332,17006721.0503545
936,TULARE,54015,EXE,EXETER FD,137 NORTH F ST,EXETER,93221,WES GRIM,(559) 592‐3714,,2023/02/13 00:00:00+00,https://cityofexeter.com/fire/,TUU,16805.3551298553,6323169.44638793
937,TULARE,54005,FMV,FARMERSVILLE FD,909 W VISALIA RD,FARMERSVILLE,93223,JAMES THOMAS,(559) 747‐0791,,2023/02/13 00:00:00+00,https://www.cityoffarmersville-ca.gov/154/Fire-Department,TUU,17895.1161860953,5869613.90891912
938,TULARE,54020,LNS,LINDSAY DEPT OF PUBLIC SAFETY,PO BOX 369,LINDSAY,93247,RICK CARRILLO,(559) 562‐2511,,2023/02/13 00:00:00+00,https://www.lindsay.ca.us/public-safety,TUU,19743.0297503206,7030846.85554003
939,TULARE,54035,PVL,PORTERVILLE FD,40 W CLEVELAND,PORTERVILLE,93257,DAVE LAPERE,(559) 782‐7526,,2023/02/13 00:00:00+00,https://www.ci.porterville.ca.us/departments/fire/index.php,TUU,108999.789495006,48010072.7675669
940,TULARE,54040,TLR,TULARE FD,800 S BLACKSTONE ST,TULARE,93274,MICHAEL OTT,(559) 684‐4360,,2023/02/13 00:00:00+00,https://www.tulare.ca.gov/government/departments/fire,TUU,65247.2363999756,52930614.0369321
941,TULARE,54045,VSA,VISALIA FD,420 N BURKE ST,VISALIA,93292,DAN GRISWOLD,(559) 713‐4266,,2023/02/13 00:00:00+00,https://www.visalia.city/depts/fire/default.asp,TUU,106630.260388391,99223970.5231678
942,TULARE,54065,WLF,WOODLAKE FPD,216 E NARANJO BLVD,WOODLAKE,93286,JOSE PEREZ,(559) 564‐2181,,2023/02/13 00:00:00+00,https://www.woodlakefire.org/,TUU,23502.5807888348,8482724.82522985
943,TULARE,54053,TIA,TULE RIVER FD,299 S. RESERVATION RD,PORTERVILLE,93257,AARON FRANCO,(559) 784‐1590,,2023/02/13 00:00:00+00,https://tulerivertribe-nsn.gov/departments/fire-deparment/,TUU,69213.0457879562,218222673.690695
944,SHASTA,45040,FAL,FALL RIVER VALLEY FPD,PO BOX 670,MCARTHUR,96056,JEFFREY J. OLDSON,(530) 336‐5026,,2023/02/15 00:00:00+00,https://www.frvfire.org/,SHU,121470.968571468,226378974.368013
945,INYO,14015,BSH,BISHOP FD,PO BOX 1236,BISHOP,93515,JOE DELL,(760) 873‐5485,,2022/12/20 00:00:00+00,https://www.cityofbishop.com/departments/fire/index.php,BDU,71141.0652331073,32993823.4600962
946,INYO,14025,IDP,INDEPENDENCE FPD,P.O. DRAWER B,INDEPENDENCE,93526,JOE CAPPELLO,(760) 878‐2113,,2022/12/20 00:00:00+00,,BDU,55113.7871326768,40285168.6019317
947,INYO,14035,LPN,LONE PINE VFD,PO BOX 1007,LONE PINE,93545,LEROY KRITZ,(760) 876‐4626,,2022/12/20 00:00:00+00,,BDU,40567.0763406567,34303042.4947926
948,INYO,14040,OLC,OLANCHA‐CARTAGO FD,PO BOX 64,OLANCHA,93549,CHARLES STEWART,(760) 764‐2370,,2022/12/20 00:00:00+00,https://www.olanchafd.org/,BDU,51756.1240812548,93560733.674147
949,INYO,14042,TSH,SOUTHERN INYO FPD,PO BOX 51,TECOPA,92389,DANIEL MACBROHN,(760) 852‐4130,,2022/12/20 00:00:00+00,,BDU,304514.960009328,3598239051.93905
950,INYO,14005,BGP,BIG PINE FPD,PO BOX 382,BIG PINE,93513,DAMON CARRINGTON,(760) 938‐2600,,2022/12/20 00:00:00+00,https://bigpinefire.specialdistrict.org/,BDU,30665.6545226979,54830875.0983249
951,MARIN,21045,SOM,SOUTHERN MARIN FPD,308 REED BLVD,MILL VALLEY,94941,CHRIS TUBBS,(415) 388‐8182,,2018/06/21 00:00:00+00,https://www.smfd.org/,MRN,47744.1206427863,21017689.0972646
952,MARIPOSA,22025,MPA,MARIPOSA CFD,PO BOX 162,MARIPOSA,95338,MIKE VAN LOBEN SELS,(209) 966‐4330,,2022/03/23 00:00:00+00,http://www.mariposacounty.org/76/Fire-Department,MMU,357800.706415166,3782717592.43306
953,MARIPOSA,22045,MRI,MARIPOSA PUD,PO BOX 494,MARIPOSA,95338,MIKE VAN LOBEN SELS,(209) 966‐2515,,2022/03/23 00:00:00+00,https://www.mariposapud.org/,MMU,11485.2772578312,3865024.23350729
954,STANISLAUS,50070,WLA,WOODLAND AVE FPD,3300 WOODLAND AVE,MODESTO,95358,MIKE PASSALAQUA,(209) 524‐4239,,2023/01/06 00:00:00+00,,TCU,75698.7410188296,115435737.827999
955,STANISLAUS,50045,BRB,BURBANK PARADISE FPD,1313 BEVERLY DR,MODESTO,95351,PETER J. GOLLING,(209) 523‐1129,,2023/01/06 00:00:00+00,https://bpfire.com/,TCU,29171.9303661526,6809409.09095063
956,STANISLAUS,50120,TRL,TURLOCK RURAL FPD,690 W CANAL DR,TURLOCK,95380,SCOTT MURPHY,(209) 632‐3953,,2023/01/06 00:00:00+00,http://www.turlockruralfire.org/,TCU,64642.018636354,-49639909.6683774
957,STANISLAUS,50150,KEY,KEYES FPD,P.O. BOX 827,KEYES,95328,ROYJINDAR (RAJ) SINGH,(209) 634‐7690,,2023/01/06 00:00:00+00,https://www.keyesfire.com/,TCU,36830.5543811164,56856484.4479206
958,STANISLAUS,50115,MVW,MOUNTAIN VIEW FPD,9633 CROWS LANDING RD,CROWS LANDING,95313,KEVIN BLOUNT,(209) 634‐4766,,2023/01/06 00:00:00+00,https://www.mountainview.gov/depts/fire/default.asp,TCU,58892.3204659986,125567516.011389
959,STANISLAUS,,,OAKDALE CITY FIRE DEPARTMENT,,,,,,,2023/01/06 00:00:00+00,https://www.oakdalegov.com/fire-department,TCU,36927.6745629261,15770637.9146875
960,STANISLAUS,,,CERES FIRE PROTECTION DISTRICT,,,,,,,2023/01/06 00:00:00+00,,TCU,30041.8700961304,-9890161.471224
961,STANISLAUS,50015,DEN,DENAIR FPD,PO BOX 262,DENAIR,95316,AARON MUNDELLO,(209) 632‐5032,,2023/01/06 00:00:00+00,https://denairfire.com/,TCU,52189.986622061,90559103.038751
962,STANISLAUS,50110,TUR,TURLOCK FD,244 N. BROADWAY,TURLOCK,95380,CHRIS JELINEK,(209) 668‐5580,,2023/01/06 00:00:00+00,https://www.cityofturlock.org/firedepartment/,TCU,48876.6347164577,-43716302.3213161
963,STANISLAUS,50005,CES,CERES CITY FIRE DEPARTMENT,,,,,,"On June 14, 2021, the Ceres City Council approved contract with Modesto for fire services.",2023/01/06 00:00:00+00,https://www.ci.ceres.ca.us/173/Fire,TCU,37496.8429743531,-24607342.4617411
964,STANISLAUS,,,OAKDALE RURAL FIRE PROTECTION DISTRICT,,,,,,,2023/01/06 00:00:00+00,https://www.oakdalefireprotectiondistrict.org/,TCU,197516.840909554,838589588.044082
965,STANISLAUS,50060,SLA,SALIDA FPD,PO BOX 1335,SALIDA,95368,PATRICK BURNS,(209) 545‐0365,,2023/01/06 00:00:00+00,,TCU,86758.6259443699,-108160372.6705
966,STANISLAUS,50065,WPF,WESTPORT FPD,5160 S CARPENTER RD,MODESTO,95380,CHAD HACKETT,(209) 537‐1391,,2023/01/06 00:00:00+00,,TCU,61413.9628164196,105129928.347495
967,STANISLAUS,,,INDUSTRIAL FIRE PROTECTION DISTRICT,,,,,,,2023/01/06 00:00:00+00,,TCU,40061.1337894328,7875696.84416581
968,STANISLAUS,50030,HGS,HUGHSON FPD,PO BOX 37,HUGHSON,95326,SCOTT BERNER,(209) 883‐2863,,2023/01/06 00:00:00+00,https://hughsonfire.com/,TCU,45740.8473177402,-79952244.7403739
969,STANISLAUS,50100,WSF,WEST STANISLAUS FPD,PO BOX 565,PATTERSON,95363,JEFF GREGORY,(209) 895‐8130,,2023/01/06 00:00:00+00,https://www.weststanfire.org/,SCU,260683.047993349,-1576808571.84412
970,STANISLAUS,50130,PAT,PATTERSON CITY FD,344 W LA PALMAS AVE,PATTERSON,95363,JEFF GREGORY,(209) 895‐8130,,2023/01/06 00:00:00+00,https://www.ci.patterson.ca.us/214/Fire-Department,SCU,30372.5955942322,16153933.8997337
971,STANISLAUS,50080,NWM,NEWMAN FD,1162 N STREET,NEWMAN,95360,KEITH BOWEN,(209) 862‐1716,,2023/01/06 00:00:00+00,https://www.cityofnewman.com/contact-us/fire-department.html,SCU,18443.2764656434,-5764407.35403683
972,STANISLAUS,50040,MST,MODESTO FD,409 12TH STREET,MODESTO,95354,ALAN ERNST,(209) 572‐9590,,2023/01/06 00:00:00+00,https://www.modestogov.com/149/Fire-Department,TCU,130087.579865705,-96168222.1652245
973,STANISLAUS,50075,SSL,STANISLAUS CONSOLIDATED FPD,3324 TOPEKA STREET,RIVERBANK,95367,TIM TIETJEN,(209) 869‐7470,,2023/01/06 00:00:00+00,https://www.scfpd.us/,TCU,189140.826628553,560461731.32948
974,SOLANO,48055,CFD,CORDELIA FD,2155 CORDELIA RD,FAIRFIELD,94534,DAVE CARPENTER,(707) 864‐0468,,2023/02/17 00:00:00+00,https://www.cordeliafire.org/,LNU,134927.001692237,149300500.59353
975,SOLANO,,,EAST VALLEJO FIRE DISTRICT,,,,,,"""The East Vallejo Fire Protection District was
established for the purpose of disbursing special
assessment revenues collected within the District’s
jurisdiction to the City of Vallejo through a contract for fire protection services to its city""",2023/02/17 00:00:00+00,,LNU,11496.5213619136,1723312.47369738
976,SOLANO,48005,BNC,BENICIA FD,250 EAST L STREET,BENICIA,94510,JOSH CHADWICK,(707) 746‐4275,,2023/02/17 00:00:00+00,https://www.ci.benicia.ca.us/fire,LNU,34711.8341322838,36560255.754797
977,SOLANO,48070,VLJ,VALLEJO FD,970 NIMITZ AVENUE,VALLEJO,94592,KYLE LONG,(707) 648‐4526,,2023/02/17 00:00:00+00,https://vallejoca.hosted.civiclive.com/our_city/departments_divisions/fire_department,LNU,74686.8191412636,176182196.766164
978,SOLANO,48040,RVS,RIO VISTA FD,350 MAIN ST,RIO VISTA,94571,SCOTT GOODWIN,(707) 374‐2233,,2023/02/17 00:00:00+00,https://www.riovistacity.com/fire,LNU,27821.6108434211,17900538.3381127
979,SOLANO,48050,SUC,SUISUN CITY FD,621 PINTAIL DR,SUISUN CITY,94585,GREG RENUCCI,(707) 421‐7205,,2023/02/17 00:00:00+00,https://www.suisun.com/departments/fire-department/,LNU,26051.9072849215,10404536.809332
980,SOLANO,48555,LNU,CDF‐SOLANO COUNTY,1199 BIG TREE RD,ST HELENA,94574,MIKE MARCUCCI,(707) 963‐3601,,2023/02/17 00:00:00+00,https://www.fire.ca.gov/,LNU,46568.4927398499,39956588.4322896
981,SOLANO,48030,SUI,SUISUN FPD,445 JACKSON ST,FAIRFIELD,94533,ALFRED ABRUZZINI,(707) 425‐3605,,2023/02/17 00:00:00+00,,LNU,213756.686606406,412248941.711195
982,SOLANO,,,TRAVIS AFB,,,,,,,2023/02/17 00:00:00+00,https://www.travis.af.mil/,LNU,44152.3799785811,25799059.2587603
983,SOLANO,48090,MTZ,MONTEZUMA FPD,21 N 4TH ST,RIO VISTA,94571,MICHAEL O'CONNOR,(707) 374‐5962,,2023/02/17 00:00:00+00,https://montezumafiredistrict.com/,LNU,136671.984885157,496154489.170836
984,SOLANO,48065,VVF,VACAVILLE FPD,420 VINE ST,VACAVILLE,95688,HOWARD WOOD,(707) 447‐2252,,2023/02/17 00:00:00+00,https://www.vfpd.net/,LNU,170936.60644332,293370772.470311
985,SOLANO,48015,DIX,DIXON FD,205 FORD WY,DIXON,95620,TODD MCNEAL,(707) 678‐7060,,2023/02/17 00:00:00+00,https://www.cityofdixon.us/departments/Fire,LNU,35257.072973824,18754055.6211994
986,SOLANO,48060,VAC,VACAVILLE FD,650 MERCHANT ST,VACAVILLE,95688,KRIS CONCEPCION,(707) 449‐5100,,2023/02/17 00:00:00+00,https://www.ci.vacaville.ca.us/government/fire-department?locale=en,LNU,78042.9002647693,77387018.7169259
987,SOLANO,,,DIXON FIRE PROTECTION DISTRICT,,,,,,,2023/02/17 00:00:00+00,https://www.cityofdixon.us/departments/Fire/DixonFireProtectionDistrict,LNU,159936.521974738,512953010.606776
988,SOLANO,48025,FRF,FAIRFIELD FD,1200 KENTUCKY STREET,FAIRFIELD,94533,MATTHEW LUCKENBACH,(707) 428‐7375,,2023/02/17 00:00:00+00,https://www.fairfield.ca.gov/government/city-departments/fire?locale=en,LNU,110256.69021887,88185246.1569277
989,SANTA CLARA,43555,SCU,CDF‐SANTA CLARA COUNTY,15670 S MONTEREY RD,MORGAN HILL,95037,GEORGE HUANG,(408) 472‐1600,,2023/02/21 00:00:00+00,https://www.fire.ca.gov/,SCU,536138.349845811,2079620435.38305
990,SANTA CLARA,43010,GIL,GILROY FD,7070 CHESTNUT ST,GILROY,95020,JIM WYATT,(408) 846‐0370,,2023/02/21 00:00:00+00,https://www.cityofgilroy.org/165/Fire-Department,SCU,59334.7018796274,42887739.534029
991,SANTA CLARA,43030,MLP,MILPITAS FD,777 SOUTH MAIN ST,MILPITAS,95035,BRIAN SHERRARD,(408) 586‐2800,,2023/02/21 00:00:00+00,https://www.milpitas.gov/milpitas/departments/fire/,SCU,43099.8432161644,36190736.0949853
992,SANTA CLARA,43810,MOF,NASA AMES RESEARCH CENTER FD,580 ZOOK RD,MOFFETT FIELD,94035,MICHAEL HULCY,(650) 604‐4730,,2023/02/21 00:00:00+00,http://www.yourfiredepartment.org/MOF/NASA_Ames_Fire_Department.html,SCU,15227.8359683479,6756597.47445792
993,SANTA CLARA,43040,MRG,MORGAN HILL FD,15670 MONTEREY RD,MORGAN HILL,95037,GEORGE HUANG,(408) 779‐2121,,2023/02/21 00:00:00+00,https://www.morganhill.ca.gov/445/Fire,SCU,92715.103614501,103557486.073529
994,SANTA CLARA,43050,MTV,MOUNTAIN VIEW FD,1000 VILLA ST,MOUNTAIN VIEW,94041,JUAN DIAZ,(650) 903‐6856,,2023/02/21 00:00:00+00,https://www.mountainview.gov/depts/fire/default.asp,SCU,43212.9689246482,39591722.5423906
995,SANTA CLARA,43060,PAF,PALO ALTO FD,P.O. BOX 10250,PALO ALTO,94303,GEO BLACKSHIRE,(650) 329‐2184,,2023/02/21 00:00:00+00,https://www.cityofpaloalto.org/Departments/Fire,SCU,94819.0860591937,85182424.6898442
996,SANTA CLARA,43070,SJS,SAN JOSE FD,1661 SENTER ROAD,SAN JOSE,95112,ROBERT SAPIEN,(408) 794‐7000,,2023/02/21 00:00:00+00,https://www.sanjoseca.gov/your-government/departments-offices/fire-department,SCU,307605.79804993,538552326.279839
997,SANTA CLARA,43090,SNC,SANTA CLARA FD,777 BENTON ST,SANTA CLARA,95050,RUBEN TORRES,(408) 615‐4900,,2023/02/21 00:00:00+00,https://www.santaclaraca.gov/our-city/departments-a-f/fire-department,SCU,45845.3810018315,47150233.706807
998,SANTA CLARA,43080,CNT,SANTA CLARA CFD,14700 WINCHESTER BLVD,LOS GATOS,95032,SUWANNA L. KERDKAEW,(408) 378‐4010,,2023/02/21 00:00:00+00,https://www.sccfd.org/,SCU,179477.975615082,341963469.872207
999,SANTA CLARA,43105,SNY,SUNNYVALE DPS FD,700 ALL AMERICA WAY,SUNNYVALE,94086,PHAN S. NGO,(408) 730‐7100,,2023/02/21 00:00:00+00,https://www.sunnyvale.ca.gov/your-government/departments/public-safety,SCU,59595.2528214719,58419363.3597306
1000,FRESNO,10030,FRN,FRESNO FD,911 H STREET,FRESNO,93721,KERRI L. DONIS,(559) 621‐4000,,2022/02/14 00:00:00+00,https://www.fresno.gov/fire/,FKU,222937.353429622,333070272.249406
1001,SISKIYOU,47555,SKU,CDF‐SISKIYOU COUNTY,PO BOX 128,YREKA,96097,DARRYL LAWS,(530) 842‐3516,,2023/02/27 00:00:00+00,https://www.fire.ca.gov/,SKU,2280230.89490794,13570288016.6399
1002,SIERRA,46005,DWN,DOWNIEVILLE FPD,PO BOX 25,DOWNIEVILLE,95936,LEE BROWN,(530) 289‐0213,,2014/12/01 00:00:00+00,https://downievillefire.specialdistrict.org/,NEU,114060.271042153,458967405.303379
1003,SIERRA,46012,PRS,PLIOCENE RIDGE CSD,100 PIKE CITY RD,PIKE,95960,CHRIS DORN,(530) 288‐0624,,2014/12/01 00:00:00+00,https://www.plioceneridge.org/,NEU,121079.772973376,308551890.083918
1004,SIERRA,46015,SRA,SIERRA CITY FD,PO BOX 257,SIERRA CITY,96125,SCOTT HALL,(530) 862‐1297,,2014/12/01 00:00:00+00,,NEU,93413.7746083637,285416676.32271
1005,SIERRA,46020,SER,SIERRA CO FPD 1,PO BOX 5,SIERRAVILLE,96126,JERRY MC CAFFREY,(530) 994‐3387,,2014/12/01 00:00:00+00,https://www.sierracountyfireprotectiondistrict1.org/,NEU,178543.160637961,804839173.339521
1006,SIERRA,46010,LOY,LOYALTON FD,PO BOX 128,LOYALTON,96118,SHAWN HEYWOOD,(530) 993‐6751,Direct service contract with Sierra County FPD 1,2014/12/01 00:00:00+00,https://www.sierracountyfireprotectiondistrict1.org/loyalton-fire-department-direct-service-contract,NEU,4033.49394848091,892388.89082251
1007,SAN DIEGO,37005,ACP,ALPINE FPD,1364 TAVERN ROAD,ALPINE,91901,BRIAN BOGGELN,(619) 445‐2635,,2023/03/09 00:00:00+00,https://www.alpinefire.org/,SDU,56482.3706043516,73311998.3224837
1008,SAN DIEGO,37007,BBB,BARONA FD,1112 BARONA RD,LAKESIDE,92040,KEN KREMENSKY,(619) 390‐2794,,2023/03/09 00:00:00+00,,SDU,46179.9671372648,29094529.7121182
1009,SAN DIEGO,37010,BON,BONITA SUNNYSIDE FPD,4900 BONITA RD,BONITA,91902,MIKE SIMS,(619) 479‐2346,,2023/03/09 00:00:00+00,https://bonitafd.org/,SDU,48788.1749157513,19185377.0390335
1010,SAN DIEGO,37015,BGO,BORREGO SPRINGS FPD,PO BOX 9,BORREGO SPRINGS,92004,JOHN HARDCASTLE,(760) 767‐5436,,2023/03/09 00:00:00+00,https://borrego-fire.org/,SDU,136970.302133528,804551713.424582
1011,SAN DIEGO,,CBK,CAMPO RESERVATION,,,,,,,2023/03/09 00:00:00+00,http://www.campo-nsn.gov/home.html,SDU,69344.4563177516,63428217.1078016
1012,SAN DIEGO,, ,CAPITAN GRANDE RESERVATION,,,,,,,2023/03/09 00:00:00+00,https://www.kumeyaay.com/capitan-grande-band-of-indians.html,SDU,92824.1213123104,63130024.1931407
1013,SAN DIEGO,37025,CBD,CARLSBAD FD,2560 ORION WY,CARLSBAD,92008,MICHAEL CALDERWOOD,(442) 339‐2141,,2023/03/09 00:00:00+00,https://www.carlsbadca.gov/departments/fire,SDU,56251.593877334,100782634.296577
1014,SAN DIEGO,37030,CHV,CHULA VISTA FD,"276 4TH AVE, BLDG C",CHULA VISTA,91910,HARRY MUNS,(619) 409‐5837,,2023/03/09 00:00:00+00,https://www.chulavistaca.gov/departments/fire-department,SDU,98852.0210745503,134724310.822007
1015,SAN DIEGO,37045,CRD,CORONADO FD,1001 SIXTH ST,CORONADO,92118,MIKE BLOOD,(619) 522‐7374,,2023/03/09 00:00:00+00,https://www.coronado.ca.us/218/Fire-Services,SDU,40110.967571664,36893347.3236024
1016,SAN DIEGO,, ,CUYAPAIPE RESERVATION,,,,,,,2023/03/09 00:00:00+00,https://www.kumeyaay.com/cuyapaipe-reservation.html,SDU,27511.9054915126,22414620.3535899
1017,SAN DIEGO,37148,DSF,DEER SPRINGS FPD,8709 CIRCLE R DR,ESCONDIDO,92026,TONY MECHAM,(760) 749‐8001,,2023/03/09 00:00:00+00,http://www.deerspringsfire.org/,SDU,83437.3011005205,114430946.343484
1018,SAN DIEGO,37050,DMR,DEL MAR FD,1050 CAMINO DEL MAR,DEL MAR,92014,MIKE STEIN,(858) 755‐9313,,2023/03/09 00:00:00+00,https://www.delmar.ca.us/134/Fire-Department,SDU,12539.0761462401,4632082.73567321
1019,SAN DIEGO,37084,HRT,HEARTLAND FIRE & RESCUE,100 E. LEXINGTON AVE,EL CAJON,92020,STEVEN SWANEY,(619) 441‐1601,,2023/03/09 00:00:00+00,https://www.heartlandfire.org/,SDU,115303.610329097,71156498.4060407
1020,SAN DIEGO,37065,ENC,ENCINITAS FPD,505 S VULCAN AVE,ENCINITAS,92024,MICHAEL STEIN,(760) 633‐2800,,2023/03/09 00:00:00+00,https://www.encinitasca.gov/Government/Departments/Public-Safety,SDU,49305.8603030476,50744877.4585438
1021,SAN DIEGO,37070,ESC,ESCONDIDO FD,1163 N. CENTRE CITY PKWY,ESCONDIDO,92026,RICK VOGT,(760) 839‐5401,,2023/03/09 00:00:00+00,https://fire.escondido.org/,SDU,170338.448648341,96675693.2662746
1022,SAN DIEGO,37085,IMB,IMPERIAL BEACH FD,865 IMPERIAL BEACH BLVD,IMPERIAL BEACH,91932,JOHN FRENCH,(619) 423‐8223,,2023/03/09 00:00:00+00,https://www.imperialbeachca.gov/157/Fire-Department,SDU,17630.9247877638,11491862.4344838
1023,SAN DIEGO,, ,INAJA AND COSMIT RESERVATION,,,,,,,2023/03/09 00:00:00+00,,SDU,10297.4967620551,3274090.68883888
1024,SAN DIEGO,, ,JAMUL INDIAN VILLAGE,,,,,,,2023/03/09 00:00:00+00,https://jamulindianvillage.com/,SDU,983.81759478969,25267.3340495011
1025,SAN DIEGO,37094,LJR,LA JOLLA RESERVATION FD,22000 HWY 76,TAUMA VALLEY,92061,WESLEY RUISE,(760) 742‐3771,,2023/03/09 00:00:00+00,,SDU,45724.684085333,35951064.3261965
1026,SAN DIEGO,, ,LA POSTA RESERVATION,,,,,,,2023/03/09 00:00:00+00,,SDU,24255.2468849191,15123899.4051628
1027,SAN DIEGO,37090,LKS,LAKESIDE FPD,12216 LAKESIDE AVE,LAKESIDE,92040,DONALD H. BUTZ,(619) 390‐2350,,2023/03/09 00:00:00+00,https://lakesidefire.org/,SDU,82674.7465659245,130851219.568193
1028,SAN DIEGO,, ,LOS COYOTES RESERVATION,,,,,,,2023/03/09 00:00:00+00,https://www.loscoyotestribe.org/,SDU,56012.1283348327,100321938.323715
1029,SAN DIEGO,, ,LOWER SWEETWATER FPD,,,,,,,2023/03/09 00:00:00+00,https://sites.google.com/site/lsfpdistrict/,SDU,10846.9831463223,1132859.89889111
1030,SAN DIEGO,, ,MANZANITA RESERVATION,,,,,,,2023/03/09 00:00:00+00,,SDU,23796.5225062166,18416823.5425275
1031,SAN DIEGO,,MGR,MESA GRANDE RESERVATION,,,,,,,2023/03/09 00:00:00+00,https://www.mesagrandeband-nsn.gov/tribal-government/,SDU,28195.6816421119,7418409.07834192
1032,SAN DIEGO,37110,NAT,NATIONAL CITY FD,1243 NATIONAL CITY BLVD,NATIONAL CITY,91950,SERGIO MORA,(610) 336‐4551,,2023/03/09 00:00:00+00,https://www.nationalcityca.gov/government/fire,SDU,55345.2471350983,23976517.7656993
1033,SAN DIEGO,,NCF,NORTH COUNTY FPD,,,,,,,2023/03/09 00:00:00+00,https://www.ncfire.org/,SDU,83656.4975587951,223712488.867378
1034,SAN DIEGO,37115,OCS,OCEANSIDE FD,300 N. COAST HWY,OCEANSIDE,92054,DAVID PARSONS,(760) 435‐4100,,2023/03/09 00:00:00+00,https://fire.ci.oceanside.ca.us/home-fire,SDU,75127.0859477482,109321422.472089
1035,SAN DIEGO,37113,PAL,PALA FD,34884 LILAC EXTENSION ROAD,PALA,92059,ANTHONY RAVAGO,(760) 742‐1632,,2023/03/09 00:00:00+00,http://www.palatribe.com/public-safety/pala-fire-department/,SDU,92428.6969578158,54342344.4355806
1036,SAN DIEGO,37215,PYR,PAUMA RESERVATION FIRE,PO BOX 369,PAUMA VALLEY,92061,MICHAEL LINTON,(760) 742‐1289,,2023/03/09 00:00:00+00,https://www.paumatribe.com/directory/fire-department/,SDU,53437.0317625361,29539998.3051558
1037,SAN DIEGO,,PFD,PECHANGA RESERVATION,,,,,,,2023/03/09 00:00:00+00,https://www.pechanga-nsn.gov/,SDU,3997.7593805043,369408.250744406
1038,SAN DIEGO,,MCP,CAMP PENDLETON,,,,,,,2023/03/09 00:00:00+00,https://www.pendleton.marines.mil/,SDU,108442.402539814,540491915.681777
1039,SAN DIEGO,,PWY,POWAY FD,13325 CIVIC CENTER DRIVE,POWAY,92074,JEFF CHUMBLEY,(858) 668‐4460,,2023/03/09 00:00:00+00,https://poway.org/194/Fire-Department,SDU,64589.5550785955,101358580.357197
1040,SAN DIEGO,37135,RSF,RANCHO SANTA FE FPD,PO BOX 410,RANCHO SANTA FE,92067,DAVE MCQUEAD,(858) 756‐5971,,2023/03/09 00:00:00+00,https://www.rsf-fire.org/,SDU,101669.452252554,124874961.608739
1041,SAN DIEGO,37219,RCR,RINCON FD,33485 VALLEY CENTER RD,VALLEY CENTER,92082,CHIP DUNCAN,(760) 297‐2300,,2023/03/09 00:00:00+00,https://www.rinconfire.org/,SDU,30767.5993011911,18673892.4777393
1042,SAN DIEGO,,ESC,RINCON DEL DIABLO MWD,,,,,,,2023/03/09 00:00:00+00,https://rinconwater.org/,SDU,85243.9429182714,26747243.2315379
1043,SAN DIEGO,37140,SND,SAN DIEGO FIRE AND RESCUE DEPT,"600 B STREET, STE 1300",SAN DIEGO,92101,COLIN STOWELL,(619) 533‐4300,,2023/03/09 00:00:00+00,https://www.sandiego.gov/fire,SDU,368371.800494847,886898788.794773
1044,SAN DIEGO,37145,SMC,SAN MARCOS FD,1 CIVIC CENTER DRIVE,SAN MARCOS,92069,DANIEL BARRON,(760) 744‐1050,,2023/03/09 00:00:00+00,https://www.san-marcos.net/departments/public-safety/fire-department,SDU,76798.5020723121,84769027.7375522
1045,SAN DIEGO,37165,SMG,SAN MIGUEL CONSILIDATED FPD,2850 VIA ORANGE WY,SPRING VALLEY,91978,CRISS BRAINARD,(619) 670‐0500,,2023/03/09 00:00:00+00,https://www.sanmiguelfire.org/,SDU,149500.965158686,123383404.04699
1046,SAN DIEGO,37152,SPI,SAN PASQUAL RESERVATION FD,16460 KUMEYAAY WAY,VALLEY CENTER,92563,HAROLD RODRIGUEZ,(760) 749‐7542,,2023/03/09 00:00:00+00,https://www.sanpasqualbandofmissionindians.org/departments/fire-department,SDU,36429.8496102305,7972749.26355398
1047,SAN DIEGO,37151,RFB,SANTA YSABEL RESERVATION SYRFD,P.O. BOX 558,SANTA YSABEL,92070,DAVID A. MARKS,(760) 765‐3880,,2023/03/09 00:00:00+00,,SDU,72477.5453730468,62116816.944501
1048,SAN DIEGO,37150,SNT,SANTEE FD,10601 MAGNOLIA AVE,SANTEE,92071,JOHN GARLOW,(619) 258‐4100,,2023/03/09 00:00:00+00,https://www.cityofsanteeca.gov/government/fire-department-1744,SDU,44908.3718317058,43241494.0196739
1049,SAN DIEGO,,SDF,SAN DIEGO COUNTY FPD,5510 OVERLAND AVE #250,SAN DIEGO,92123,TONY MECHAM,(619) 590‐3100,,2023/03/09 00:00:00+00,https://www.sandiegocounty.gov/sdcfa/,SDU,1344313.63644742,6229935502.67003
1050,SAN DIEGO,37160,SOL,SOLANA BEACH FD,635 S. HWY. 101,SOLANA BEACH,92075,MIKE STEIN,(858) 720‐2431,,2023/03/09 00:00:00+00,https://www.cityofsolanabeach.org/en/community/public-safety/fire-department,SDU,14598.3404090755,8873670.10963625
1051,SAN DIEGO,37224,SYC,SYCUAN FD,5449 SYCUAN RD,EL CAJON,92019,ZACHARY CARILLO,(619) 445‐2893,,2023/03/09 00:00:00+00,http://www.sycuanfire.com/,SDU,37785.3281226698,8982371.65175342
1052,SAN DIEGO,,,UNSERVED,,,,,,,2023/03/09 00:00:00+00,,SDU,45330.418511421,7563896.51192414
1053,SAN DIEGO,37175,VCF,VALLEY CENTER FPD,28234 LILAC ROAD,VALLEY CENTER,92082,JOSEF NAPIER,(760) 751‐7600,,2023/03/09 00:00:00+00,https://www.valleycenterfire.com/,SDU,143517.569373098,210518831.778759
1054,SAN DIEGO,37235,VJS,VIEJAS FD,19854 VIEJAS GRADE ROAD,ALPINE,91901,BOB PFOHL,(619) 445‐7772,,2023/03/09 00:00:00+00,https://viejasbandofkumeyaay.org/modern-government/viejas_fire_department/,SDU,15883.2453661796,6842020.79441856
1055,SAN DIEGO,37170,VTA,VISTA FD AND FPD,200 CIVIC CENTER DR,VISTA,92084,NED VANDER POL,(760) 726‐1340,,2023/03/09 00:00:00+00,https://www.cityofvista.com/departments/fire-department,SDU,72732.5868585024,91942030.1509874
