x,y,objectid,precinctname,pollingid,namevalue,fulladd,operhours,handicap,nextelect,regdate,contact,phone,email,indist,bldgtype,scalevalue,regelectinfo,createduser,createddate,lastediteduser,lastediteddate,city,statevalue
12141437.0265617,3427053.4933849,1057.0,CAVP,1.0,Voter Registrar Office,411 Cedar Rd,8:00 a.m. to 5:00 p.m. M-F during Absentee Voting,YES,2023/11/07 00:00:00+00,2023/10/16 00:00:00+00,Chesapeake's Voter Registrar's Office,757-277-9797,mlpinkerman@cityofchesapeake.net,YES,City,500.0,http://tinyurl.com/mbc8uqj,COC,2019/03/07 19:40:57+00,PTRIMBLE,2023/08/03 20:02:20+00,Chesapeake,VA
12132415.5511266,3428809.57192454,1059.0,Bridgetown,37.0,The Mount,215 Las Gaviotas Blvd,6:00 a.m. to 7:00 p.m.,YES,2023/11/07 00:00:00+00,2023/10/16 00:00:00+00,Chesapeake's Voter Registrar's Office,757-277-9797,mlpinkerman@cityofchesapeake.net,NO,Church,1000.0,http://tinyurl.com/mbc8uqj,COC,2019/03/07 19:40:57+00,PTRIMBLE,2023/08/03 20:02:13+00,Chesapeake,VA
12146232.136357,3426580.56971361,1060.0,Poplar Branch,63.0,Great Bridge Middle School,441 Battlefield Blvd S,6:00 a.m. to 7:00 p.m.,YES,2023/11/07 00:00:00+00,2023/10/16 00:00:00+00,Chesapeake's Voter Registrar's Office,757-277-9797,mlpinkerman@cityofchesapeake.net,NO,City,1000.0,http://tinyurl.com/mbc8uqj,COC,2019/03/07 19:40:57+00,PTRIMBLE,2023/08/03 20:02:50+00,Chesapeake,VA
12157982.1210772,3423528.05746406,1061.0,Fentress,62.0,Centerville AME Church,1116 Fentress Rd,6:00 a.m. to 7:00 p.m.,YES,2023/11/07 00:00:00+00,2023/10/16 00:00:00+00,Chesapeake's Voter Registrar's Office,757-277-9797,mlpinkerman@cityofchesapeake.net,YES,Church,500.0,http://tinyurl.com/mbc8uqj,COC,2019/03/07 19:40:57+00,PTRIMBLE,2023/08/03 20:02:30+00,Chesapeake,VA
12161702.220397,3421588.20988189,1062.0,Centerville,61.0,Centerville Baptist Church,914 Centerville Tpke S,6:00 a.m. to 7:00 p.m.,YES,2023/11/07 00:00:00+00,2023/10/16 00:00:00+00,Chesapeake's Voter Registrar's Office,757-277-9797,mlpinkerman@cityofchesapeake.net,YES,Church,800.0,http://tinyurl.com/mbc8uqj,COC,2019/03/07 19:40:57+00,PTRIMBLE,2023/08/03 20:02:20+00,Chesapeake,VA
12090598.0133733,3475775.67851987,1063.0,Pughsville,54.0,Taylor Bend YMCA,4626 Taylor Rd,6:00 a.m. to 7:00 p.m.,YES,2023/11/07 00:00:00+00,2023/10/16 00:00:00+00,Chesapeake's Voter Registrar's Office,757-277-9797,mlpinkerman@cityofchesapeake.net,YES,other,1000.0,http://tinyurl.com/mbc8uqj,COC,2019/03/07 19:40:57+00,PTRIMBLE,2023/08/03 20:02:52+00,Chesapeake,VA
12154394.0539641,3436493.022173,1064.0,Clearfield,59.0,Grace Community Church,872 Clearfield Ave,6:00 a.m. to 7:00 p.m.,YES,2023/11/07 00:00:00+00,2023/10/16 00:00:00+00,Chesapeake's Voter Registrar's Office,757-277-9797,mlpinkerman@cityofchesapeake.net,YES,Church,600.0,http://tinyurl.com/mbc8uqj,COC,2019/03/07 19:40:57+00,PTRIMBLE,2023/08/03 20:02:22+00,Chesapeake,VA
12134915.8382699,3439881.62158233,1065.0,Expressway,58.0,Mt Olive Church,662 Fernwood Farms Rd,6:00 a.m. to 7:00 p.m.,YES,2023/11/07 00:00:00+00,2023/10/16 00:00:00+00,Chesapeake's Voter Registrar's Office,757-277-9797,mlpinkerman@cityofchesapeake.net,NO,Church,1100.0,http://tinyurl.com/mbc8uqj,COC,2019/03/07 19:40:57+00,PTRIMBLE,2023/08/03 20:02:27+00,Chesapeake,VA
12145910.6039305,3459796.08122182,1066.0,Georgetown East,55.0,Indian River Library,2320 Old Greenbrier Rd,6:00 a.m. to 7:00 p.m.,YES,2023/11/07 00:00:00+00,2023/10/16 00:00:00+00,Chesapeake's Voter Registrar's Office,757-277-9797,mlpinkerman@cityofchesapeake.net,NO,City,600.0,http://tinyurl.com/mbc8uqj,COC,2019/03/07 19:40:57+00,PTRIMBLE,2023/08/03 20:02:32+00,Chesapeake,VA
12143158.870434,3435667.3317247,1067.0,Parkways,42.0,River Oak Church,255 Great Bridge Blvd,6:00 a.m. to 7:00 p.m.,YES,2023/11/07 00:00:00+00,2023/10/16 00:00:00+00,Chesapeake's Voter Registrar's Office,757-277-9797,mlpinkerman@cityofchesapeake.net,YES,Church,600.0,http://tinyurl.com/mbc8uqj,COC,2019/03/07 19:40:57+00,PTRIMBLE,2023/08/03 20:02:48+00,Chesapeake,VA
12148078.2119008,3469073.72342525,1068.0,Tanglewood,29.0,Elizabeth River Baptist Church,601 Sparrow Rd,6:00 a.m. to 7:00 p.m.,YES,2023/11/07 00:00:00+00,2023/10/16 00:00:00+00,Chesapeake's Voter Registrar's Office,757-277-9797,mlpinkerman@cityofchesapeake.net,YES,Church,600.0,http://tinyurl.com/mbc8uqj,COC,2019/03/07 19:40:57+00,PTRIMBLE,2023/08/03 20:02:58+00,Chesapeake,VA
12133972.5773244,3466797.65143117,1069.0,South Norfolk,30.0,Chesapeake Christian Center,300 Liberty St,6:00 a.m. to 7:00 p.m.,YES,2023/11/07 00:00:00+00,2023/10/16 00:00:00+00,Chesapeake's Voter Registrar's Office,757-277-9797,mlpinkerman@cityofchesapeake.net,NO,Church,600.0,http://tinyurl.com/mbc8uqj,COC,2019/03/07 19:40:57+00,PTRIMBLE,2023/08/03 20:02:54+00,Chesapeake,VA
12139144.8213148,3458504.47777677,1070.0,Carver School,31.0,Carver Intermediate School,2601 Broad St,6:00 a.m. to 7:00 p.m.,YES,2023/11/07 00:00:00+00,2023/10/16 00:00:00+00,Chesapeake's Voter Registrar's Office,757-277-9797,mlpinkerman@cityofchesapeake.net,YES,School,1000.0,http://tinyurl.com/mbc8uqj,COC,2019/03/07 19:40:57+00,PTRIMBLE,2023/08/03 20:02:15+00,Chesapeake,VA
12141038.4646915,3464147.74458082,1071.0,Providence,32.0,Dr Clarence Cuffee Community Center,2019 Windy Rd,6:00 a.m. to 7:00 p.m.,YES,2023/11/07 00:00:00+00,2023/10/16 00:00:00+00,Chesapeake's Voter Registrar's Office,757-277-9797,mlpinkerman@cityofchesapeake.net,YES,City,800.0,http://tinyurl.com/mbc8uqj,COC,2019/03/07 19:40:57+00,PTRIMBLE,2023/08/03 20:02:50+00,Chesapeake,VA
12136130.9218587,3449519.87556668,1072.0,Westover,33.0,Rivercrest Christian Fellowship,1510 Campostella Rd,6:00 a.m. to 7:00 p.m.,YES,2023/11/07 00:00:00+00,2023/10/16 00:00:00+00,Chesapeake's Voter Registrar's Office,757-277-9797,mlpinkerman@cityofchesapeake.net,YES,Church,500.0,http://tinyurl.com/mbc8uqj,COC,2019/03/07 19:40:57+00,PTRIMBLE,2023/08/03 20:03:01+00,Chesapeake,VA
12090778.5748989,3464855.94217192,1073.0,Bailey Creek,38.0,Western Branch Community Center,4437 Portsmouth Blvd,6:00 a.m. to 7:00 p.m.,YES,2023/11/07 00:00:00+00,2023/10/16 00:00:00+00,Chesapeake's Voter Registrar's Office,757-277-9797,mlpinkerman@cityofchesapeake.net,YES,City,600.0,http://tinyurl.com/mbc8uqj,COC,2019/03/07 19:40:57+00,PTRIMBLE,2023/08/03 20:02:08+00,Chesapeake,VA
12132946.3175499,3462668.72301383,1074.0,Johnson Park,26.0,Rena B. Wright Primary School,600 Park Ave,6:00 a.m. to 7:00 p.m.,YES,2023/11/07 00:00:00+00,2023/10/16 00:00:00+00,Chesapeake's Voter Registrar's Office,757-277-9797,mlpinkerman@cityofchesapeake.net,YES,School,600.0,http://tinyurl.com/mbc8uqj,COC,2019/03/07 19:40:57+00,PTRIMBLE,2023/08/03 20:02:41+00,Chesapeake,VA
12144455.0726662,3467377.10605879,1075.0,Oaklette,24.0,Oaklette United Methodist Church,520 Oaklette Dr,6:00 a.m. to 7:00 p.m.,YES,2023/11/07 00:00:00+00,2023/10/16 00:00:00+00,Chesapeake's Voter Registrar's Office,757-277-9797,mlpinkerman@cityofchesapeake.net,YES,Church,600.0,http://tinyurl.com/mbc8uqj,COC,2019/03/07 19:40:57+00,PTRIMBLE,2023/08/03 20:02:46+00,Chesapeake,VA
12148903.1757062,3462939.55652857,1076.0,Indian River,18.0,Sparrow Road Intermediate School,1605 Sparrow Rd,6:00 a.m. to 7:00 p.m.,YES,2023/11/07 00:00:00+00,2023/10/16 00:00:00+00,Chesapeake's Voter Registrar's Office,757-277-9797,mlpinkerman@cityofchesapeake.net,YES,School,1000.0,http://tinyurl.com/mbc8uqj,COC,2019/03/07 19:40:57+00,PTRIMBLE,2023/08/03 20:02:40+00,Chesapeake,VA
12147645.5237709,3466097.8062682,1077.0,Norfolk Highlands,22.0,Laurel Avenue Church of Christ,1126 Laurel Ave,6:00 a.m. to 7:00 p.m.,YES,2023/11/07 00:00:00+00,2023/10/16 00:00:00+00,Chesapeake's Voter Registrar's Office,757-277-9797,mlpinkerman@cityofchesapeake.net,YES,Church,600.0,http://tinyurl.com/mbc8uqj,COC,2019/03/07 19:40:57+00,PTRIMBLE,2023/08/03 20:02:45+00,Chesapeake,VA
12153142.60818,3405106.07803096,1078.0,Hickory Middle School,34.0,Hickory Middle School,1997 Hawk Blvd,6:00 a.m. to 7:00 p.m.,YES,2023/11/07 00:00:00+00,2023/10/16 00:00:00+00,Chesapeake's Voter Registrar's Office,757-277-9797,mlpinkerman@cityofchesapeake.net,YES,School,2000.0,http://tinyurl.com/mbc8uqj,COC,2019/03/07 19:40:57+00,PTRIMBLE,2023/08/03 20:02:38+00,Chesapeake,VA
12141714.5464899,3428238.10412002,1079.0,Parker Rd,60.0,Great Bridge Community Center,212 Holt Dr,6:00 a.m. to 7:00 p.m.,YES,2023/11/07 00:00:00+00,2023/10/16 00:00:00+00,Chesapeake's Voter Registrar's Office,757-277-9797,mlpinkerman@cityofchesapeake.net,NO,City,800.0,http://tinyurl.com/mbc8uqj,COC,2019/03/07 19:40:57+00,PTRIMBLE,2023/08/03 20:02:48+00,Chesapeake,VA
12146804.1293732,3424308.12035808,1080.0,Pleasant Crossing,43.0,Great Bridge United Methodist Church,201 Stadium Dr,6:00 a.m. to 7:00 p.m.,YES,2023/11/07 00:00:00+00,2023/10/16 00:00:00+00,Chesapeake's Voter Registrar's Office,757-277-9797,mlpinkerman@cityofchesapeake.net,YES,Church,800.0,http://tinyurl.com/mbc8uqj,COC,2019/03/07 19:40:57+00,PTRIMBLE,2023/08/03 20:02:49+00,Chesapeake,VA
12163571.7357655,3427706.06613158,1081.0,Hickory Grove,16.0,Butts Road Intermediate School,1571 Mount Pleasant Rd,6:00 a.m. to 7:00 p.m.,YES,2023/11/07 00:00:00+00,2023/10/16 00:00:00+00,Chesapeake's Voter Registrar's Office,757-277-9797,mlpinkerman@cityofchesapeake.net,YES,School,1000.0,http://tinyurl.com/mbc8uqj,COC,2019/03/07 19:40:57+00,PTRIMBLE,2023/08/03 20:02:38+00,Chesapeake,VA
12157490.2782476,3404619.39333294,1082.0,Indian Creek,17.0,Crossroads Community Church,2109 Centerville Tpke S,6:00 a.m. to 7:00 p.m.,YES,2023/11/07 00:00:00+00,2023/10/16 00:00:00+00,Chesapeake's Voter Registrar's Office,757-277-9797,mlpinkerman@cityofchesapeake.net,YES,Church,500.0,http://tinyurl.com/mbc8uqj,COC,2019/03/07 19:40:57+00,PTRIMBLE,2023/08/03 20:02:39+00,Chesapeake,VA
12120310.3298125,3430800.62560223,1083.0,John T. West,41.0,New Light Church,2418 Cedar Rd,6:00 a.m. to 7:00 p.m.,YES,2023/11/07 00:00:00+00,2023/10/16 00:00:00+00,Chesapeake's Voter Registrar's Office,757-277-9797,mlpinkerman@cityofchesapeake.net,YES,Church,1500.0,http://tinyurl.com/mbc8uqj,COC,2019/03/07 19:40:57+00,PTRIMBLE,2023/08/03 20:02:41+00,Chesapeake,VA
12146696.1869555,3423196.28713565,1084.0,Great Bridge Baptist Church,36.0,Great Bridge Baptist Church,"640 Battlefield Blvd, S",6:00 a.m. to 7:00 p.m.,YES,2023/11/07 00:00:00+00,2023/10/16 00:00:00+00,Chesapeake's Voter Registrar's Office,757-277-9797,mlpinkerman@cityofchesapeake.net,YES,Church,700.0,http://tinyurl.com/mbc8uqj,COC,2019/03/07 19:40:57+00,PTRIMBLE,2023/08/03 20:02:35+00,Chesapeake,VA
12112528.3508145,3440733.54136626,1085.0,Deep Creek,6.0,Deep Creek Community Center,2901 Margaret Booker Dr,6:00 a.m. to 7:00 p.m.,YES,2023/11/07 00:00:00+00,2023/10/16 00:00:00+00,Chesapeake's Voter Registrar's Office,757-277-9797,mlpinkerman@cityofchesapeake.net,YES,City,700.0,http://tinyurl.com/mbc8uqj,COC,2019/03/07 19:40:57+00,PTRIMBLE,2023/08/03 20:02:25+00,Chesapeake,VA
12093023.3190379,3453650.88367803,1086.0,Jolliff Middle School,48.0,Jolliff Middle School,1021 Jolliff Rd,6:00 a.m. to 7:00 p.m.,YES,2023/11/07 00:00:00+00,2023/10/16 00:00:00+00,Chesapeake's Voter Registrar's Office,757-277-9797,mlpinkerman@cityofchesapeake.net,YES,School,1500.0,http://tinyurl.com/mbc8uqj,COC,2019/03/07 19:40:57+00,PTRIMBLE,2023/08/03 20:02:43+00,Chesapeake,VA
12095650.0600871,3480459.51723322,1087.0,Taylor Road,35.0,Park View Christian Church,3201 Western Branch Blvd,6:00 a.m. to 7:00 p.m.,YES,2023/11/07 00:00:00+00,2023/10/16 00:00:00+00,Chesapeake's Voter Registrar's Office,757-277-9797,mlpinkerman@cityofchesapeake.net,YES,Church,600.0,http://tinyurl.com/mbc8uqj,COC,2019/03/07 19:40:57+00,PTRIMBLE,2023/08/03 20:02:58+00,Chesapeake,VA
12140180.9216573,3436767.3634287,1088.0,Oak Grove,23.0,Oscar Smith High School,1994 Tiger Dr,6:00 a.m. to 7:00 p.m.,YES,2023/11/07 00:00:00+00,2023/10/16 00:00:00+00,Chesapeake's Voter Registrar's Office,757-277-9797,mlpinkerman@cityofchesapeake.net,YES,School,1500.0,http://tinyurl.com/mbc8uqj,COC,2019/03/07 19:40:57+00,PTRIMBLE,2023/08/03 20:02:45+00,Chesapeake,VA
12136706.2067623,3439241.3786906,1090.0,River Walk,50.0,River Crest Community Center,1001 River Walk Pkwy,6:00 a.m. to 7:00 p.m.,YES,2023/11/07 00:00:00+00,2023/10/16 00:00:00+00,Chesapeake's Voter Registrar's Office,757-277-9797,mlpinkerman@cityofchesapeake.net,YES,City,600.0,http://tinyurl.com/mbc8uqj,COC,2019/03/07 19:40:57+00,PTRIMBLE,2023/08/03 20:02:52+00,Chesapeake,VA
12150445.1844555,3416385.48318253,1091.0,Cooper's Way,51.0,The Bridge Christian Fellowship,1116 Hillwell Rd,6:00 a.m. to 7:00 p.m.,YES,2023/11/07 00:00:00+00,2023/10/16 00:00:00+00,Chesapeake's Voter Registrar's Office,757-277-9797,mlpinkerman@cityofchesapeake.net,NO,Church,600.0,http://tinyurl.com/mbc8uqj,COC,2019/03/07 19:40:57+00,PTRIMBLE,2023/08/03 20:02:23+00,Chesapeake,VA
12125592.9278675,3432122.24832003,1092.0,Shipyard Road,52.0,Grassfield Baptist Church,1772 Cedar Rd,6:00 a.m. to 7:00 p.m.,YES,2023/11/07 00:00:00+00,2023/10/16 00:00:00+00,Chesapeake's Voter Registrar's Office,757-277-9797,mlpinkerman@cityofchesapeake.net,NO,Church,1000.0,http://tinyurl.com/mbc8uqj,COC,2019/03/07 19:40:57+00,PTRIMBLE,2023/08/03 20:02:53+00,Chesapeake,VA
12143029.6669188,3427610.82013538,1093.0,Great Bridge,1.0,Chesapeake Central Library,298 Cedar Rd,6:00 a.m. to 7:00 p.m.,YES,2023/11/07 00:00:00+00,2023/10/16 00:00:00+00,Chesapeake's Voter Registrar's Office,757-277-9797,mlpinkerman@cityofchesapeake.net,YES,City,600.0,http://tinyurl.com/mbc8uqj,COC,2019/03/07 19:40:57+00,PTRIMBLE,2023/08/03 20:02:34+00,Chesapeake,VA
12133044.0617269,3381117.85955496,1094.0,Bethel,2.0,Wallaceton Ruritan Club,4028 Bunch Walnuts Rd,6:00 a.m. to 7:00 p.m.,YES,2023/11/07 00:00:00+00,2023/10/16 00:00:00+00,Chesapeake's Voter Registrar's Office,757-277-9797,mlpinkerman@cityofchesapeake.net,YES,Club,500.0,http://tinyurl.com/mbc8uqj,COC,2019/03/07 19:40:57+00,PTRIMBLE,2023/08/03 20:02:13+00,Chesapeake,VA
12093428.9612903,3474202.55224046,1095.0,Churchland,4.0,New Creation United Methodist Church,4320 Bruce Rd,6:00 a.m. to 7:00 p.m.,YES,2023/11/07 00:00:00+00,2023/10/16 00:00:00+00,Chesapeake's Voter Registrar's Office,757-277-9797,mlpinkerman@cityofchesapeake.net,NO,Church,800.0,http://tinyurl.com/mbc8uqj,COC,2019/03/07 19:40:57+00,PTRIMBLE,2023/08/03 20:02:21+00,Chesapeake,VA
12132296.2571659,3445424.51382434,1096.0,Crestwood,5.0,Crestwood Middle School,1420 Great Bridge Blvd,6:00 a.m. to 7:00 p.m.,YES,2023/11/07 00:00:00+00,2023/10/16 00:00:00+00,Chesapeake's Voter Registrar's Office,757-277-9797,mlpinkerman@cityofchesapeake.net,YES,School,1000.0,http://tinyurl.com/mbc8uqj,COC,2019/03/07 19:40:57+00,PTRIMBLE,2023/08/03 20:02:24+00,Chesapeake,VA
12151133.0314762,3447564.13125719,1097.0,Greenbrier,7.0,Greenbrier Library,1214 Volvo Pkwy,6:00 a.m. to 7:00 p.m.,YES,2023/11/07 00:00:00+00,2023/10/16 00:00:00+00,Chesapeake's Voter Registrar's Office,757-277-9797,mlpinkerman@cityofchesapeake.net,NO,City,500.0,http://tinyurl.com/mbc8uqj,COC,2019/03/07 19:40:57+00,PTRIMBLE,2023/08/03 20:02:36+00,Chesapeake,VA
12133037.0243711,3454091.71775705,1098.0,South Norfolk Rec,8.0,South Norfolk Community Center,1217 Godwin Ave,6:00 a.m. to 7:00 p.m.,YES,2023/11/07 00:00:00+00,2023/10/16 00:00:00+00,Chesapeake's Voter Registrar's Office,757-277-9797,mlpinkerman@cityofchesapeake.net,YES,City,600.0,http://tinyurl.com/mbc8uqj,COC,2019/03/07 19:40:57+00,PTRIMBLE,2023/08/03 20:02:55+00,Chesapeake,VA
12122117.984139,3426728.22510494,1099.0,Bells Mill,9.0,Grassfield High School,2007 Grizzly Trl,6:00 a.m. to 7:00 p.m.,YES,2023/11/07 00:00:00+00,2023/10/16 00:00:00+00,Chesapeake's Voter Registrar's Office,757-277-9797,mlpinkerman@cityofchesapeake.net,NO,School,2000.0,http://tinyurl.com/mbc8uqj,COC,2019/03/07 19:40:57+00,PTRIMBLE,2023/08/03 20:02:11+00,Chesapeake,VA
12134989.9109041,3459037.86665291,1100.0,Oscar Smith,10.0,Oscar Smith Middle School,2500 Rodgers St,6:00 a.m. to 7:00 p.m.,YES,2023/11/07 00:00:00+00,2023/10/16 00:00:00+00,Chesapeake's Voter Registrar's Office,757-277-9797,mlpinkerman@cityofchesapeake.net,NO,School,1200.0,http://tinyurl.com/mbc8uqj,COC,2019/03/07 19:40:57+00,PTRIMBLE,2023/08/03 20:02:47+00,Chesapeake,VA
12145789.9819174,3458330.00005335,1101.0,Georgetown,12.0,Indian River Community Ctr,2250 Old Greenbrier Rd,6:00 a.m. to 7:00 p.m.,YES,2023/11/07 00:00:00+00,2023/10/16 00:00:00+00,Chesapeake's Voter Registrar's Office,757-277-9797,mlpinkerman@cityofchesapeake.net,YES,City,1200.0,http://tinyurl.com/mbc8uqj,COC,2019/03/07 19:40:57+00,PTRIMBLE,2023/08/03 20:02:32+00,Chesapeake,VA
12120223.797042,3446237.98162337,1102.0,Gilmerton,13.0,Wayside Baptist Church,712 Canal Dr,6:00 a.m. to 7:00 p.m.,YES,2023/11/07 00:00:00+00,2023/10/16 00:00:00+00,Chesapeake's Voter Registrar's Office,757-277-9797,mlpinkerman@cityofchesapeake.net,YES,Church,500.0,http://tinyurl.com/mbc8uqj,COC,2019/03/07 19:40:57+00,PTRIMBLE,2023/08/03 20:02:33+00,Chesapeake,VA
12096327.3567228,3476138.05030075,1103.0,Silverwood,27.0,Western Branch Middle School,4201 Hawksley Dr,6:00 a.m. to 7:00 p.m.,YES,2023/11/07 00:00:00+00,2023/10/16 00:00:00+00,Chesapeake's Voter Registrar's Office,757-277-9797,mlpinkerman@cityofchesapeake.net,YES,School,1000.0,http://tinyurl.com/mbc8uqj,COC,2019/03/07 19:40:57+00,PTRIMBLE,2023/08/03 20:02:54+00,Chesapeake,VA
12089816.4928667,3459211.76724441,1104.0,Jolliff,19.0,Alexander Baptist Church,4316 Pamela Ct,6:00 a.m. to 7:00 p.m.,YES,2023/11/07 00:00:00+00,2023/10/16 00:00:00+00,Chesapeake's Voter Registrar's Office,757-277-9797,mlpinkerman@cityofchesapeake.net,NO,Church,500.0,http://tinyurl.com/mbc8uqj,COC,2019/03/07 19:40:57+00,PTRIMBLE,2023/08/03 20:02:42+00,Chesapeake,VA
12090019.2291418,3459284.40389942,1105.0,E. W. Chittum,20.0,Alexander Baptist Church,4316 Pamela Ct,6:00 a.m. to 7:00 p.m.,YES,2023/11/07 00:00:00+00,2023/10/16 00:00:00+00,Chesapeake's Voter Registrar's Office,757-277-9797,mlpinkerman@cityofchesapeake.net,YES,Church,1200.0,http://tinyurl.com/mbc8uqj,COC,2019/03/07 19:40:57+00,PTRIMBLE,2023/08/03 20:02:27+00,Chesapeake,VA
12093020.4725588,3469719.64100683,1106.0,Fellowship,21.0,Point Harbor Community Church,2705 Taylor Rd,6:00 a.m. to 7:00 p.m.,YES,2023/11/07 00:00:00+00,2023/10/16 00:00:00+00,Chesapeake's Voter Registrar's Office,757-277-9797,mlpinkerman@cityofchesapeake.net,YES,Church,800.0,http://tinyurl.com/mbc8uqj,COC,2019/03/07 19:40:57+00,PTRIMBLE,2023/08/03 20:02:29+00,Chesapeake,VA
12117935.7889214,3454731.56884328,1107.0,St. Julians,25.0,Moose Lodge #898,"1400 George Washington Hwy, N",6:00 a.m. to 7:00 p.m.,YES,2023/11/07 00:00:00+00,2023/10/16 00:00:00+00,Chesapeake's Voter Registrar's Office,757-277-9797,mlpinkerman@cityofchesapeake.net,YES,Club,600.0,http://tinyurl.com/mbc8uqj,COC,2019/03/07 19:40:57+00,PTRIMBLE,2023/08/03 20:02:56+00,Chesapeake,VA
12114417.3990097,3441555.46375127,1108.0,Lake Drummond,39.0,Lake Drummond Masonic Lodge # 178,"509 George Washington Hwy, N",6:00 a.m. to 7:00 p.m.,YES,2023/11/07 00:00:00+00,2023/10/16 00:00:00+00,Chesapeake's Voter Registrar's Office,757-277-9797,mlpinkerman@cityofchesapeake.net,YES,Club,500.0,http://tinyurl.com/mbc8uqj,COC,2019/03/07 19:40:57+00,PTRIMBLE,2023/08/03 20:02:43+00,Chesapeake,VA
12094056.5721802,3474040.82862765,1109.0,Nansemond,44.0,Jackson Memorial Baptist Church,4316 Bruce Rd,6:00 a.m. to 7:00 p.m.,YES,2023/11/07 00:00:00+00,2023/10/16 00:00:00+00,Chesapeake's Voter Registrar's Office,757-277-9797,mlpinkerman@cityofchesapeake.net,NO,Church,600.0,http://tinyurl.com/mbc8uqj,COC,2019/03/07 19:40:57+00,PTRIMBLE,2023/08/03 20:02:44+00,Chesapeake,VA
12094635.2189192,3446504.22524473,1110.0,Sunray I,28.0,Sunray Community Center,353 Hertz Rd,6:00 a.m. to 7:00 p.m.,YES,2023/11/07 00:00:00+00,2023/10/16 00:00:00+00,Chesapeake's Voter Registrar's Office,757-277-9797,mlpinkerman@cityofchesapeake.net,YES,City,400.0,http://tinyurl.com/mbc8uqj,COC,2019/03/07 19:40:57+00,PTRIMBLE,2023/08/03 20:02:56+00,Chesapeake,VA
12131884.0330617,3430790.6595604,1111.0,Bells Mill II,46.0,Kingdom Life Ministries,1280 Bells Mill Rd,6:00 a.m. to 7:00 p.m.,YES,2023/11/07 00:00:00+00,2023/10/16 00:00:00+00,Chesapeake's Voter Registrar's Office,757-277-9797,mlpinkerman@cityofchesapeake.net,YES,Church,600.0,http://tinyurl.com/mbc8uqj,COC,2019/03/07 19:40:57+00,PTRIMBLE,2023/08/03 20:02:12+00,Chesapeake,VA
12138226.1708031,3428371.67734833,1112.0,Grassfield,14.0,The Signet Center,884 Bells Mill Road,6:00 a.m. to 7:00 p.m.,YES,2023/11/07 00:00:00+00,2023/10/16 00:00:00+00,Chesapeake's Voter Registrar's Office,757-277-9797,mlpinkerman@cityofchesapeake.net,NO,Church,500.0,http://tinyurl.com/mbc8uqj,COC,2019/03/07 19:40:57+00,PTRIMBLE,2023/08/03 20:02:34+00,Chesapeake,VA
12148787.3308358,3444313.31542298,1113.0,Greenbrier Middle School,15.0,Greenbrier Middle School,1016 Greenbrier Pkwy,6:00 a.m. to 7:00 p.m.,YES,2023/11/07 00:00:00+00,2023/10/16 00:00:00+00,Chesapeake's Voter Registrar's Office,757-277-9797,mlpinkerman@cityofchesapeake.net,YES,School,600.0,http://tinyurl.com/mbc8uqj,COC,2019/03/07 19:40:57+00,PTRIMBLE,2023/08/03 20:02:37+00,Chesapeake,VA
12150088.8135486,3438855.28416784,1114.0,Green Tree,56.0,Harvest Assembly of God,525 Kempsville Rd,6:00 a.m. to 7:00 p.m.,YES,2023/11/07 00:00:00+00,2023/10/16 00:00:00+00,Chesapeake's Voter Registrar's Office,757-277-9797,mlpinkerman@cityofchesapeake.net,NO,Church,600.0,http://tinyurl.com/mbc8uqj,COC,2019/03/07 19:40:57+00,PTRIMBLE,2023/08/03 20:02:36+00,Chesapeake,VA
12094244.3523015,3450186.28962415,1115.0,Sunray II,45.0,St Mary's Catholic Church,540 Homestead Rd,6:00 a.m. to 7:00 p.m.,YES,2023/11/07 00:00:00+00,2023/10/16 00:00:00+00,Chesapeake's Voter Registrar's Office,757-277-9797,mlpinkerman@cityofchesapeake.net,NO,Church,500.0,http://tinyurl.com/mbc8uqj,COC,2019/03/07 19:40:57+00,PTRIMBLE,2023/08/03 20:02:57+00,Chesapeake,VA
12113184.3498163,3449904.26489417,1116.0,Camelot,3.0,Camelot Community Center,948 King Arthur Dr,6:00 a.m. to 7:00 p.m.,YES,2023/11/07 00:00:00+00,2023/10/16 00:00:00+00,Chesapeake's Voter Registrar's Office,757-277-9797,mlpinkerman@cityofchesapeake.net,YES,School,800.0,http://tinyurl.com/mbc8uqj,COC,2019/03/07 19:40:57+00,PTRIMBLE,2023/08/03 20:02:14+00,Chesapeake,VA
12117145.4544734,3450581.70310874,1117.0,Geneva Park,11.0,G. A. Treakle Elementary School,2500 Gilmerton Rd,6:00 a.m. to 7:00 p.m.,YES,2023/11/07 00:00:00+00,2023/10/16 00:00:00+00,Chesapeake's Voter Registrar's Office,757-277-9797,mlpinkerman@cityofchesapeake.net,YES,School,1000.0,http://tinyurl.com/mbc8uqj,COC,2019/03/07 19:40:57+00,PTRIMBLE,2023/08/03 20:02:31+00,Chesapeake,VA
12150248.2351238,3450751.40633351,1118.0,Cypress,57.0,Unity Renaissance Church,1120 Eden Way N,6:00 a.m. to 7:00 p.m.,YES,2023/11/07 00:00:00+00,2023/10/16 00:00:00+00,Chesapeake's Voter Registrar's Office,757-277-9797,mlpinkerman@cityofchesapeake.net,NO,Church,500.0,http://tinyurl.com/mbc8uqj,COC,2019/03/07 19:40:57+00,PTRIMBLE,2023/08/03 20:02:24+00,Chesapeake,VA
12114563.1097958,3440394.70459715,1119.0,Deep Creek II,64.0,New Life Church,423 Shell Rd,6:00 a.m. to 7:00 p.m.,YES,2023/11/07 00:00:00+00,2023/10/16 00:00:00+00,Chesapeake's Voter Registrar's Office,757-277-9797,mlpinkerman@cityofchesapeake.net,NO,Church,600.0,http://tinyurl.com/mbc8uqj,COC,2019/03/07 19:40:57+00,PTRIMBLE,2023/08/03 20:02:26+00,Chesapeake,VA
12160679.5825399,3436840.37794766,1120.0,Waterway,49.0,Redeemer Church,508 Centerville Tpke N,6:00 a.m. to 7:00 p.m.,YES,2023/11/07 00:00:00+00,2023/10/16 00:00:00+00,Chesapeake's Voter Registrar's Office,757-277-9797,mlpinkerman@cityofchesapeake.net,YES,Church,600.0,http://tinyurl.com/mbc8uqj,COC,2019/03/07 19:40:57+00,PTRIMBLE,2023/08/03 20:02:59+00,Chesapeake,VA
12160874.9930135,3440907.57776766,1121.0,Waterway II,65.0,Resurrection Evangelical Lutheran Church,916 Centerville Turnpike N,6:00 a.m. to 7:00 p.m.,YES,2023/11/07 00:00:00+00,2023/10/16 00:00:00+00,Chesapeake's Voter Registrar's Office,757-277-9797,mlpinkerman@cityofchesapeake.net,NO,School,600.0,http://tinyurl.com/mbc8uqj,COC,2019/03/07 19:58:49+00,PTRIMBLE,2023/08/03 20:03:00+00,Chesapeake,VA
12150127.1453478,3446764.6706253,2322.0,Fairways II,66.0,Greenbrier Primary School,1551 Eden Way S,6:00 a.m. to 7:00 p.m.,YES,2023/11/07 00:00:00+00,2023/10/16 00:00:00+00,Chesapeake's Voter Registrar's Office,757-277-9797,mlpinkerman@cityofchesapeake.net,YES,School,600.0,http://tinyurl.com/mbc8uqj,MMONEYPENNY,2022/03/25 17:30:51+00,PTRIMBLE,2023/08/03 20:02:29+00,Chesapeake,VA
12150796.9873429,3453825.665231,2323.0,Fairways,53.0,Greenbrier Intermediate School,1701 River Birch Run N,6:00 a.m. to 7:00 p.m.,YES,2023/11/07 00:00:00+00,2023/10/16 00:00:00+00,Chesapeake's Voter Registrar's Office,757-277-9797,mlpinkerman@cityofchesapeake.net,NO,School,600.0,http://tinyurl.com/mbc8uqj,MMONEYPENNY,2022/03/25 17:30:51+00,PTRIMBLE,2023/08/03 20:02:28+00,Chesapeake,VA
